{
  "type": "FeatureCollection",
  "features": [
    {
      "type": "Feature",
      "properties": {
        "inner_buffer_m": 500,
        "outer_buffer_m": 1500
      },
      "geometry": {
        "type": "Polygon",
        "coordinates": [
          [
            [
              7.613972236727114,
              47.56482070256443
            ],
            [
              7.613933416698162,
              47.564646248637104
            ],
            [
              7.6135475577850595,
              47.56334836495785
            ],
            [
              7.613483663700604,
              47.56317732608867
            ],
            [
              7.612911736442188,
              47.561911287234324
            ],
            [
              7.612823385539443,
              47.56174531027992
            ],
            [
              7.612070911340891,
              47.560523305880345
            ],
            [
              7.6119589561523515,
              47.560363988832066
            ],
            [
              7.611033193166777,
              47.559197783646425
            ],
            [
              7.6108987132459855,
              47.55904666025764
            ],
            [
              7.60980858601536,
              47.55794748098577
            ],
            [
              7.609652877487899,
              47.557806006023085
            ],
            [
              7.60840889066643,
              47.55678443338275
            ],
            [
              7.608233453708709,
              47.55665396863982
            ],
            [
              7.606847590671514,
              47.55571983566112
            ],
            [
              7.606654115039645,
              47.555601636870165
            ],
            [
              7.6051397223116926,
              47.55476393437043
            ],
            [
              7.6049300710604415,
              47.55465913913682
            ],
            [
              7.6033017298717755,
              47.55392592939369
            ],
            [
              7.603077921420898,
              47.55383554626673
            ],
            [
              7.601351307292781,
              47.55321388551523
            ],
            [
              7.601115496013045,
              47.5531387843026
            ],
            [
              7.599307228130874,
              47.55263465501935
            ],
            [
              7.599061683635737,
              47.552575558434
            ],
            [
              7.597189165134147,
              47.552193811877444
            ],
            [
              7.596936250475073,
              47.552151288598616
            ],
            [
              7.595017501159542,
              47.551895598214394
            ],
            [
              7.594759650132912,
              47.5518700574291
            ],
            [
              7.592813133677362,
              47.55174288362588
            ],
            [
              7.592552827459008,
              47.55173457110009
            ],
            [
              7.590597273942354,
              47.55173713759831
            ],
            [
              7.590337017272021,
              47.55174613331874
            ],
            [
              7.588391243556866,
              47.55187841542274
            ],
            [
              7.588133540698743,
              47.551904632828695
            ],
            [
              7.58621626975531,
              47.552165357660726
            ],
            [
              7.585963600463166,
              47.55220854447533
            ],
            [
              7.5840932817266005,
              47.552595203189064
            ],
            [
              7.583848077441709,
              47.55265494384013
            ],
            [
              7.582042709663379,
              47.553163815705986
            ],
            [
              7.5818073301714515,
              47.553239535315754
            ],
            [
              7.580084288608332,
              47.55386572343923
            ],
            [
              7.579860999377421,
              47.553956693342855
            ],
            [
              7.5782368689146455,
              47.55469417167115
            ],
            [
              7.578027819329964,
              47.554799516412665
            ],
            [
              7.5765182350734985,
              47.555641187608295
            ],
            [
              7.576325437776506,
              47.55575989334779
            ],
            [
              7.574944934748716,
              47.556697656932926
            ],
            [
              7.574770246278141,
              47.556828581183545
            ],
            [
              7.573532119527734,
              47.55785341136458
            ],
            [
              7.573377222448057,
              47.557995293968155
            ],
            [
              7.5722933990269965,
              47.559097326343085
            ],
            [
              7.572159785716054,
              47.55924880157855
            ],
            [
              7.571240709686439,
              47.56041742793805
            ],
            [
              7.571129667938685,
              47.56057703764783
            ],
            [
              7.570384199554983,
              47.561801007942805
            ],
            [
              7.570296800140024,
              47.5619672155513
            ],
            [
              7.569732130169023,
              47.5632347460689
            ],
            [
              7.569669216466709,
              47.56340595135926
            ],
            [
              7.56929079649513,
              47.5647048380628
            ],
            [
              7.569252976308976,
              47.56487939257073
            ],
            [
              7.569064465725352,
              47.566197128513565
            ],
            [
              7.569052105355727,
              47.566373351389544
            ],
            [
              7.569055335531721,
              47.56769724708531
            ],
            [
              7.5690685561686095,
              47.56787344127476
            ],
            [
              7.569263512210602,
              47.56919074686683
            ],
            [
              7.56930218868375,
              47.569365215450325
            ],
            [
              7.569687008951362,
              47.57066324349213
            ],
            [
              7.569750770853026,
              47.57083430603135
            ],
            [
              7.570321764281565,
              47.57210055373319
            ],
            [
              7.570409999454267,
              47.57226656246154
            ],
            [
              7.5711616805206186,
              47.573488832156926
            ],
            [
              7.571273540879285,
              47.57364818786222
            ],
            [
              7.572198681913357,
              47.57481470460334
            ],
            [
              7.572333091548715,
              47.57496587204652
            ],
            [
              7.573422791909094,
              47.576065397158985
            ],
            [
              7.573578457396591,
              47.57620691988059
            ],
            [
              7.574822228828685,
              47.57722885935236
            ],
            [
              7.574997651645906,
              47.577359373723354
            ],
            [
              7.5763835190687,
              47.578293880439354
            ],
            [
              7.576577010002959,
              47.578412128820126
            ],
            [
              7.578091626690417,
              47.57925019757973
            ],
            [
              7.57830132209889,
              47.57935504045962
            ],
            [
              7.579930098252645,
              47.58008859493171
            ],
            [
              7.580153978018623,
              47.580179021930014
            ],
            [
              7.581881221375242,
              47.5808009926184
            ],
            [
              7.582117128387357,
              47.58087613224161
            ],
            [
              7.583926195581797,
              47.581380524761244
            ],
            [
              7.584171856547669,
              47.58143965282047
            ],
            [
              7.5860453137629635,
              47.581821605804286
            ],
            [
              7.586298361155218,
              47.58186415241044
            ],
            [
              7.588218152444775,
              47.5821199844676
            ],
            [
              7.588476147366162,
              47.5821455395375
            ],
            [
              7.590423769084763,
              47.58227278482517
            ],
            [
              7.590684224829658,
              47.582281102043694
            ],
            [
              7.592640904374379,
              47.582278534089596
            ],
            [
              7.59290131045682,
              47.582269533289896
            ],
            [
              7.59484818772463,
              47.5821371768458
            ],
            [
              7.595106034138585,
              47.58211094478356
            ],
            [
              7.597024343719887,
              47.58185007558627
            ],
            [
              7.597277145194833,
              47.58180686510181
            ],
            [
              7.599148397763297,
              47.581419997543314
            ],
            [
              7.599393717778241,
              47.58136022511827
            ],
            [
              7.601199878691085,
              47.58085108795381
            ],
            [
              7.601435353012883,
              47.580775329687015
            ],
            [
              7.603159016517591,
              47.58014883001218
            ],
            [
              7.6033823760339105,
              47.58005781605422
            ],
            [
              7.605006933374825,
              47.57931999188292
            ],
            [
              7.605216025999447,
              47.57921459938249
            ],
            [
              7.6067258256409795,
              47.57837256135281
            ],
            [
              7.6069186370784365,
              47.57825380598532
            ],
            [
              7.608299135729031,
              47.57731566866908
            ],
            [
              7.608473808897196,
              47.57718469482851
            ],
            [
              7.609711711677493,
              47.57615949838057
            ],
            [
              7.609866564599927,
              47.576017568130794
            ],
            [
              7.610949953062509,
              47.57491519103067
            ],
            [
              7.611083495058343,
              47.57476367192381
            ],
            [
              7.612001941858659,
              47.573594735625946
            ],
            [
              7.6121128878740185,
              47.57343508750554
            ],
            [
              7.612857556935983,
              47.57221085397342
            ],
            [
              7.612944839880204,
              47.57204461489114
            ],
            [
              7.6135085711564585,
              47.570776877951424
            ],
            [
              7.613571352125618,
              47.57060564933365
            ],
            [
              7.613948730103514,
              47.569306620952666
            ],
            [
              7.6139864063949325,
              47.56913205216018
            ],
            [
              7.61417381172744,
              47.5678142447346
            ],
            [
              7.6141860225705535,
              47.5676380171658
            ],
            [
              7.614181666361023,
              47.56631412292582
            ],
            [
              7.614168296312061,
              47.56613793381568
            ],
            [
              7.613972236727114,
              47.56482070256443
            ]
          ],
          [
            [
              7.600899717028848,
              47.56739218955582
            ],
            [
              7.600837140222216,
              47.56783145170472
            ],
            [
              7.600799421592438,
              47.568006016300686
            ],
            [
              7.600673526759853,
              47.56843901188593
            ],
            [
              7.6006107067314055,
              47.56861023364639
            ],
            [
              7.600422704249523,
              47.5690327924021
            ],
            [
              7.60033538702668,
              47.56919902222975
            ],
            [
              7.600087085605708,
              47.5696070742777
            ],
            [
              7.599976111410438,
              47.56976671110191
            ],
            [
              7.599669900747694,
              47.57015632615787
            ],
            [
              7.59953633775444,
              47.57030783236096
            ],
            [
              7.599175165582976,
              47.57067525760464
            ],
            [
              7.599020299653383,
              47.57081717383909
            ],
            [
              7.59860764339715,
              47.57115887008441
            ],
            [
              7.598432965712766,
              47.57128982933686
            ],
            [
              7.597972799034766,
              47.57160250513744
            ],
            [
              7.5977799917462745,
              47.57172124590473
            ],
            [
              7.597276746292214,
              47.57200188928398
            ],
            [
              7.597067666322822,
              47.5721072677334
            ],
            [
              7.596526189046986,
              47.572353175216584
            ],
            [
              7.596302850206122,
              47.5724441762129
            ],
            [
              7.595728356679673,
              47.57265297889087
            ],
            [
              7.59549291025906,
              47.5727287257837
            ],
            [
              7.594890934390448,
              47.572898412159496
            ],
            [
              7.594645648429989,
              47.572958175235556
            ],
            [
              7.594021989147286,
              47.57308711061077
            ],
            [
              7.59376922657099,
              47.57313031413055
            ],
            [
              7.593129891901321,
              47.57321725637403
            ],
            [
              7.592872087734696,
              47.573243484123765
            ],
            [
              7.592223236870741,
              47.57328759564913
            ],
            [
              7.5919628747599885,
              47.57329659495428
            ],
            [
              7.5913107586771895,
              47.57329745079617
            ],
            [
              7.5910503469376875,
              47.57328913495848
            ],
            [
              7.59040124809105,
              47.57324672687183
            ],
            [
              7.590143295516799,
              47.573221176005084
            ],
            [
              7.589503467273098,
              47.573135912544394
            ],
            [
              7.589250458941567,
              47.57309337280219
            ],
            [
              7.588626065253791,
              47.57296607538112
            ],
            [
              7.5883804385605025,
              47.57290695658266
            ],
            [
              7.587777494538684,
              47.57273885155323
            ],
            [
              7.587541615693488,
              47.572663723231486
            ],
            [
              7.586965929597157,
              47.5724564300571
            ],
            [
              7.586742070809788,
              47.572366015966594
            ],
            [
              7.586199188056389,
              47.572121531607316
            ],
            [
              7.585989505632052,
              47.57201670274525
            ],
            [
              7.58548465533817,
              47.571737382400464
            ],
            [
              7.585291168894883,
              47.57161914860872
            ],
            [
              7.584829213484684,
              47.57130768300837
            ],
            [
              7.5846537864932,
              47.57117718323675
            ],
            [
              7.584239174861599,
              47.57083657270599
            ],
            [
              7.5840834966957065,
              47.57069506403293
            ],
            [
              7.583720221351218,
              47.57032858956122
            ],
            [
              7.5835857910213615,
              47.57017743507563
            ],
            [
              7.583277349660794,
              47.56978862669731
            ],
            [
              7.5831654613876625,
              47.56962928236086
            ],
            [
              7.582914823238446,
              47.56922188512715
            ],
            [
              7.582826554004892,
              47.569055885741776
            ],
            [
              7.582636131281939,
              47.56863382363613
            ],
            [
              7.582572330482712,
              47.56846276805504
            ],
            [
              7.582443955214777,
              47.56803010617997
            ],
            [
              7.582405236502757,
              47.56785564190241
            ],
            [
              7.582340142959797,
              47.56741654731134
            ],
            [
              7.582326878366307,
              47.56724035461013
            ],
            [
              7.582325691253651,
              47.566799056172556
            ],
            [
              7.582338007638313,
              47.566622831910045
            ],
            [
              7.582400736162634,
              47.56618357957344
            ],
            [
              7.582438514025648,
              47.566009020857614
            ],
            [
              7.582564551892442,
              47.565576044720764
            ],
            [
              7.582627426559538,
              47.565404832562834
            ],
            [
              7.582815557896006,
              47.56498230214242
            ],
            [
              7.582902923063193,
              47.56481608527067
            ],
            [
              7.583151334207115,
              47.564408069356986
            ],
            [
              7.583262347809932,
              47.56424844834431
            ],
            [
              7.583568644846764,
              47.56385887583374
            ],
            [
              7.583702237196364,
              47.56370738768997
            ],
            [
              7.584063469074587,
              47.563340009766634
            ],
            [
              7.584218353181188,
              47.56319811314536
            ],
            [
              7.584631040181587,
              47.56285646717762
            ],
            [
              7.584805724165088,
              47.56272552833845
            ],
            [
              7.585265891444011,
              47.56241290383992
            ],
            [
              7.5854586929116765,
              47.562294183501606
            ],
            [
              7.58596190879995,
              47.562013590477584
            ],
            [
              7.5861709710522565,
              47.56190823168777
            ],
            [
              7.5867123897291435,
              47.56166237167896
            ],
            [
              7.586935699637526,
              47.5615713888173
            ],
            [
              7.5875101077921165,
              47.56136262890517
            ],
            [
              7.587745515176691,
              47.56128689792526
            ],
            [
              7.58834738217121,
              47.56111724796717
            ],
            [
              7.588592620492227,
              47.56105749797067
            ],
            [
              7.589216151587846,
              47.56092859126354
            ],
            [
              7.589468859752045,
              47.56088539748731
            ],
            [
              7.5901080518493815,
              47.56079847506067
            ],
            [
              7.59036579692229,
              47.56077225334413
            ],
            [
              7.591014496299957,
              47.56072815202356
            ],
            [
              7.5912747969062915,
              47.56071915480926
            ],
            [
              7.591926758420521,
              47.56071829916722
            ],
            [
              7.592187108608506,
              47.56072661307319
            ],
            [
              7.592836055733534,
              47.560769011347006
            ],
            [
              7.593093949074552,
              47.56079455633353
            ],
            [
              7.593733634290641,
              47.56087980034728
            ],
            [
              7.593986587983519,
              47.560922330487024
            ],
            [
              7.5946108528104235,
              47.561049599571156
            ],
            [
              7.594856431559371,
              47.56110870541359
            ],
            [
              7.595459265861397,
              47.561276774309
            ],
            [
              7.595695105299043,
              47.5613518868193
            ],
            [
              7.596270705021533,
              47.56155913744883
            ],
            [
              7.5964945344525505,
              47.56164953348005
            ],
            [
              7.597037357496939,
              47.56189397051775
            ],
            [
              7.5972470217442645,
              47.56199877976648
            ],
            [
              7.597751841297461,
              47.56227804983609
            ],
            [
              7.597945321441624,
              47.56239626321464
            ],
            [
              7.598407276248038,
              47.56270767751095
            ],
            [
              7.598582709060355,
              47.56283815685354
            ],
            [
              7.598997350259117,
              47.56317871702989
            ],
            [
              7.599153046142098,
              47.56332020604341
            ],
            [
              7.599516380082856,
              47.563686633041485
            ],
            [
              7.599650839345203,
              47.56383776939235
            ],
            [
              7.599959366080901,
              47.56422653500342
            ],
            [
              7.600071293390062,
              47.56438586342703
            ],
            [
              7.60032204041261,
              47.56479322424393
            ],
            [
              7.600410357285597,
              47.564959210549794
            ],
            [
              7.600600908194988,
              47.56538124398638
            ],
            [
              7.600664763406315,
              47.565552289823884
            ],
            [
              7.600793281249165,
              47.56598493188289
            ],
            [
              7.6008320590549,
              47.56615939012749
            ],
            [
              7.600897304080981,
              47.56659847451347
            ],
            [
              7.600910630178875,
              47.56677466512382
            ],
            [
              7.600911971861991,
              47.56721596336158
            ],
            [
              7.600899717028848,
              47.56739218955582
            ]
          ]
        ]
      }
    }
  ]
}
