{
  "type": "FeatureCollection",
  "features": [
    {
      "type": "Feature",
      "geometry": {
        "type": "Polygon",
        "coordinates": [
          [
            [
              2611542.5320000015,
              1268408.2280000001
            ],
            [
              2611537.9503999986,
              1268400.1209999993
            ],
            [
              2611537.776900001,
              1268399.814100001
            ],
            [
              2611536.147,
              1268396.9299999997
            ],
            [
              2611536.0819999985,
              1268396.824000001
            ],
            [
              2611536.0130000003,
              1268396.7219999991
            ],
            [
              2611535.9389999993,
              1268396.6229999997
            ],
            [
              2611535.8599999994,
              1268396.5269999988
            ],
            [
              2611535.7760000005,
              1268396.4360000007
            ],
            [
              2611535.688000001,
              1268396.3489999995
            ],
            [
              2611535.596999999,
              1268396.265999999
            ],
            [
              2611535.5009999983,
              1268396.186999999
            ],
            [
              2611535.401999999,
              1268396.1130000018
            ],
            [
              2611535.2989999987,
              1268396.0439999998
            ],
            [
              2611535.193,
              1268395.9800000004
            ],
            [
              2611535.083999999,
              1268395.921
            ],
            [
              2611534.971999999,
              1268395.8669999987
            ],
            [
              2611534.857999999,
              1268395.8189999983
            ],
            [
              2611534.7419999987,
              1268395.7760000005
            ],
            [
              2611534.6240000017,
              1268395.739
            ],
            [
              2611534.4990000017,
              1268395.7060000002
            ],
            [
              2611534.3729999997,
              1268395.6799999997
            ],
            [
              2611534.245000001,
              1268395.6600000001
            ],
            [
              2611534.1169999987,
              1268395.6460000016
            ],
            [
              2611533.9880000018,
              1268395.6389999986
            ],
            [
              2611533.859000001,
              1268395.6380000003
            ],
            [
              2611533.7300000004,
              1268395.6440000013
            ],
            [
              2611533.602000002,
              1268395.6559999995
            ],
            [
              2611533.4739999995,
              1268395.6739999987
            ],
            [
              2611533.346999999,
              1268395.699000001
            ],
            [
              2611533.221999999,
              1268395.7300000004
            ],
            [
              2611533.098000001,
              1268395.767000001
            ],
            [
              2611532.977000002,
              1268395.8110000007
            ],
            [
              2611532.857000001,
              1268395.8599999994
            ],
            [
              2611532.7410000004,
              1268395.914999999
            ],
            [
              2611532.6270000003,
              1268395.9759999998
            ],
            [
              2611522.3599999994,
              1268401.7190000005
            ],
            [
              2611511.618999999,
              1268407.7410000004
            ],
            [
              2611511.4750000015,
              1268407.8110000007
            ],
            [
              2611511.3379999995,
              1268407.892000001
            ],
            [
              2611511.2080000006,
              1268407.984000001
            ],
            [
              2611511.085000001,
              1268408.0859999992
            ],
            [
              2611510.971000001,
              1268408.197999999
            ],
            [
              2611510.8669999987,
              1268408.318
            ],
            [
              2611510.772999998,
              1268408.4470000006
            ],
            [
              2611510.6889999993,
              1268408.5830000006
            ],
            [
              2611510.6169999987,
              1268408.7250000015
            ],
            [
              2611510.5560000017,
              1268408.8729999997
            ],
            [
              2611510.5080000013,
              1268409.0249999985
            ],
            [
              2611510.471999999,
              1268409.1810000017
            ],
            [
              2611510.447999999,
              1268409.3379999995
            ],
            [
              2611510.438000001,
              1268409.4979999997
            ],
            [
              2611510.4409999996,
              1268409.6570000015
            ],
            [
              2611510.4560000002,
              1268409.8159999996
            ],
            [
              2611510.4809999987,
              1268409.9589999989
            ],
            [
              2611510.517000001,
              1268410.0989999995
            ],
            [
              2611510.561999999,
              1268410.2360000014
            ],
            [
              2611510.6180000007,
              1268410.370000001
            ],
            [
              2611510.6829999983,
              1268410.4990000017
            ],
            [
              2611510.7580000013,
              1268410.6229999997
            ],
            [
              2611510.840999998,
              1268410.7410000004
            ],
            [
              2611510.9329999983,
              1268410.8530000001
            ],
            [
              2611511.033,
              1268410.9580000006
            ],
            [
              2611511.1400000006,
              1268411.0549999997
            ],
            [
              2611511.2540000007,
              1268411.1440000013
            ],
            [
              2611511.375,
              1268411.2239999995
            ],
            [
              2611511.5009999983,
              1268411.296
            ],
            [
              2611511.6319999993,
              1268411.357999999
            ],
            [
              2611511.767000001,
              1268411.4100000001
            ],
            [
              2611511.905000001,
              1268411.4519999996
            ],
            [
              2611512.653000001,
              1268411.6609999985
            ],
            [
              2611525.8880000003,
              1268415.1330000013
            ],
            [
              2611546.592,
              1268420.5089999996
            ],
            [
              2611546.6999999993,
              1268420.5289999992
            ],
            [
              2611546.8090000004,
              1268420.539999999
            ],
            [
              2611546.9189999998,
              1268420.5439999998
            ],
            [
              2611547.028999999,
              1268420.5390000008
            ],
            [
              2611547.1380000003,
              1268420.5260000005
            ],
            [
              2611547.2459999993,
              1268420.506000001
            ],
            [
              2611547.352000002,
              1268420.4770000018
            ],
            [
              2611547.4560000002,
              1268420.4409999996
            ],
            [
              2611547.5560000017,
              1268420.3969999999
            ],
            [
              2611547.653999999,
              1268420.3469999991
            ],
            [
              2611547.7470000014,
              1268420.2890000008
            ],
            [
              2611547.835999999,
              1268420.2239999995
            ],
            [
              2611547.920000002,
              1268420.1530000009
            ],
            [
              2611547.9979999997,
              1268420.0760000013
            ],
            [
              2611548.0709999986,
              1268419.993999999
            ],
            [
              2611548.1369999982,
              1268419.9059999995
            ],
            [
              2611548.1920000017,
              1268419.8220000006
            ],
            [
              2611548.2410000004,
              1268419.734000001
            ],
            [
              2611548.285,
              1268419.6429999992
            ],
            [
              2611548.3220000006,
              1268419.5500000007
            ],
            [
              2611548.352000002,
              1268419.454
            ],
            [
              2611548.3770000003,
              1268419.3570000008
            ],
            [
              2611548.3940000013,
              1268419.2580000013
            ],
            [
              2611548.405000001,
              1268419.1579999998
            ],
            [
              2611548.409000002,
              1268419.057
            ],
            [
              2611548.4070000015,
              1268418.9569999985
            ],
            [
              2611548.397,
              1268418.8570000008
            ],
            [
              2611548.381000001,
              1268418.7580000013
            ],
            [
              2611548.359000001,
              1268418.6600000001
            ],
            [
              2611548.329,
              1268418.563000001
            ],
            [
              2611548.2939999998,
              1268418.4690000005
            ],
            [
              2611548.2520000003,
              1268418.3779999986
            ],
            [
              2611542.5320000015,
              1268408.2280000001
            ]
          ]
        ]
      },
      "properties": {
        "Art": "übriges Gebiet",
        "FID": 404,
        "Id_Fokusgebiet": 337
      }
    },
    {
      "type": "Feature",
      "geometry": {
        "type": "Polygon",
        "coordinates": [
          [
            [
              2611570.721999999,
              1268660.3299999982
            ],
            [
              2611573.710000001,
              1268663.3460000008
            ],
            [
              2611610.504491002,
              1268663.5420234413
            ],
            [
              2611624.4945127014,
              1268655.1567271398
            ],
            [
              2611640.250336258,
              1268643.4714119956
            ],
            [
              2611642.9025516068,
              1268641.0675841232
            ],
            [
              2611643.1735999994,
              1268589.6427000016
            ],
            [
              2611643.208999999,
              1268582.9180000015
            ],
            [
              2611643.2349999994,
              1268577.7930000015
            ],
            [
              2611645.3455,
              1268567.1345000006
            ],
            [
              2611645.3550999984,
              1268567.1418000013
            ],
            [
              2611645.4965999983,
              1268567.2325999998
            ],
            [
              2611645.645399999,
              1268567.310899999
            ],
            [
              2611645.8004,
              1268567.3762000017
            ],
            [
              2611647.1072000004,
              1268567.6629000008
            ],
            [
              2611652.9023,
              1268538.2212000005
            ],
            [
              2611655.5133000016,
              1268525.0364000015
            ],
            [
              2611658.345400002,
              1268510.7375999987
            ],
            [
              2611659.793400001,
              1268503.4266999997
            ],
            [
              2611661.993900001,
              1268492.2919000015
            ],
            [
              2611662.150699999,
              1268491.4987000003
            ],
            [
              2611665.6284000017,
              1268473.9008999988
            ],
            [
              2611663.8797000013,
              1268473.5406000018
            ],
            [
              2611664.291000001,
              1268471.4640000015
            ],
            [
              2611595.846000001,
              1268453.6530000009
            ],
            [
              2611595.156199999,
              1268457.1383000016
            ],
            [
              2611590.7707,
              1268456.3038999997
            ],
            [
              2611584.362300001,
              1268488.7399000004
            ],
            [
              2611582.9483999982,
              1268495.879999999
            ],
            [
              2611582.6213999987,
              1268497.5320000015
            ],
            [
              2611582.2115,
              1268499.6020000018
            ],
            [
              2611580.951200001,
              1268505.9666999988
            ],
            [
              2611580.5441000015,
              1268508.0234999992
            ],
            [
              2611579.9409000017,
              1268511.0423999988
            ],
            [
              2611568.7630999982,
              1268567.453499999
            ],
            [
              2611568.4871000014,
              1268568.8475000001
            ],
            [
              2611568.1851000004,
              1268570.373399999
            ],
            [
              2611567.9761000015,
              1268571.5683999993
            ],
            [
              2611567.9230999984,
              1268571.885400001
            ],
            [
              2611570.6732,
              1268572.3685000017
            ],
            [
              2611571.096900001,
              1268572.3935000002
            ],
            [
              2611571.0650000013,
              1268573.5009999983
            ],
            [
              2611571.0769999996,
              1268578.7930000015
            ],
            [
              2611571.0599999987,
              1268582.6059999987
            ],
            [
              2611571.0555000007,
              1268583.6513999999
            ],
            [
              2611571.0308,
              1268589.3310999982
            ],
            [
              2611570.721999999,
              1268660.3299999982
            ]
          ]
        ]
      },
      "properties": {
        "Art": "übriges Gebiet",
        "FID": 405,
        "Id_Fokusgebiet": 335
      }
    },
    {
      "type": "Feature",
      "geometry": {
        "type": "Polygon",
        "coordinates": [
          [
            [
              2611555.6226999983,
              1268672.2298999988
            ],
            [
              2611544.2107000016,
              1268672.1656999998
            ],
            [
              2611544.2278000005,
              1268678.454599999
            ],
            [
              2611555.592799999,
              1268678.4778000005
            ],
            [
              2611555.6226999983,
              1268672.2298999988
            ]
          ]
        ]
      },
      "properties": {
        "Art": "übriges Gebiet",
        "FID": 406,
        "Id_Fokusgebiet": 334
      }
    },
    {
      "type": "Feature",
      "geometry": {
        "type": "Polygon",
        "coordinates": [
          [
            [
              2611555.839299999,
              1268642.5251999982
            ],
            [
              2611555.8231000006,
              1268638.3370999992
            ],
            [
              2611555.290100001,
              1268638.3280999996
            ],
            [
              2611555.2941000015,
              1268638.2421000004
            ],
            [
              2611545.3599999994,
              1268638.068
            ],
            [
              2611545.357000001,
              1268638.1319999993
            ],
            [
              2611544.8150000013,
              1268638.1259999983
            ],
            [
              2611544.818,
              1268638.0581
            ],
            [
              2611540.746100001,
              1268637.9869999997
            ],
            [
              2611540.745099999,
              1268638.2030000016
            ],
            [
              2611540.7271,
              1268642.4679999985
            ],
            [
              2611540.7190999985,
              1268644.2109999992
            ],
            [
              2611540.7190999985,
              1268644.2170000002
            ],
            [
              2611540.6689999998,
              1268656.0909000002
            ],
            [
              2611540.651999999,
              1268660.131000001
            ],
            [
              2611540.6385999992,
              1268663.1678000018
            ],
            [
              2611544.171599999,
              1268663.1658999994
            ],
            [
              2611546.830600001,
              1268663.1849000007
            ],
            [
              2611552.272599999,
              1268663.2089999989
            ],
            [
              2611555.6975999996,
              1268663.2300000004
            ],
            [
              2611555.839299999,
              1268642.5251999982
            ]
          ]
        ]
      },
      "properties": {
        "Art": "übriges Gebiet",
        "FID": 407,
        "Id_Fokusgebiet": 333
      }
    },
    {
      "type": "Feature",
      "geometry": {
        "type": "Polygon",
        "coordinates": [
          [
            [
              2611571.0555000007,
              1268583.6513999999
            ],
            [
              2611571.0599999987,
              1268582.6059999987
            ],
            [
              2611571.0769999996,
              1268578.7930000015
            ],
            [
              2611571.0650000013,
              1268573.5009999983
            ],
            [
              2611571.096900001,
              1268572.3935000002
            ],
            [
              2611570.6732,
              1268572.3685000017
            ],
            [
              2611567.9230999984,
              1268571.885400001
            ],
            [
              2611567.9761000015,
              1268571.5683999993
            ],
            [
              2611568.1851000004,
              1268570.373399999
            ],
            [
              2611568.4871000014,
              1268568.8475000001
            ],
            [
              2611568.7630999982,
              1268567.453499999
            ],
            [
              2611579.9409000017,
              1268511.0423999988
            ],
            [
              2611580.5441000015,
              1268508.0234999992
            ],
            [
              2611580.951200001,
              1268505.9666999988
            ],
            [
              2611582.2115,
              1268499.6020000018
            ],
            [
              2611582.6213999987,
              1268497.5320000015
            ],
            [
              2611582.9483999982,
              1268495.879999999
            ],
            [
              2611584.362300001,
              1268488.7399000004
            ],
            [
              2611590.7707,
              1268456.3038999997
            ],
            [
              2611595.156199999,
              1268457.1383000016
            ],
            [
              2611595.846000001,
              1268453.6530000009
            ],
            [
              2611664.291000001,
              1268471.4640000015
            ],
            [
              2611663.8797000013,
              1268473.5406000018
            ],
            [
              2611665.6284000017,
              1268473.9008999988
            ],
            [
              2611662.150699999,
              1268491.4987000003
            ],
            [
              2611661.993900001,
              1268492.2919000015
            ],
            [
              2611659.793400001,
              1268503.4266999997
            ],
            [
              2611658.345400002,
              1268510.7375999987
            ],
            [
              2611655.5133000016,
              1268525.0364000015
            ],
            [
              2611652.9023,
              1268538.2212000005
            ],
            [
              2611647.1072000004,
              1268567.6629000008
            ],
            [
              2611645.8004,
              1268567.3762000017
            ],
            [
              2611645.645399999,
              1268567.310899999
            ],
            [
              2611645.4965999983,
              1268567.2325999998
            ],
            [
              2611645.3550999984,
              1268567.1418000013
            ],
            [
              2611645.3455,
              1268567.1345000006
            ],
            [
              2611643.2349999994,
              1268577.7930000015
            ],
            [
              2611643.208999999,
              1268582.9180000015
            ],
            [
              2611643.1735999994,
              1268589.6427000016
            ],
            [
              2611642.9025516068,
              1268641.0675841232
            ],
            [
              2611654.7849300434,
              1268630.2980240681
            ],
            [
              2611667.9583179755,
              1268615.7634302885
            ],
            [
              2611679.6436331253,
              1268600.0076067387
            ],
            [
              2611689.728339521,
              1268583.1822906143
            ],
            [
              2611698.1153159267,
              1268565.4495188992
            ],
            [
              2611704.723791175,
              1268546.9800678852
            ],
            [
              2611709.4901220375,
              1268527.9518084887
            ],
            [
              2611712.3684061407,
              1268508.5479932376
            ],
            [
              2611713.330924037,
              1268488.9554914932
            ],
            [
              2611712.368406152,
              1268469.3629897377
            ],
            [
              2611709.4901220594,
              1268449.9591744887
            ],
            [
              2611704.7237912077,
              1268430.9309150944
            ],
            [
              2611698.11531597,
              1268412.4614640835
            ],
            [
              2611689.7283395743,
              1268394.728692383
            ],
            [
              2611679.6436331877,
              1268377.903376259
            ],
            [
              2611667.9583180468,
              1268362.1475527133
            ],
            [
              2611654.784930123,
              1268347.6129589453
            ],
            [
              2611640.250336345,
              1268334.4395710225
            ],
            [
              2611624.494512795,
              1268322.754255895
            ],
            [
              2611607.6691966667,
              1268312.6695495085
            ],
            [
              2611589.9364249525,
              1268304.2825731155
            ],
            [
              2611571.4669739376,
              1268297.6740978886
            ],
            [
              2611552.4387145317,
              1268292.9077670283
            ],
            [
              2611533.0348992753,
              1268290.0294829446
            ],
            [
              2611513.4423975153,
              1268289.0669650596
            ],
            [
              2611493.8498957553,
              1268290.0294829558
            ],
            [
              2611474.446080497,
              1268292.9077670537
            ],
            [
              2611455.4178210883,
              1268297.6740979138
            ],
            [
              2611436.9483700697,
              1268304.2825731605
            ],
            [
              2611419.2155983513,
              1268312.6695495618
            ],
            [
              2611402.390282217,
              1268322.754255955
            ],
            [
              2611386.63445866,
              1268334.4395710982
            ],
            [
              2611372.099864875,
              1268347.6129590252
            ],
            [
              2611358.9264769433,
              1268362.1475528046
            ],
            [
              2611347.241161793,
              1268377.903376353
            ],
            [
              2611337.1564553976,
              1268394.7286924755
            ],
            [
              2611328.769478992,
              1268412.4614641857
            ],
            [
              2611322.1610037433,
              1268430.930915201
            ],
            [
              2611317.3946728813,
              1268449.9591746037
            ],
            [
              2611314.5163887776,
              1268469.3629898527
            ],
            [
              2611313.5538708814,
              1268488.9554916013
            ],
            [
              2611314.5163887665,
              1268508.5479933582
            ],
            [
              2611317.3946728595,
              1268527.9518085953
            ],
            [
              2611322.1610037107,
              1268546.9800679989
            ],
            [
              2611328.769478949,
              1268565.4495190058
            ],
            [
              2611337.1564553445,
              1268583.1822907082
            ],
            [
              2611347.241161731,
              1268600.0076068328
            ],
            [
              2611358.926476872,
              1268615.7634303768
            ],
            [
              2611372.0998647953,
              1268630.2980241508
            ],
            [
              2611386.6344585735,
              1268643.4714120629
            ],
            [
              2611402.390282124,
              1268655.1567271987
            ],
            [
              2611419.215598252,
              1268665.2414335827
            ],
            [
              2611436.948369966,
              1268673.6284099747
            ],
            [
              2611455.417820981,
              1268680.2368852105
            ],
            [
              2611474.4460803866,
              1268685.003216059
            ],
            [
              2611493.849895643,
              1268687.8815001517
            ],
            [
              2611513.442397403,
              1268688.844018034
            ],
            [
              2611533.0348991635,
              1268687.8815001405
            ],
            [
              2611552.4387144214,
              1268685.0032160364
            ],
            [
              2611571.46697383,
              1268680.2368851767
            ],
            [
              2611589.9364248486,
              1268673.6284099298
            ],
            [
              2611607.6691965675,
              1268665.241433524
            ],
            [
              2611610.504491002,
              1268663.5420234413
            ],
            [
              2611573.710000001,
              1268663.3460000008
            ],
            [
              2611570.721999999,
              1268660.3299999982
            ],
            [
              2611571.0308,
              1268589.3310999982
            ],
            [
              2611571.0555000007,
              1268583.6513999999
            ]
          ],
          [
            [
              2611544.2278000005,
              1268678.454599999
            ],
            [
              2611544.2107000016,
              1268672.1656999998
            ],
            [
              2611555.6226999983,
              1268672.2298999988
            ],
            [
              2611555.592799999,
              1268678.4778000005
            ],
            [
              2611544.2278000005,
              1268678.454599999
            ]
          ],
          [
            [
              2611552.272599999,
              1268663.2089999989
            ],
            [
              2611546.830600001,
              1268663.1849000007
            ],
            [
              2611544.171599999,
              1268663.1658999994
            ],
            [
              2611540.6385999992,
              1268663.1678000018
            ],
            [
              2611540.651999999,
              1268660.131000001
            ],
            [
              2611540.6689999998,
              1268656.0909000002
            ],
            [
              2611540.7190999985,
              1268644.2170000002
            ],
            [
              2611540.7190999985,
              1268644.2109999992
            ],
            [
              2611540.7271,
              1268642.4679999985
            ],
            [
              2611540.745099999,
              1268638.2030000016
            ],
            [
              2611540.746100001,
              1268637.9869999997
            ],
            [
              2611544.818,
              1268638.0581
            ],
            [
              2611544.8150000013,
              1268638.1259999983
            ],
            [
              2611545.357000001,
              1268638.1319999993
            ],
            [
              2611545.3599999994,
              1268638.068
            ],
            [
              2611555.2941000015,
              1268638.2421000004
            ],
            [
              2611555.290100001,
              1268638.3280999996
            ],
            [
              2611555.8231000006,
              1268638.3370999992
            ],
            [
              2611555.839299999,
              1268642.5251999982
            ],
            [
              2611555.6975999996,
              1268663.2300000004
            ],
            [
              2611552.272599999,
              1268663.2089999989
            ]
          ],
          [
            [
              2611548.2939999998,
              1268418.4690000005
            ],
            [
              2611548.329,
              1268418.563000001
            ],
            [
              2611548.359000001,
              1268418.6600000001
            ],
            [
              2611548.381000001,
              1268418.7580000013
            ],
            [
              2611548.397,
              1268418.8570000008
            ],
            [
              2611548.4070000015,
              1268418.9569999985
            ],
            [
              2611548.409000002,
              1268419.057
            ],
            [
              2611548.405000001,
              1268419.1579999998
            ],
            [
              2611548.3940000013,
              1268419.2580000013
            ],
            [
              2611548.3770000003,
              1268419.3570000008
            ],
            [
              2611548.352000002,
              1268419.454
            ],
            [
              2611548.3220000006,
              1268419.5500000007
            ],
            [
              2611548.285,
              1268419.6429999992
            ],
            [
              2611548.2410000004,
              1268419.734000001
            ],
            [
              2611548.1920000017,
              1268419.8220000006
            ],
            [
              2611548.1369999982,
              1268419.9059999995
            ],
            [
              2611548.0709999986,
              1268419.993999999
            ],
            [
              2611547.9979999997,
              1268420.0760000013
            ],
            [
              2611547.920000002,
              1268420.1530000009
            ],
            [
              2611547.835999999,
              1268420.2239999995
            ],
            [
              2611547.7470000014,
              1268420.2890000008
            ],
            [
              2611547.653999999,
              1268420.3469999991
            ],
            [
              2611547.5560000017,
              1268420.3969999999
            ],
            [
              2611547.4560000002,
              1268420.4409999996
            ],
            [
              2611547.352000002,
              1268420.4770000018
            ],
            [
              2611547.2459999993,
              1268420.506000001
            ],
            [
              2611547.1380000003,
              1268420.5260000005
            ],
            [
              2611547.028999999,
              1268420.5390000008
            ],
            [
              2611546.9189999998,
              1268420.5439999998
            ],
            [
              2611546.8090000004,
              1268420.539999999
            ],
            [
              2611546.6999999993,
              1268420.5289999992
            ],
            [
              2611546.592,
              1268420.5089999996
            ],
            [
              2611525.8880000003,
              1268415.1330000013
            ],
            [
              2611512.653000001,
              1268411.6609999985
            ],
            [
              2611511.905000001,
              1268411.4519999996
            ],
            [
              2611511.767000001,
              1268411.4100000001
            ],
            [
              2611511.6319999993,
              1268411.357999999
            ],
            [
              2611511.5009999983,
              1268411.296
            ],
            [
              2611511.375,
              1268411.2239999995
            ],
            [
              2611511.2540000007,
              1268411.1440000013
            ],
            [
              2611511.1400000006,
              1268411.0549999997
            ],
            [
              2611511.033,
              1268410.9580000006
            ],
            [
              2611510.9329999983,
              1268410.8530000001
            ],
            [
              2611510.840999998,
              1268410.7410000004
            ],
            [
              2611510.7580000013,
              1268410.6229999997
            ],
            [
              2611510.6829999983,
              1268410.4990000017
            ],
            [
              2611510.6180000007,
              1268410.370000001
            ],
            [
              2611510.561999999,
              1268410.2360000014
            ],
            [
              2611510.517000001,
              1268410.0989999995
            ],
            [
              2611510.4809999987,
              1268409.9589999989
            ],
            [
              2611510.4560000002,
              1268409.8159999996
            ],
            [
              2611510.4409999996,
              1268409.6570000015
            ],
            [
              2611510.438000001,
              1268409.4979999997
            ],
            [
              2611510.447999999,
              1268409.3379999995
            ],
            [
              2611510.471999999,
              1268409.1810000017
            ],
            [
              2611510.5080000013,
              1268409.0249999985
            ],
            [
              2611510.5560000017,
              1268408.8729999997
            ],
            [
              2611510.6169999987,
              1268408.7250000015
            ],
            [
              2611510.6889999993,
              1268408.5830000006
            ],
            [
              2611510.772999998,
              1268408.4470000006
            ],
            [
              2611510.8669999987,
              1268408.318
            ],
            [
              2611510.971000001,
              1268408.197999999
            ],
            [
              2611511.085000001,
              1268408.0859999992
            ],
            [
              2611511.2080000006,
              1268407.984000001
            ],
            [
              2611511.3379999995,
              1268407.892000001
            ],
            [
              2611511.4750000015,
              1268407.8110000007
            ],
            [
              2611511.618999999,
              1268407.7410000004
            ],
            [
              2611522.3599999994,
              1268401.7190000005
            ],
            [
              2611532.6270000003,
              1268395.9759999998
            ],
            [
              2611532.7410000004,
              1268395.914999999
            ],
            [
              2611532.857000001,
              1268395.8599999994
            ],
            [
              2611532.977000002,
              1268395.8110000007
            ],
            [
              2611533.098000001,
              1268395.767000001
            ],
            [
              2611533.221999999,
              1268395.7300000004
            ],
            [
              2611533.346999999,
              1268395.699000001
            ],
            [
              2611533.4739999995,
              1268395.6739999987
            ],
            [
              2611533.602000002,
              1268395.6559999995
            ],
            [
              2611533.7300000004,
              1268395.6440000013
            ],
            [
              2611533.859000001,
              1268395.6380000003
            ],
            [
              2611533.9880000018,
              1268395.6389999986
            ],
            [
              2611534.1169999987,
              1268395.6460000016
            ],
            [
              2611534.245000001,
              1268395.6600000001
            ],
            [
              2611534.3729999997,
              1268395.6799999997
            ],
            [
              2611534.4990000017,
              1268395.7060000002
            ],
            [
              2611534.6240000017,
              1268395.739
            ],
            [
              2611534.7419999987,
              1268395.7760000005
            ],
            [
              2611534.857999999,
              1268395.8189999983
            ],
            [
              2611534.971999999,
              1268395.8669999987
            ],
            [
              2611535.083999999,
              1268395.921
            ],
            [
              2611535.193,
              1268395.9800000004
            ],
            [
              2611535.2989999987,
              1268396.0439999998
            ],
            [
              2611535.401999999,
              1268396.1130000018
            ],
            [
              2611535.5009999983,
              1268396.186999999
            ],
            [
              2611535.596999999,
              1268396.265999999
            ],
            [
              2611535.688000001,
              1268396.3489999995
            ],
            [
              2611535.7760000005,
              1268396.4360000007
            ],
            [
              2611535.8599999994,
              1268396.5269999988
            ],
            [
              2611535.9389999993,
              1268396.6229999997
            ],
            [
              2611536.0130000003,
              1268396.7219999991
            ],
            [
              2611536.0819999985,
              1268396.824000001
            ],
            [
              2611536.147,
              1268396.9299999997
            ],
            [
              2611537.776900001,
              1268399.814100001
            ],
            [
              2611537.9503999986,
              1268400.1209999993
            ],
            [
              2611542.5320000015,
              1268408.2280000001
            ],
            [
              2611548.2520000003,
              1268418.3779999986
            ],
            [
              2611548.2939999998,
              1268418.4690000005
            ]
          ]
        ]
      },
      "properties": {
        "Art": "Fokus",
        "FID": 431,
        "Id_Fokusgebiet": 756
      }
    }
  ]
}
