{"type":"FeatureCollection","features":[{"type":"Feature","geometry":{"type":"MultiPolygon","coordinates":[[[[12.51371,55.70037],[12.51678,55.70335],[12.51728,55.70317],[12.51632,55.70232],[12.51412,55.70021],[12.51371,55.70037]]]]},"properties":{"type":"Forsinkelsesplads","project":"Bellahøj Camping","catchment":"Bispebjerg","expected_year":"2028"}},{"type":"Feature","geometry":{"type":"MultiPolygon","coordinates":[[[[12.5184,55.70194],[12.51863,55.70223],[12.51869,55.70219],[12.51867,55.70206],[12.51872,55.70201],[12.5186,55.70198],[12.5186,55.70185],[12.51867,55.70177],[12.51856,55.70159],[12.51862,55.70146],[12.51859,55.70141],[12.51846,55.70162],[12.51821,55.70175],[12.5184,55.70194]]]]},"properties":{"type":"Forsinkelsesplads","project":"Hulgårdsvej","catchment":"Bispebjerg","expected_year":"2028"}},{"type":"Feature","geometry":{"type":"MultiPolygon","coordinates":[[[[12.51194,55.7116],[12.51223,55.71098],[12.51157,55.71125],[12.51194,55.7116]]]]},"properties":{"type":"Forsinkelsesplads","project":"Hyrdevangen","catchment":"Bispebjerg","expected_year":"2036"}},{"type":"Feature","geometry":{"type":"MultiPolygon","coordinates":[[[[12.51314,55.71203],[12.51259,55.71191],[12.51253,55.71193],[12.51276,55.71215],[12.51294,55.71214],[12.51306,55.71219],[12.51314,55.71203]]]]},"properties":{"type":"Forsinkelsesplads","project":"Hyrdevangen","catchment":"Bispebjerg","expected_year":"2036"}},{"type":"Feature","geometry":{"type":"MultiPolygon","coordinates":[[[[12.53351,55.71395],[12.53334,55.71366],[12.53333,55.71344],[12.53381,55.71277],[12.53392,55.71274],[12.53398,55.71279],[12.534,55.71291],[12.53397,55.71308],[12.53387,55.71318],[12.53383,55.71333],[12.53396,55.71375],[12.53387,55.71387],[12.53363,55.71403],[12.53357,55.71403],[12.53351,55.71395]]]]},"properties":{"type":"ukendt","project":"Bispeparken Nord","catchment":"Bispebjerg","expected_year":"2017"}},{"type":"Feature","geometry":{"type":"MultiPolygon","coordinates":[[[[12.5107,55.70785],[12.51096,55.70777],[12.51038,55.70723],[12.50954,55.70681],[12.5093,55.70713],[12.51028,55.70744],[12.5107,55.70785]]]]},"properties":{"type":"Forsinkelsesplads","project":"Brønshøjparken","catchment":"Bispebjerg","expected_year":"2034"}},{"type":"Feature","geometry":{"type":"MultiPolygon","coordinates":[[[[12.55645,55.67782],[12.55922,55.6776],[12.5585,55.67478],[12.55814,55.67485],[12.55783,55.67482],[12.55766,55.67468],[12.55768,55.67454],[12.55745,55.6745],[12.55727,55.67428],[12.55564,55.674],[12.55552,55.6742],[12.55645,55.67782]]]]},"properties":{"type":"Forsinkelsesplads","project":"Sankt Jørgens Sø","catchment":"Vesterbro-ladegaardså","expected_year":"2035"}},{"type":"Feature","geometry":{"type":"MultiPolygon","coordinates":[[[[12.61228,55.65753],[12.61357,55.65775],[12.61443,55.65638],[12.61316,55.65613],[12.61228,55.65753]]]]},"properties":{"type":"Forsinkelsesplads","project":"Kirkegårdsvej, Kastrupvej og Sundby Kirkegård","catchment":"Amager","expected_year":"2032"}},{"type":"Feature","geometry":{"type":"MultiPolygon","coordinates":[[[[12.56768,55.7099],[12.56764,55.71022],[12.56848,55.71016],[12.5685,55.71004],[12.56768,55.7099]]]]},"properties":{"type":"Forsinkelsesplads","project":"Tåsinge Plads","catchment":"Østerbro","expected_year":"2014"}},{"type":"Feature","geometry":{"type":"MultiPolygon","coordinates":[[[[12.61888,55.64317],[12.61936,55.64325],[12.61949,55.64303],[12.61897,55.64293],[12.61884,55.64312],[12.61888,55.64317]]]]},"properties":{"type":"Forsinkelsesplads","project":"Grækenlandskvarteret","catchment":"Amager","expected_year":"2023"}},{"type":"Feature","geometry":{"type":"MultiPolygon","coordinates":[[[[12.62565,55.6441],[12.62641,55.64427],[12.62655,55.64408],[12.62649,55.644],[12.62584,55.64387],[12.62565,55.6441]]]]},"properties":{"type":"Forsinkelsesplads","project":"Grækenlandskvarteret","catchment":"Amager","expected_year":"2023"}},{"type":"Feature","geometry":{"type":"MultiPolygon","coordinates":[[[[12.63245,55.66204],[12.63315,55.66227],[12.63356,55.66179],[12.63268,55.6616],[12.63245,55.66204]]]]},"properties":{"type":"Forsinkelsesplads","project":"Krimsvejområdet Øresundsvej, Krimsvej og Tovelillevej","catchment":"Amager","expected_year":"2029"}},{"type":"Feature","geometry":{"type":"MultiPolygon","coordinates":[[[[12.51908,55.71378],[12.51927,55.71381],[12.51948,55.71339],[12.51927,55.71332],[12.51908,55.71378]]]]},"properties":{"type":"Forsinkelsesplads","project":"Ørevadsvej","catchment":"Bispebjerg","expected_year":"2035"}},{"type":"Feature","geometry":{"type":"MultiPolygon","coordinates":[[[[12.49821,55.6713],[12.50032,55.67126],[12.50024,55.67067],[12.49832,55.67072],[12.49821,55.6713]]]]},"properties":{"type":"Forsinkelsesplads","project":null,"catchment":null,"expected_year":null}},{"type":"Feature","geometry":{"type":"MultiPolygon","coordinates":[[[[12.50004,55.70981],[12.4999,55.71046],[12.50138,55.71042],[12.50138,55.70979],[12.50004,55.70981]]]]},"properties":{"type":"Forsinkelsesplads","project":"Kirkemosen","catchment":"Bispebjerg","expected_year":"2035"}},{"type":"Feature","geometry":{"type":"MultiPolygon","coordinates":[[[[12.58118,55.71229],[12.58116,55.71233],[12.58181,55.71236],[12.58214,55.71237],[12.58216,55.71231],[12.58118,55.71229]]]]},"properties":{"type":"Skybrudsbassin","project":"Østergasværk kvarter legeplads","catchment":"Østerbro","expected_year":"2019"}},{"type":"Feature","geometry":{"type":"MultiPolygon","coordinates":[[[[12.57059,55.70788],[12.57062,55.7078],[12.5725,55.70816],[12.57244,55.70824],[12.57059,55.70788]]]]},"properties":{"type":"Skybrudsbassin","project":"Jagtvej","catchment":"Østerbro","expected_year":"2027"}},{"type":"Feature","geometry":{"type":"MultiPolygon","coordinates":[[[[12.53564,55.72179],[12.53566,55.72191],[12.53804,55.72189],[12.53798,55.72177],[12.53564,55.72179]]]]},"properties":{"type":"Forsinkelsesplads","project":"Kantorparken","catchment":"Bispebjerg","expected_year":"2038"}},{"type":"Feature","geometry":{"type":"MultiPolygon","coordinates":[[[[12.52218,55.69168],[12.52375,55.6912],[12.52394,55.69141],[12.52502,55.69107],[12.52456,55.6906],[12.52195,55.69137],[12.52218,55.69168]]]]},"properties":{"type":"Forsinkelsesplads","project":null,"catchment":null,"expected_year":null}},{"type":"Feature","geometry":{"type":"MultiPolygon","coordinates":[[[[12.50145,55.67199],[12.50317,55.67196],[12.50315,55.67092],[12.50235,55.67095],[12.5024,55.67146],[12.5014,55.67149],[12.50145,55.67199]]]]},"properties":{"type":"Forsinkelsesplads","project":null,"catchment":null,"expected_year":null}},{"type":"Feature","geometry":{"type":"MultiPolygon","coordinates":[[[[12.53798,55.71667],[12.53747,55.71633],[12.53736,55.71647],[12.53737,55.71665],[12.53746,55.71671],[12.53778,55.71672],[12.53798,55.71667]]]]},"properties":{"type":"Forsinkelsesplads","project":"Tuborgvej","catchment":"Bispebjerg","expected_year":"2024"}},{"type":"Feature","geometry":{"type":"MultiPolygon","coordinates":[[[[12.49281,55.67564],[12.4933,55.67566],[12.49378,55.67326],[12.49793,55.67331],[12.49799,55.67303],[12.49624,55.67299],[12.49612,55.67293],[12.49612,55.67253],[12.4958,55.67254],[12.49579,55.67296],[12.49384,55.67296],[12.49369,55.67289],[12.49368,55.67278],[12.49385,55.67256],[12.49325,55.67258],[12.49281,55.67564]]]]},"properties":{"type":"Forsinkelsesplads","project":null,"catchment":null,"expected_year":null}},{"type":"Feature","geometry":{"type":"MultiPolygon","coordinates":[[[[12.53393,55.71162],[12.53407,55.71165],[12.53411,55.71162],[12.53391,55.71152],[12.53379,55.71154],[12.53383,55.71161],[12.53393,55.71162]]]]},"properties":{"type":"ukendt","project":"Bispeparken Syd","catchment":"Bispebjerg","expected_year":"2023"}},{"type":"Feature","geometry":{"type":"MultiPolygon","coordinates":[[[[12.55879,55.71742],[12.55901,55.71755],[12.55926,55.71778],[12.55948,55.71783],[12.55972,55.7178],[12.5607,55.71736],[12.56078,55.71723],[12.56077,55.71715],[12.56071,55.71706],[12.56042,55.71695],[12.55942,55.7168],[12.55894,55.71677],[12.55848,55.71684],[12.55829,55.71707],[12.55824,55.71727],[12.55831,55.71733],[12.55879,55.71742]]]]},"properties":{"type":"Forsinkelsesplads","project":"Ryparken","catchment":"Bispebjerg","expected_year":"2016"}},{"type":"Feature","geometry":{"type":"MultiPolygon","coordinates":[[[[12.60594,55.66055],[12.60607,55.66046],[12.60632,55.66057],[12.60621,55.66068],[12.60594,55.66055]]]]},"properties":{"type":"ukendt","project":"Frankrigsgade","catchment":"Amager","expected_year":"2033"}},{"type":"Feature","geometry":{"type":"MultiPolygon","coordinates":[[[[12.55354,55.68159],[12.55404,55.68147],[12.55313,55.68024],[12.5527,55.68038],[12.55354,55.68159]]]]},"properties":{"type":"Forsinkelsesplads","project":null,"catchment":null,"expected_year":null}},{"type":"Feature","geometry":{"type":"MultiPolygon","coordinates":[[[[12.60556,55.66073],[12.60545,55.66081],[12.60513,55.66068],[12.60524,55.66058],[12.60556,55.66073]]]]},"properties":{"type":"ukendt","project":"Frankrigsgade","catchment":"Amager","expected_year":"2033"}},{"type":"Feature","geometry":{"type":"MultiPolygon","coordinates":[[[[12.52486,55.71031],[12.52625,55.71041],[12.52638,55.70999],[12.52496,55.70985],[12.52486,55.71031]]]]},"properties":{"type":"Forsinkelsesplads","project":"Tomsgårdsvej","catchment":"Bispebjerg","expected_year":"2023"}},{"type":"Feature","geometry":{"type":"MultiPolygon","coordinates":[[[[12.51974,55.70816],[12.51947,55.70826],[12.51948,55.70846],[12.51974,55.70845],[12.51974,55.70816]]]]},"properties":{"type":"ukendt","project":"Smedetoften m.fl.","catchment":"Bispebjerg","expected_year":"2025"}},{"type":"Feature","geometry":{"type":"MultiPolygon","coordinates":[[[[12.51707,55.6674],[12.51676,55.66739],[12.51674,55.66783],[12.51705,55.66783],[12.51707,55.6674]]]]},"properties":{"type":"bassin","project":"Sønder Fasanvej","catchment":"København Vest","expected_year":"2031"}},{"type":"Feature","geometry":{"type":"MultiPolygon","coordinates":[[[[12.4869,55.68492],[12.48718,55.68499],[12.48742,55.68459],[12.48718,55.68453],[12.4869,55.68492]]]]},"properties":{"type":"Forsinkelsesplads","project":"Bogholder Allé","catchment":"København Vest","expected_year":"Ukendt"}},{"type":"Feature","geometry":{"type":"MultiPolygon","coordinates":[[[[12.56848,55.69144],[12.56858,55.69143],[12.56926,55.69171],[12.57044,55.69106],[12.57077,55.69076],[12.57081,55.69061],[12.5704,55.69029],[12.57042,55.69024],[12.56864,55.68911],[12.56546,55.68668],[12.56515,55.68668],[12.56472,55.6865],[12.56305,55.68716],[12.56317,55.68738],[12.5631,55.68755],[12.56648,55.6901],[12.56848,55.69144]],[[12.56636,55.68944],[12.5663,55.6894],[12.56651,55.68939],[12.56662,55.68947],[12.56665,55.68955],[12.56653,55.6896],[12.5665,55.68948],[12.56636,55.68944]]]]},"properties":{"type":"Forsinkelsesplads","project":"De Indre Søer","catchment":"Nørrebro","expected_year":"2023"}},{"type":"Feature","geometry":{"type":"MultiPolygon","coordinates":[[[[12.51099,55.67495],[12.51177,55.67326],[12.51856,55.67312],[12.51814,55.6721],[12.51414,55.67217],[12.51418,55.67254],[12.51349,55.67257],[12.51351,55.67282],[12.51212,55.67285],[12.51212,55.67226],[12.50959,55.67229],[12.50955,55.67377],[12.51099,55.67495]]]]},"properties":{"type":"Forsinkelsesplads","project":null,"catchment":null,"expected_year":null}},{"type":"Feature","geometry":{"type":"MultiPolygon","coordinates":[[[[12.56599,55.71183],[12.56625,55.71178],[12.56627,55.71164],[12.56585,55.71168],[12.56599,55.71183]]]]},"properties":{"type":"Forsinkelsesplads","project":"Tåsinge Plads","catchment":"Østerbro","expected_year":"2014"}},{"type":"Feature","geometry":{"type":"MultiPolygon","coordinates":[[[[12.48565,55.67798],[12.48683,55.67834],[12.48939,55.6794],[12.48969,55.67939],[12.4902,55.67991],[12.49175,55.68208],[12.49247,55.68282],[12.49391,55.68397],[12.49454,55.68436],[12.49562,55.68489],[12.49753,55.68565],[12.49764,55.68564],[12.49794,55.68546],[12.4999,55.68649],[12.49949,55.68673],[12.50109,55.68766],[12.50205,55.68833],[12.50328,55.68872],[12.50432,55.68891],[12.50906,55.68936],[12.51069,55.6896],[12.51174,55.68981],[12.51356,55.69031],[12.51534,55.69088],[12.51797,55.69199],[12.51855,55.69238],[12.51881,55.6927],[12.51903,55.6928],[12.51941,55.69271],[12.52101,55.69354],[12.52106,55.69377],[12.52298,55.69466],[12.5249,55.69532],[12.52593,55.69555],[12.52703,55.69571],[12.52731,55.69556],[12.5265,55.69548],[12.52488,55.69513],[12.52291,55.69443],[12.52203,55.69401],[12.52141,55.6934],[12.52126,55.69311],[12.52089,55.69287],[12.52036,55.69236],[12.51907,55.69154],[12.51753,55.69073],[12.51681,55.6906],[12.51565,55.69009],[12.51394,55.68967],[12.51313,55.68939],[12.51212,55.68917],[12.51022,55.68896],[12.50985,55.68905],[12.50955,55.68903],[12.50827,55.68887],[12.50673,55.68858],[12.50615,55.68856],[12.50397,55.68825],[12.50242,55.68778],[12.5022,55.68762],[12.50245,55.68743],[12.50085,55.68663],[12.50037,55.68661],[12.49997,55.68644],[12.49785,55.68532],[12.49803,55.68521],[12.49592,55.68407],[12.49583,55.68411],[12.49598,55.68455],[12.49548,55.68432],[12.49513,55.68369],[12.49477,55.68331],[12.49432,55.68296],[12.49396,55.68306],[12.49305,55.6821],[12.49161,55.67956],[12.49151,55.67917],[12.4911,55.67898],[12.49029,55.67849],[12.4898,55.67828],[12.48814,55.67765],[12.48734,55.67745],[12.48664,55.6774],[12.48646,55.67755],[12.48565,55.67798]]]]},"properties":{"type":"Forsinkelsesplads","project":"Grøndalsparken","catchment":"København Vest","expected_year":"2029"}},{"type":"Feature","geometry":{"type":"MultiPolygon","coordinates":[[[[12.49292,55.69162],[12.4933,55.69186],[12.49406,55.69146],[12.49307,55.69132],[12.49292,55.69162]]]]},"properties":{"type":"Forsinkelsesplads","project":"Bangsbo Plads","catchment":"København Vest","expected_year":"2027"}},{"type":"Feature","geometry":{"type":"MultiPolygon","coordinates":[[[[12.53383,55.71123],[12.53416,55.71114],[12.53427,55.71119],[12.5343,55.71129],[12.53378,55.71144],[12.53377,55.71123],[12.53383,55.71123]]]]},"properties":{"type":"ukendt","project":"Bispeparken Syd","catchment":"Bispebjerg","expected_year":"2023"}},{"type":"Feature","geometry":{"type":"MultiPolygon","coordinates":[[[[12.46943,55.68046],[12.46941,55.68127],[12.46872,55.68182],[12.46801,55.68222],[12.46782,55.6824],[12.46789,55.68291],[12.46778,55.68332],[12.4675,55.68398],[12.46754,55.68454],[12.46727,55.68543],[12.46717,55.68614],[12.467,55.68681],[12.46607,55.69003],[12.46604,55.69037],[12.46607,55.69055],[12.46669,55.69144],[12.46727,55.6914],[12.46783,55.69104],[12.46849,55.69034],[12.46999,55.68935],[12.47062,55.68881],[12.47179,55.68733],[12.47165,55.68625],[12.4719,55.68471],[12.47338,55.68293],[12.47358,55.68195],[12.47263,55.68176],[12.47284,55.68121],[12.46943,55.68046]]]]},"properties":{"type":"Forsinkelsesplads","project":"Damhusengen","catchment":"København Vest","expected_year":"2033"}},{"type":"Feature","geometry":{"type":"MultiPolygon","coordinates":[[[[12.5906,55.63656],[12.5904,55.63664],[12.59036,55.63671],[12.58989,55.63683],[12.58885,55.63722],[12.58892,55.63741],[12.58932,55.6375],[12.58999,55.63749],[12.58993,55.63711],[12.58999,55.63704],[12.59122,55.63655],[12.59099,55.63648],[12.5906,55.63656]]]]},"properties":{"type":"Forsinkelsesplads","project":"Floridavej","catchment":"Amager","expected_year":"2038"}},{"type":"Feature","geometry":{"type":"MultiPolygon","coordinates":[[[[12.55289,55.71167],[12.55262,55.71154],[12.55408,55.71073],[12.55481,55.7102],[12.55501,55.71026],[12.55454,55.71064],[12.55289,55.71167]]]]},"properties":{"type":"ukendt","project":"Lersø Parkallé Syd","catchment":"Bispebjerg","expected_year":"2023"}},{"type":"Feature","geometry":{"type":"MultiPolygon","coordinates":[[[[12.56749,55.69406],[12.56878,55.69338],[12.56849,55.69319],[12.56973,55.69253],[12.56927,55.69223],[12.56673,55.69365],[12.56749,55.69406]]]]},"properties":{"type":"Forsinkelsesplads","project":"Fredens Park","catchment":"Nørrebro","expected_year":"2025"}},{"type":"Feature","geometry":{"type":"MultiPolygon","coordinates":[[[[12.59525,55.68985],[12.59542,55.6895],[12.59337,55.68868],[12.59303,55.68867],[12.59273,55.68877],[12.59212,55.69032],[12.59026,55.69121],[12.59014,55.69135],[12.59016,55.69149],[12.59036,55.69168],[12.59216,55.69247],[12.59253,55.69388],[12.59261,55.69399],[12.59311,55.6941],[12.59343,55.69406],[12.59532,55.69329],[12.59516,55.69293],[12.59469,55.69301],[12.59457,55.69327],[12.59322,55.6938],[12.59309,55.6938],[12.59297,55.69373],[12.59268,55.69281],[12.59288,55.69265],[12.59291,55.69254],[12.59239,55.69203],[12.59199,55.69204],[12.59067,55.69146],[12.59063,55.69138],[12.59203,55.69074],[12.59244,55.69079],[12.59309,55.69021],[12.59283,55.69001],[12.59311,55.68908],[12.59317,55.68903],[12.59473,55.68955],[12.59478,55.68978],[12.59525,55.68985]]],[[[12.59717,55.69341],[12.59809,55.69345],[12.59844,55.69336],[12.59862,55.69319],[12.59866,55.69301],[12.59842,55.69186],[12.59802,55.69175],[12.59783,55.69161],[12.59775,55.69145],[12.59779,55.69127],[12.5979,55.69113],[12.5983,55.69097],[12.59843,55.69028],[12.59815,55.68971],[12.59813,55.68955],[12.59787,55.68947],[12.59775,55.68952],[12.59755,55.6895],[12.59737,55.6893],[12.59668,55.68931],[12.59633,55.68878],[12.59606,55.68858],[12.5958,55.68855],[12.59543,55.68863],[12.59513,55.68879],[12.59529,55.68903],[12.59568,55.68884],[12.59584,55.68883],[12.59621,55.68939],[12.59618,55.68943],[12.59553,55.68952],[12.59536,55.68988],[12.59578,55.68994],[12.59606,55.68977],[12.59618,55.68975],[12.59773,55.68968],[12.59791,55.6898],[12.59736,55.69087],[12.59688,55.69099],[12.59689,55.69179],[12.59696,55.69187],[12.59731,55.69193],[12.59787,55.69302],[12.59786,55.6931],[12.59598,55.69303],[12.59567,55.69286],[12.59525,55.69291],[12.59542,55.69328],[12.59656,55.69331],[12.59717,55.69341]]],[[[12.59204,55.69332],[12.59208,55.69326],[12.59198,55.69298],[12.59107,55.69294],[12.59093,55.69286],[12.59093,55.6928],[12.59131,55.69236],[12.59001,55.69171],[12.58973,55.69176],[12.58876,55.69139],[12.58873,55.69154],[12.58905,55.69175],[12.59063,55.69237],[12.59069,55.69247],[12.59035,55.69259],[12.59205,55.69363],[12.59211,55.6936],[12.59204,55.69332]]],[[[12.58884,55.69137],[12.58966,55.69105],[12.58997,55.69106],[12.59085,55.69063],[12.59094,55.69063],[12.59136,55.69044],[12.59096,55.68997],[12.59095,55.68989],[12.59202,55.68981],[12.59227,55.68902],[12.59247,55.68865],[12.59231,55.68856],[12.59218,55.68856],[12.59182,55.68884],[12.59172,55.6895],[12.59165,55.68958],[12.59099,55.68963],[12.59056,55.68993],[12.59054,55.69002],[12.59074,55.69033],[12.58924,55.69095],[12.58879,55.69136],[12.58884,55.69137]]],[[[12.59345,55.68855],[12.5944,55.68889],[12.59455,55.68901],[12.59498,55.68917],[12.5952,55.68906],[12.59503,55.6888],[12.59297,55.68787],[12.59275,55.68807],[12.59324,55.68832],[12.59325,55.68845],[12.59345,55.68855]]]]},"properties":{"type":"Rensning","project":"Rensning af daglig regn ved Kastelsgraven","catchment":"Indre By","expected_year":"2028"}},{"type":"Feature","geometry":{"type":"MultiPolygon","coordinates":[[[[12.5448,55.68667],[12.54483,55.68743],[12.54437,55.68832],[12.54515,55.68807],[12.54559,55.68689],[12.54539,55.6863],[12.5448,55.68667]]]]},"properties":{"type":"Forsinkelsesplads","project":"Nørrebroparken Syd","catchment":"Vesterbro-ladegaardså","expected_year":"2032"}},{"type":"Feature","geometry":{"type":"MultiPolygon","coordinates":[[[[12.53392,55.71086],[12.53419,55.71083],[12.53426,55.71091],[12.53397,55.71106],[12.53388,55.71107],[12.53384,55.71101],[12.53393,55.71095],[12.53387,55.71089],[12.53392,55.71086]]]]},"properties":{"type":"ukendt","project":"Bispeparken Syd","catchment":"Bispebjerg","expected_year":"2023"}},{"type":"Feature","geometry":{"type":"MultiPolygon","coordinates":[[[[12.5338,55.71188],[12.53408,55.71184],[12.53376,55.71183],[12.53375,55.71188],[12.5338,55.71188]]]]},"properties":{"type":"ukendt","project":"Bispeparken Syd","catchment":"Bispebjerg","expected_year":"2023"}},{"type":"Feature","geometry":{"type":"MultiPolygon","coordinates":[[[[12.56788,55.71583],[12.56683,55.71548],[12.56659,55.71582],[12.56767,55.71603],[12.56788,55.71583]]]]},"properties":{"type":"Forsinkelsesplads","project":"Rensning Kildevældssøen","catchment":"Østerbro","expected_year":"2022"}},{"type":"Feature","geometry":{"type":"MultiPolygon","coordinates":[[[[12.55456,55.69441],[12.55676,55.69547],[12.55837,55.69609],[12.5603,55.69661],[12.56081,55.69642],[12.5608,55.69632],[12.56097,55.69612],[12.56126,55.69604],[12.56108,55.69422],[12.5575,55.69199],[12.55456,55.69441]]]]},"properties":{"type":"Forsinkelsesplads","project":"De Gamles By","catchment":"Nørrebro","expected_year":"2018"}},{"type":"Feature","geometry":{"type":"MultiPolygon","coordinates":[[[[12.54252,55.65446],[12.54292,55.65432],[12.54267,55.65375],[12.54221,55.6536],[12.54155,55.65398],[12.53996,55.65359],[12.53982,55.65383],[12.54252,55.65446]]]]},"properties":{"type":"Forsinkelsesplads","project":"Sydhavns Plads","catchment":"København Vest","expected_year":"2031"}},{"type":"Feature","geometry":{"type":"MultiPolygon","coordinates":[[[[12.62099,55.65496],[12.62111,55.65499],[12.62111,55.65503],[12.6218,55.65516],[12.62197,55.65489],[12.62113,55.65472],[12.62099,55.65496]]]]},"properties":{"type":"Forsinkelsesplads","project":"Italiensvej. Kastrupvej – Amager Strandvej","catchment":"Amager","expected_year":"2029"}},{"type":"Feature","geometry":{"type":"MultiPolygon","coordinates":[[[[12.58899,55.6418],[12.5889,55.64183],[12.58958,55.64201],[12.58947,55.64196],[12.58937,55.64129],[12.58895,55.64129],[12.58901,55.6413],[12.58899,55.6418]]]]},"properties":{"type":"Forsinkelsesplads","project":"Hyttehusvej, Røde Mellemvej m.fl","catchment":"Amager","expected_year":"2024"}},{"type":"Feature","geometry":{"type":"MultiPolygon","coordinates":[[[[12.53197,55.70084],[12.53208,55.70075],[12.53168,55.70041],[12.53129,55.70048],[12.53169,55.70089],[12.53197,55.70084]]]]},"properties":{"type":"Forsinkelsesplads","project":"Ørnevej-Vibevej-Glentevej","catchment":"Vesterbro-ladegaardså","expected_year":"2023"}},{"type":"Feature","geometry":{"type":"MultiPolygon","coordinates":[[[[12.62502,55.65267],[12.62528,55.65276],[12.62648,55.65298],[12.62656,55.65226],[12.62546,55.65211],[12.62502,55.65267]]]]},"properties":{"type":"Forsinkelsesplads","project":"Skolen ved Sundet - Boldbane","catchment":"Amager","expected_year":"2023"}},{"type":"Feature","geometry":{"type":"MultiPolygon","coordinates":[[[[12.61867,55.64343],[12.61916,55.64352],[12.61928,55.64333],[12.61883,55.64324],[12.61877,55.64326],[12.61867,55.64343]]]]},"properties":{"type":"Forsinkelsesplads","project":"Grækenlandskvarteret","catchment":"Amager","expected_year":"2023"}},{"type":"Feature","geometry":{"type":"MultiPolygon","coordinates":[[[[12.61483,55.6413],[12.61457,55.64203],[12.6151,55.64207],[12.61522,55.64178],[12.61549,55.64181],[12.61565,55.64141],[12.61483,55.6413]]]]},"properties":{"type":"Forsinkelsesplads","project":"Gyldenrisvej og P-plads bag Kvickly","catchment":"Amager","expected_year":"2029"}},{"type":"Feature","geometry":{"type":"MultiPolygon","coordinates":[[[[12.46935,55.70768],[12.46867,55.7084],[12.4688,55.70844],[12.46887,55.70838],[12.46906,55.7084],[12.46897,55.70857],[12.46915,55.70865],[12.4696,55.70845],[12.4698,55.70853],[12.4696,55.70875],[12.47013,55.70896],[12.47031,55.70889],[12.4705,55.70897],[12.47047,55.70907],[12.47135,55.70951],[12.47162,55.70936],[12.46935,55.70768]]]]},"properties":{"type":"Forsinkelsesplads","project":"Grønt område bag Korsager skole","catchment":"København Vest","expected_year":"2030"}},{"type":"Feature","geometry":{"type":"MultiPolygon","coordinates":[[[[12.47166,55.70379],[12.47186,55.70412],[12.47077,55.70434],[12.4714,55.70522],[12.472,55.70511],[12.47467,55.70479],[12.47536,55.70477],[12.47521,55.70378],[12.4741,55.70387],[12.47379,55.70382],[12.47373,55.70371],[12.47338,55.70372],[12.47333,55.70357],[12.47166,55.70379]]]]},"properties":{"type":"Forsinkelsesplads","project":"Husumparken","catchment":"København Vest","expected_year":"2030"}},{"type":"Feature","geometry":{"type":"MultiPolygon","coordinates":[[[[12.47478,55.70798],[12.47403,55.7078],[12.47534,55.71104],[12.47578,55.71088],[12.47478,55.70798]]]]},"properties":{"type":"Forsinkelsesplads","project":"Husum Vænge øvre del","catchment":"København Vest","expected_year":"2030"}},{"type":"Feature","geometry":{"type":"MultiPolygon","coordinates":[[[[12.61727,55.65422],[12.61783,55.65433],[12.61819,55.65371],[12.61764,55.65361],[12.61727,55.65422]]]]},"properties":{"type":"Forsinkelsesplads","project":"Elbagade - Fillipsparken","catchment":"Amager","expected_year":"2031"}},{"type":"Feature","geometry":{"type":"MultiPolygon","coordinates":[[[[12.54038,55.71918],[12.54027,55.71918],[12.54004,55.7193],[12.53882,55.7197],[12.53799,55.71989],[12.53694,55.72003],[12.53594,55.72007],[12.53385,55.72],[12.5338,55.72034],[12.53622,55.72041],[12.53771,55.72028],[12.53827,55.72019],[12.53917,55.71998],[12.5406,55.71944],[12.54038,55.71918]]]]},"properties":{"type":"Forsinkelsesplads","project":"Bispebjerg Parkallé","catchment":"Bispebjerg","expected_year":"2032"}},{"type":"Feature","geometry":{"type":"MultiPolygon","coordinates":[[[[12.51102,55.71192],[12.51077,55.7126],[12.51129,55.71266],[12.51158,55.71199],[12.51102,55.71192]]]]},"properties":{"type":"Forsinkelsesplads","project":"Enemærket","catchment":"Bispebjerg","expected_year":"2036"}},{"type":"Feature","geometry":{"type":"MultiPolygon","coordinates":[[[[12.47848,55.67086],[12.47856,55.67128],[12.47855,55.67188],[12.47884,55.67188],[12.47884,55.672],[12.47954,55.67205],[12.47963,55.67255],[12.48091,55.6725],[12.48077,55.6719],[12.48017,55.67051],[12.48065,55.67051],[12.48021,55.66919],[12.47839,55.66886],[12.47848,55.67086]]]]},"properties":{"type":"Forsinkelsesplads","project":"Vigerslevparken Nord","catchment":"København Vest","expected_year":"2033"}},{"type":"Feature","geometry":{"type":"MultiPolygon","coordinates":[[[[12.62012,55.66899],[12.62166,55.66871],[12.62278,55.66839],[12.62367,55.66801],[12.62416,55.66767],[12.62387,55.66759],[12.62335,55.66797],[12.62218,55.66843],[12.62188,55.66839],[12.62182,55.66849],[12.62163,55.66855],[12.62049,55.66874],[12.61925,55.66866],[12.61914,55.66876],[12.62012,55.66899]]]]},"properties":{"type":"Forsinkelsesplads","project":"Amagerbanen. Prags Boulevard til Lindgreens Allé","catchment":"Amager","expected_year":"2019"}},{"type":"Feature","geometry":{"type":"MultiPolygon","coordinates":[[[[12.48573,55.66036],[12.48636,55.66032],[12.48638,55.66025],[12.4865,55.66024],[12.48649,55.65941],[12.48564,55.6594],[12.48573,55.66036]]]]},"properties":{"type":"Forsinkelsesplads","project":"Grønt område bag Lykkebo skole","catchment":"København Vest","expected_year":"2021"}},{"type":"Feature","geometry":{"type":"MultiPolygon","coordinates":[[[[12.54505,55.66861],[12.54527,55.66897],[12.54549,55.66898],[12.54557,55.66856],[12.54535,55.66855],[12.54505,55.66861]]]]},"properties":{"type":"Forsinkelsesplads","project":"Tove Ditlevsens Plads","catchment":"Vesterbro-ladegaardså","expected_year":"2038"}},{"type":"Feature","geometry":{"type":"MultiPolygon","coordinates":[[[[12.52768,55.64949],[12.52872,55.64959],[12.52907,55.64838],[12.529,55.64833],[12.52904,55.64813],[12.52911,55.64792],[12.52919,55.64792],[12.52933,55.64744],[12.52925,55.64743],[12.52919,55.64736],[12.52964,55.64721],[12.52919,55.6468],[12.52921,55.6467],[12.52934,55.64655],[12.52944,55.64623],[12.52949,55.64591],[12.52965,55.64591],[12.52963,55.64624],[12.53001,55.64624],[12.53,55.64652],[12.53033,55.64653],[12.53033,55.64698],[12.5308,55.64682],[12.53104,55.64565],[12.52975,55.64552],[12.52958,55.64525],[12.52987,55.6446],[12.52862,55.64462],[12.52807,55.64469],[12.5278,55.64566],[12.52857,55.64549],[12.52883,55.64589],[12.52877,55.64606],[12.52891,55.64608],[12.52862,55.64704],[12.5284,55.64701],[12.5281,55.64806],[12.52811,55.64827],[12.52802,55.6483],[12.52768,55.64949]]]]},"properties":{"type":"Forsinkelsesplads","project":"Karens Minde","catchment":"København Vest","expected_year":"2022"}},{"type":"Feature","geometry":{"type":"MultiPolygon","coordinates":[[[[12.52727,55.71151],[12.52725,55.71159],[12.52731,55.71162],[12.52742,55.71161],[12.52746,55.71156],[12.52803,55.71058],[12.52809,55.71031],[12.52796,55.71034],[12.52727,55.71151]]]]},"properties":{"type":"Forsinkelsesplads","project":"Tomsgårdsvej","catchment":"Bispebjerg","expected_year":"2023"}},{"type":"Feature","geometry":{"type":"MultiPolygon","coordinates":[[[[12.53005,55.71187],[12.53046,55.7115],[12.53045,55.71142],[12.53029,55.71142],[12.53032,55.71145],[12.53023,55.71147],[12.52991,55.71178],[12.52994,55.71186],[12.53005,55.71187]]]]},"properties":{"type":"Forsinkelsesplads","project":"Tomsgårdsvej","catchment":"Bispebjerg","expected_year":"2023"}},{"type":"Feature","geometry":{"type":"MultiPolygon","coordinates":[[[[12.55571,55.71703],[12.5558,55.71701],[12.5558,55.71694],[12.55569,55.71642],[12.55555,55.71639],[12.55511,55.71645],[12.55502,55.71651],[12.55497,55.7166],[12.55497,55.71685],[12.55504,55.71693],[12.55571,55.71703]]]]},"properties":{"type":"Forsinkelsesplads","project":"Lundehus Kirke","catchment":"Bispebjerg","expected_year":"2032"}},{"type":"Feature","geometry":{"type":"MultiPolygon","coordinates":[[[[12.60364,55.66521],[12.60379,55.66522],[12.60413,55.66472],[12.604,55.66469],[12.60364,55.66521]]]]},"properties":{"type":"Forsinkelsesplads","project":"Ålandsgade","catchment":"Amager","expected_year":"2038"}},{"type":"Feature","geometry":{"type":"MultiPolygon","coordinates":[[[[12.5412,55.66819],[12.54028,55.66645],[12.54314,55.66611],[12.54328,55.66615],[12.54405,55.6675],[12.5412,55.66819]]]]},"properties":{"type":"ukendt","project":"Enghaveparken","catchment":"Vesterbro-ladegaardså","expected_year":"2017"}},{"type":"Feature","geometry":{"type":"MultiPolygon","coordinates":[[[[12.54272,55.70688],[12.54479,55.70791],[12.54537,55.70815],[12.55113,55.71027],[12.55095,55.71012],[12.54833,55.70902],[12.54267,55.70681],[12.54272,55.70688]]]]},"properties":{"type":"Forsinkelsesplads","project":"Banearealet","catchment":"Bispebjerg","expected_year":"2030"}},{"type":"Feature","geometry":{"type":"MultiPolygon","coordinates":[[[[12.54176,55.70568],[12.54129,55.70591],[12.54056,55.70523],[12.54022,55.70515],[12.5394,55.7052],[12.5393,55.70499],[12.53924,55.70495],[12.53827,55.705],[12.53823,55.70471],[12.53945,55.70461],[12.53952,55.70456],[12.53952,55.7045],[12.53923,55.70413],[12.54075,55.70388],[12.54093,55.70449],[12.54065,55.70452],[12.54074,55.70483],[12.5411,55.7048],[12.54158,55.70519],[12.54134,55.70524],[12.54143,55.70538],[12.54169,55.70534],[12.54176,55.70568]]]]},"properties":{"type":"ukendt","project":"Mimersparken","catchment":"Bispebjerg","expected_year":"2023"}},{"type":"Feature","geometry":{"type":"MultiPolygon","coordinates":[[[[12.48512,55.65257],[12.48655,55.65259],[12.48639,55.65225],[12.48602,55.652],[12.48512,55.65257]]],[[[12.48671,55.65192],[12.4865,55.65202],[12.48673,55.6523],[12.48687,55.6526],[12.48836,55.65258],[12.48857,55.65233],[12.4879,55.65214],[12.49046,55.64919],[12.48878,55.64893],[12.48851,55.64918],[12.48863,55.64939],[12.48831,55.64987],[12.48813,55.64998],[12.48787,55.65062],[12.48767,55.65094],[12.48727,55.65133],[12.48642,55.65181],[12.48671,55.65192]]],[[[12.48885,55.64888],[12.49056,55.64912],[12.49156,55.64841],[12.49106,55.64826],[12.49421,55.646],[12.49562,55.64618],[12.50122,55.64273],[12.50026,55.64171],[12.49968,55.64206],[12.49863,55.64258],[12.49771,55.64281],[12.4972,55.64304],[12.49718,55.64334],[12.4952,55.6448],[12.49554,55.64494],[12.49534,55.64507],[12.49502,55.64492],[12.49437,55.64537],[12.4935,55.6457],[12.49193,55.64585],[12.49144,55.64597],[12.49077,55.64634],[12.49043,55.64646],[12.49023,55.64697],[12.49016,55.64754],[12.48919,55.64866],[12.48885,55.64888]]],[[[12.50065,55.64153],[12.50083,55.6418],[12.50169,55.64138],[12.50129,55.64111],[12.50093,55.64147],[12.50065,55.64153]]],[[[12.50151,55.64078],[12.50178,55.64093],[12.50211,55.64041],[12.50304,55.63925],[12.50487,55.63773],[12.50488,55.63749],[12.50676,55.63596],[12.5066,55.63587],[12.50593,55.63631],[12.50256,55.63909],[12.50172,55.64027],[12.50181,55.64035],[12.50151,55.64078]]]]},"properties":{"type":"Forsinkelsesplads","project":"Vigerslevparken Syd","catchment":"København Vest","expected_year":"2024"}},{"type":"Feature","geometry":{"type":"MultiPolygon","coordinates":[[[[12.4865,55.65202],[12.48671,55.65192],[12.48642,55.65181],[12.48623,55.65191],[12.4865,55.65202]]],[[[12.47812,55.66232],[12.47845,55.66238],[12.47845,55.6622],[12.47812,55.66215],[12.47812,55.66232]]],[[[12.47817,55.66325],[12.4785,55.66325],[12.47849,55.6631],[12.47816,55.6631],[12.47817,55.66325]]],[[[12.49502,55.64492],[12.49534,55.64507],[12.49554,55.64494],[12.4952,55.6448],[12.49502,55.64492]]],[[[12.48896,55.64894],[12.48933,55.64899],[12.48937,55.64895],[12.48898,55.6489],[12.48896,55.64894]]]]},"properties":{"type":"Uvdielse af åen","project":"5 mindre skybrudsprojekter i Vigerslevparken","catchment":"København Vest","expected_year":"2024"}},{"type":"Feature","geometry":{"type":"MultiPolygon","coordinates":[[[[12.51107,55.68168],[12.51307,55.68156],[12.51186,55.67939],[12.50985,55.67975],[12.50983,55.67982],[12.51107,55.68168]]]]},"properties":{"type":"Forsinkelsesplads","project":null,"catchment":null,"expected_year":null}},{"type":"Feature","geometry":{"type":"MultiPolygon","coordinates":[[[[12.49585,55.6574],[12.49504,55.65722],[12.49473,55.65751],[12.49538,55.65772],[12.49563,55.65772],[12.49585,55.6574]]]]},"properties":{"type":"Forsinkelsesplads","project":"Kulbanevej","catchment":"København Vest","expected_year":"2021"}},{"type":"Feature","geometry":{"type":"MultiPolygon","coordinates":[[[[12.57102,55.69753],[12.5689,55.69751],[12.56744,55.69834],[12.56744,55.69895],[12.57251,55.69899],[12.57249,55.69848],[12.57102,55.69753]]]]},"properties":{"type":"Forsinkelsesplads","project":"Fælledparken","catchment":"Nørrebro","expected_year":"2023"}},{"type":"Feature","geometry":{"type":"MultiPolygon","coordinates":[[[[12.53404,55.71178],[12.53388,55.71173],[12.53395,55.7117],[12.53413,55.71173],[12.53412,55.71178],[12.53404,55.71178]]]]},"properties":{"type":"ukendt","project":"Bispeparken Syd","catchment":"Bispebjerg","expected_year":"2023"}},{"type":"Feature","geometry":{"type":"MultiPolygon","coordinates":[[[[12.53513,55.70619],[12.53561,55.70618],[12.53554,55.706],[12.53521,55.70599],[12.53509,55.70606],[12.53508,55.7062],[12.53513,55.70619]]]]},"properties":{"type":"Forsinkelsesplads","project":"Dortheavej","catchment":"Bispebjerg","expected_year":"2031"}},{"type":"Feature","geometry":{"type":"MultiPolygon","coordinates":[[[[12.48737,55.65834],[12.48769,55.65835],[12.48767,55.65863],[12.48735,55.65862],[12.48737,55.65834]]]]},"properties":{"type":"ukendt","project":"Lykkebovej","catchment":"København Vest","expected_year":"2024"}},{"type":"Feature","geometry":{"type":"MultiPolygon","coordinates":[[[[12.6368,55.64986],[12.63965,55.64637],[12.64187,55.6466],[12.64222,55.64673],[12.64245,55.64693],[12.64249,55.64707],[12.64245,55.64721],[12.64059,55.64975],[12.6402,55.65007],[12.63945,55.65045],[12.63909,55.65054],[12.63875,55.65051],[12.63812,55.6503],[12.63811,55.65019],[12.63831,55.65003],[12.63888,55.6502],[12.63923,55.65018],[12.63953,55.65006],[12.63968,55.6499],[12.63969,55.64972],[12.63988,55.64932],[12.6404,55.64918],[12.64073,55.64883],[12.64096,55.6485],[12.64104,55.6483],[12.64105,55.64815],[12.64088,55.64795],[12.641,55.64767],[12.64124,55.64758],[12.64142,55.64745],[12.64149,55.64729],[12.64144,55.64712],[12.6412,55.64695],[12.63991,55.64676],[12.63774,55.64985],[12.63819,55.65],[12.638,55.6502],[12.63793,55.65024],[12.6368,55.64986]]]]},"properties":{"type":"Rensning","project":"Rensning af frakoblet daglig regn i Kastrup Fort Sø","catchment":"Amager","expected_year":"2031"}},{"type":"Feature","geometry":{"type":"MultiPolygon","coordinates":[[[[12.52873,55.65923],[12.52927,55.65924],[12.5294,55.65929],[12.52947,55.65939],[12.52947,55.65965],[12.52912,55.65983],[12.52919,55.66005],[12.5291,55.66016],[12.52863,55.66016],[12.52851,55.66007],[12.52852,55.65992],[12.52873,55.65978],[12.52874,55.65973],[12.5285,55.65943],[12.52848,55.65931],[12.52873,55.65923]]]]},"properties":{"type":"Forsinkelsesplads","project":"Vestre Kirkegård","catchment":"København Vest","expected_year":"2023"}},{"type":"Feature","geometry":{"type":"MultiPolygon","coordinates":[[[[12.52649,55.71336],[12.52631,55.71401],[12.52598,55.71398],[12.52596,55.71406],[12.52628,55.71408],[12.5261,55.71472],[12.52633,55.71475],[12.52649,55.7141],[12.52682,55.71413],[12.52681,55.71404],[12.52651,55.71402],[12.52667,55.71338],[12.52649,55.71336]]]]},"properties":{"type":"ukendt","project":"Bispebjerg Kirkegård del 1","catchment":"Bispebjerg","expected_year":"2024"}},{"type":"Feature","geometry":{"type":"MultiPolygon","coordinates":[[[[12.53008,55.71454],[12.53107,55.71464],[12.53115,55.71438],[12.53014,55.71427],[12.53008,55.71454]]]]},"properties":{"type":"ukendt","project":"Bispebjerg Kirkegård del 1","catchment":"Bispebjerg","expected_year":"2024"}},{"type":"Feature","geometry":{"type":"MultiPolygon","coordinates":[[[[12.52445,55.713],[12.53013,55.71356],[12.53056,55.71218],[12.52475,55.71162],[12.52445,55.713]]]]},"properties":{"type":"Forsinkelsesplads","project":"Bispebjerg Kirkegård del 2","catchment":"Bispebjerg","expected_year":"2025"}},{"type":"Feature","geometry":{"type":"MultiPolygon","coordinates":[[[[12.54273,55.70831],[12.54246,55.70818],[12.54235,55.7082],[12.5429,55.70943],[12.54312,55.70948],[12.54339,55.70946],[12.54355,55.70931],[12.54386,55.70916],[12.54413,55.70895],[12.54407,55.7089],[12.54374,55.70889],[12.54363,55.70884],[12.54336,55.70858],[12.54273,55.70831]]]]},"properties":{"type":"Skybrudsbassin","project":"Lersøparken","catchment":"Bispebjerg","expected_year":"2025"}},{"type":"Feature","geometry":{"type":"MultiPolygon","coordinates":[[[[12.52879,55.71171],[12.52939,55.71098],[12.52938,55.71091],[12.52921,55.71091],[12.52858,55.7117],[12.52867,55.71175],[12.52879,55.71171]]]]},"properties":{"type":"Forsinkelsesplads","project":"Tomsgårdsvej","catchment":"Bispebjerg","expected_year":"2023"}},{"type":"Feature","geometry":{"type":"MultiPolygon","coordinates":[[[[12.53455,55.65476],[12.53453,55.65462],[12.53466,55.65457],[12.53496,55.6546],[12.53504,55.6547],[12.53499,55.6548],[12.53481,55.65485],[12.53466,55.65522],[12.53453,55.65524],[12.53445,55.65523],[12.53443,55.65516],[12.5346,55.6548],[12.53455,55.65476]]]]},"properties":{"type":"Forsinkelsesplads","project":"Vestre Kirkegård","catchment":"København Vest","expected_year":"2023"}},{"type":"Feature","geometry":{"type":"MultiPolygon","coordinates":[[[[12.52885,55.7145],[12.52888,55.71439],[12.52867,55.71437],[12.52872,55.71419],[12.52893,55.71421],[12.52897,55.71409],[12.5285,55.71405],[12.52838,55.71446],[12.52885,55.7145]]]]},"properties":{"type":"ukendt","project":"Bispebjerg Kirkegård del 1","catchment":"Bispebjerg","expected_year":"2024"}},{"type":"Feature","geometry":{"type":"MultiPolygon","coordinates":[[[[12.56972,55.72242],[12.56923,55.72192],[12.56898,55.72189],[12.56859,55.72195],[12.56847,55.72207],[12.56873,55.7226],[12.56895,55.72273],[12.56963,55.72262],[12.56973,55.72255],[12.56972,55.72242]]]]},"properties":{"type":"Forsinkelsesplads","project":"Svanemøllens Kasserne Nord","catchment":"Bispebjerg","expected_year":"2028"}},{"type":"Feature","geometry":{"type":"MultiPolygon","coordinates":[[[[12.58278,55.69198],[12.58304,55.69206],[12.58426,55.69178],[12.58434,55.69192],[12.58477,55.69227],[12.58508,55.69231],[12.58582,55.69226],[12.58573,55.69218],[12.5851,55.69203],[12.58492,55.69193],[12.58483,55.69179],[12.5844,55.69139],[12.58425,55.69133],[12.58372,55.6909],[12.58367,55.69103],[12.58384,55.69112],[12.58395,55.6913],[12.58389,55.69142],[12.58406,55.69164],[12.58278,55.69193],[12.58278,55.69198]]]]},"properties":{"type":"bassin","project":"De Indre Søer","catchment":"Nørrebro","expected_year":"2023"}},{"type":"Feature","geometry":{"type":"MultiPolygon","coordinates":[[[[12.53015,55.69932],[12.52933,55.6999],[12.52854,55.70054],[12.52834,55.70062],[12.52815,55.70079],[12.52819,55.70081],[12.52753,55.70128],[12.52764,55.70137],[12.52756,55.70143],[12.52767,55.70139],[12.52797,55.70166],[12.52789,55.70172],[12.528,55.70168],[12.52822,55.70187],[12.528,55.70198],[12.52724,55.70134],[12.52996,55.6992],[12.53015,55.69932]]]]},"properties":{"type":"Gårdhaveprojekt","project":"Fremtidens Gårdhave Nattergalevej","catchment":"Bispebjerg","expected_year":"Ukendt"}},{"type":"Feature","geometry":{"type":"MultiPolygon","coordinates":[[[[12.49561,55.67014],[12.49587,55.67017],[12.49595,55.66993],[12.49558,55.66989],[12.49556,55.66994],[12.49547,55.66994],[12.49548,55.66985],[12.49475,55.66957],[12.49465,55.67001],[12.49562,55.67006],[12.49561,55.67014]]]]},"properties":{"type":"bassin","project":"Gåsebækvej (Skellet)","catchment":"København Vest","expected_year":"2026"}},{"type":"Feature","geometry":{"type":"MultiPolygon","coordinates":[[[[12.57784,55.68933],[12.57783,55.68945],[12.57799,55.68956],[12.57866,55.68961],[12.579,55.6896],[12.57948,55.68951],[12.57986,55.68955],[12.58004,55.68947],[12.58011,55.68938],[12.58004,55.6893],[12.57978,55.6892],[12.57846,55.6892],[12.57799,55.68925],[12.57784,55.68933]]]]},"properties":{"type":"bassin","project":"De Indre Søer","catchment":"Nørrebro","expected_year":"2023"}},{"type":"Feature","geometry":{"type":"MultiPolygon","coordinates":[[[[12.54145,55.68177],[12.54373,55.68125],[12.54298,55.68015],[12.54082,55.68041],[12.54145,55.68177]]]]},"properties":{"type":"Forsinkelsesplads","project":null,"catchment":null,"expected_year":null}},{"type":"Feature","geometry":{"type":"MultiPolygon","coordinates":[[[[12.45339,55.71005],[12.45333,55.71044],[12.45336,55.71052],[12.45334,55.71084],[12.45315,55.71208],[12.45305,55.71221],[12.45402,55.71284],[12.45492,55.71335],[12.45564,55.71363],[12.45726,55.71406],[12.45881,55.71326],[12.46047,55.71222],[12.46056,55.71163],[12.45891,55.71044],[12.4534,55.70994],[12.45339,55.71005]]]]},"properties":{"type":"ukendt","project":"Kagsmosen","catchment":"København Vest","expected_year":"2022"}},{"type":"Feature","geometry":{"type":"MultiPolygon","coordinates":[[[[12.47749,55.66033],[12.47833,55.6604],[12.47841,55.65979],[12.47874,55.65829],[12.47922,55.65718],[12.47945,55.65682],[12.48484,55.65411],[12.48382,55.65352],[12.4829,55.65396],[12.48234,55.65413],[12.48164,55.6541],[12.4789,55.65605],[12.47783,55.65705],[12.47758,55.65756],[12.47738,55.65817],[12.4773,55.65893],[12.47737,55.6599],[12.47749,55.66033]]]]},"properties":{"type":"Forsinkelsesplads","project":"Vigerslevparken Midt","catchment":"København Vest","expected_year":"2024"}},{"type":"Feature","geometry":{"type":"MultiPolygon","coordinates":[[[[12.5087,55.66576],[12.50933,55.66573],[12.50928,55.66552],[12.50882,55.66555],[12.5088,55.6655],[12.50864,55.66551],[12.5087,55.66576]]]]},"properties":{"type":"bassin","project":"Grønt område ved Vigerslev allé (Valby skole)","catchment":"København Vest","expected_year":"2029"}},{"type":"Feature","geometry":{"type":"MultiPolygon","coordinates":[[[[12.57605,55.69444],[12.57589,55.69437],[12.57477,55.693],[12.57233,55.69149],[12.57223,55.6915],[12.57189,55.69129],[12.57097,55.69152],[12.56982,55.69205],[12.57026,55.69247],[12.57023,55.69253],[12.57237,55.69387],[12.57338,55.69509],[12.5739,55.69546],[12.57865,55.6977],[12.57968,55.69621],[12.57605,55.69444]],[[12.57367,55.69409],[12.57399,55.69434],[12.57402,55.69442],[12.5739,55.69448],[12.57392,55.69456],[12.57374,55.69454],[12.57352,55.69426],[12.57367,55.69421],[12.57362,55.69411],[12.57367,55.69409]]]]},"properties":{"type":"Rensning","project":"Rensning i Sortedams Sø ","catchment":"Nørrebro","expected_year":"2021"}},{"type":"Feature","geometry":{"type":"MultiPolygon","coordinates":[[[[12.56506,55.70685],[12.56509,55.70678],[12.56762,55.70724],[12.56758,55.70732],[12.56506,55.70685]]]]},"properties":{"type":"Skybrudsbassin","project":"Jagtvej","catchment":"Østerbro","expected_year":"2027"}},{"type":"Feature","geometry":{"type":"MultiPolygon","coordinates":[[[[12.54162,55.6965],[12.54281,55.69654],[12.54279,55.69575],[12.54162,55.69572],[12.54162,55.6965]]]]},"properties":{"type":"Forsinkelsesplads","project":"Nørrebroparken Nord","catchment":"Vesterbro-ladegaardså","expected_year":"2023"}},{"type":"Feature","geometry":{"type":"MultiPolygon","coordinates":[[[[12.53555,55.66247],[12.53563,55.66146],[12.53587,55.66055],[12.5372,55.6606],[12.53748,55.65895],[12.5366,55.65895],[12.53655,55.65946],[12.53587,55.65944],[12.53524,55.66239],[12.53555,55.66247]]]]},"properties":{"type":"Forsinkelsesplads","project":"Bavnehøj Idrætsanlæg","catchment":"København Vest","expected_year":"2032"}},{"type":"Feature","geometry":{"type":"MultiPolygon","coordinates":[[[[12.56519,55.68068],[12.56687,55.68067],[12.56681,55.67993],[12.56603,55.67951],[12.56522,55.67965],[12.56479,55.68014],[12.56489,55.68044],[12.56519,55.68068]]]]},"properties":{"type":"Forsinkelsesplads","project":"Regnvandspark i Ørstedparken","catchment":"Vesterbro-ladegaardså","expected_year":"2035"}},{"type":"Feature","geometry":{"type":"MultiPolygon","coordinates":[[[[12.56468,55.71051],[12.5645,55.71069],[12.56457,55.71086],[12.56471,55.71096],[12.56512,55.71106],[12.56533,55.71102],[12.56557,55.71079],[12.56552,55.71054],[12.56534,55.71043],[12.56502,55.71039],[12.56476,55.71043],[12.56468,55.71051]]]]},"properties":{"type":"Forsinkelsesplads","project":"Tåsinge Plads","catchment":"Østerbro","expected_year":"2014"}},{"type":"Feature","geometry":{"type":"MultiPolygon","coordinates":[[[[12.5669,55.71293],[12.56705,55.71291],[12.56707,55.71274],[12.5669,55.71265],[12.56671,55.71263],[12.56642,55.71269],[12.56675,55.71295],[12.5669,55.71293]]]]},"properties":{"type":"Forsinkelsesplads","project":"Tåsinge Plads","catchment":"Østerbro","expected_year":"2014"}},{"type":"Feature","geometry":{"type":"MultiPolygon","coordinates":[[[[12.53599,55.70378],[12.53475,55.70401],[12.53487,55.70429],[12.536,55.70408],[12.53599,55.70378]]]]},"properties":{"type":"Forsinkelsesplads","project":"Lygten","catchment":"Bispebjerg","expected_year":"2031"}},{"type":"Feature","geometry":{"type":"MultiPolygon","coordinates":[[[[12.5587,55.68135],[12.55965,55.681],[12.55994,55.68086],[12.56006,55.68072],[12.56003,55.68046],[12.55938,55.6781],[12.55659,55.67834],[12.55745,55.68153],[12.55775,55.68158],[12.5587,55.68135]]]]},"properties":{"type":"Forsinkelsesplads","project":"De Indre Søer","catchment":"Nørrebro","expected_year":"2023"}},{"type":"Feature","geometry":{"type":"MultiPolygon","coordinates":[[[[12.53621,55.69786],[12.53621,55.69789],[12.53631,55.69788],[12.53627,55.69775],[12.5358,55.69735],[12.53569,55.69783],[12.53621,55.69786]]]]},"properties":{"type":"Forsinkelsesplads","project":"Ørnevej-Vibevej-Glentevej","catchment":"Vesterbro-ladegaardså","expected_year":"2023"}},{"type":"Feature","geometry":{"type":"MultiPolygon","coordinates":[[[[12.56448,55.68629],[12.56435,55.68613],[12.56433,55.68601],[12.56453,55.68577],[12.56057,55.68157],[12.55979,55.68188],[12.55981,55.68196],[12.55976,55.682],[12.55924,55.68222],[12.559,55.68223],[12.55893,55.68219],[12.55807,55.68252],[12.55938,55.68389],[12.56067,55.68354],[12.56107,55.68395],[12.56202,55.68496],[12.56073,55.68529],[12.56223,55.6868],[12.56256,55.68684],[12.5628,55.68695],[12.56448,55.68629]]]]},"properties":{"type":"Forsinkelsesplads","project":"De Indre Søer","catchment":"Nørrebro","expected_year":"2023"}},{"type":"Feature","geometry":{"type":"MultiPolygon","coordinates":[[[[12.58156,55.71121],[12.58138,55.71133],[12.58143,55.71144],[12.5815,55.71147],[12.58156,55.71169],[12.58139,55.71188],[12.58139,55.71203],[12.58163,55.71213],[12.5819,55.71213],[12.58201,55.71207],[12.58203,55.71198],[12.5819,55.71175],[12.58201,55.71128],[12.58187,55.71121],[12.58156,55.71121]]]]},"properties":{"type":"Skybrudsbassin","project":"Østergasværk kvarter lokalpark","catchment":"Østerbro","expected_year":"Ukendt"}},{"type":"Feature","geometry":{"type":"MultiPolygon","coordinates":[[[[12.5521,55.67041],[12.55316,55.67045],[12.55305,55.67131],[12.55374,55.67134],[12.55406,55.67001],[12.55217,55.66993],[12.5521,55.67041]]]]},"properties":{"type":"Forsinkelsesplads","project":"Skydebanehaven","catchment":"Vesterbro-ladegaardså","expected_year":"2028"}},{"type":"Feature","geometry":{"type":"MultiPolygon","coordinates":[[[[12.58007,55.68969],[12.58014,55.68984],[12.58016,55.69026],[12.58025,55.69044],[12.58039,55.6905],[12.58057,55.69102],[12.58063,55.69106],[12.581,55.69116],[12.58216,55.69114],[12.58267,55.69109],[12.58284,55.691],[12.58332,55.69098],[12.58355,55.69083],[12.58335,55.69068],[12.58296,55.69065],[12.58143,55.69085],[12.58108,55.69084],[12.58091,55.69062],[12.58093,55.69047],[12.58071,55.68965],[12.58046,55.6895],[12.58034,55.68948],[12.58012,55.68959],[12.58007,55.68969]]]]},"properties":{"type":"bassin","project":"De Indre Søer","catchment":"Nørrebro","expected_year":"2023"}},{"type":"Feature","geometry":{"type":"MultiPolygon","coordinates":[[[[12.47965,55.68555],[12.47981,55.6856],[12.47936,55.68648],[12.48222,55.68696],[12.48256,55.68607],[12.48171,55.68596],[12.4821,55.68478],[12.48084,55.68468],[12.47976,55.68472],[12.4797,55.68475],[12.47941,55.68545],[12.47965,55.68555]]]]},"properties":{"type":"bassin","project":"Damhusengens skole","catchment":"København Vest","expected_year":"Ukendt"}},{"type":"Feature","geometry":{"type":"MultiPolygon","coordinates":[[[[12.48598,55.69252],[12.48757,55.6929],[12.48759,55.69275],[12.48598,55.69241],[12.48598,55.69252]]]]},"properties":{"type":"Forsinkelsesplads","project":"Tryggevældevej","catchment":"København Vest","expected_year":"2026"}},{"type":"Feature","geometry":{"type":"MultiPolygon","coordinates":[[[[12.49486,55.69443],[12.49491,55.69428],[12.49434,55.69417],[12.49413,55.69425],[12.49486,55.69443]]]]},"properties":{"type":"Forsinkelsesplads","project":"Bellahøjvej","catchment":"København Vest","expected_year":"2026"}},{"type":"Feature","geometry":{"type":"MultiPolygon","coordinates":[[[[12.52928,55.65361],[12.52933,55.65377],[12.53013,55.6538],[12.53071,55.65391],[12.53094,55.65391],[12.53105,55.65384],[12.53117,55.65345],[12.53122,55.65303],[12.53117,55.65285],[12.53053,55.65273],[12.53047,55.65316],[12.53035,55.6535],[12.53019,55.65352],[12.52994,55.65346],[12.52932,55.65345],[12.52928,55.65361]]]]},"properties":{"type":"Forsinkelsesplads","project":"Vestre Kirkegård","catchment":"København Vest","expected_year":"2023"}},{"type":"Feature","geometry":{"type":"MultiPolygon","coordinates":[[[[12.5658,55.7145],[12.56577,55.71463],[12.5658,55.71472],[12.56611,55.71491],[12.56711,55.71511],[12.56767,55.71531],[12.56792,55.71528],[12.56842,55.71492],[12.56846,55.71484],[12.56842,55.71472],[12.56834,55.71465],[12.56789,55.71446],[12.56694,55.71438],[12.56648,55.71423],[12.56614,55.71422],[12.566,55.71426],[12.5658,55.7145]]]]},"properties":{"type":"Rensning","project":"Rensning Kildevældssøen","catchment":"Østerbro","expected_year":"2022"}},{"type":"Feature","geometry":{"type":"MultiPolygon","coordinates":[[[[12.54725,55.68971],[12.55025,55.68857],[12.54965,55.68803],[12.54945,55.68809],[12.54941,55.68803],[12.54647,55.68911],[12.54725,55.68971]]]]},"properties":{"type":"Forsinkelsesplads","project":"Hans Tavsens Park","catchment":"Vesterbro-ladegaardså","expected_year":"2025"}},{"type":"Feature","geometry":{"type":"MultiPolygon","coordinates":[[[[12.54699,55.71686],[12.546,55.71656],[12.54571,55.71662],[12.54569,55.71673],[12.54578,55.71685],[12.54601,55.71697],[12.54663,55.71709],[12.54693,55.7171],[12.54717,55.71701],[12.54699,55.71686]]]]},"properties":{"type":"Forsinkelsesplads","project":"Lundehus Skole","catchment":"Bispebjerg","expected_year":"2023"}},{"type":"Feature","geometry":{"type":"MultiPolygon","coordinates":[[[[12.46362,55.69735],[12.46358,55.6974],[12.46366,55.69772],[12.46387,55.69814],[12.46412,55.69917],[12.4639,55.69998],[12.4639,55.70025],[12.46367,55.70085],[12.46402,55.70083],[12.46519,55.70057],[12.46542,55.69968],[12.46549,55.69875],[12.46527,55.69773],[12.4649,55.69757],[12.46362,55.69735]]]]},"properties":{"type":"Forsinkelsesplads","project":"Krogbjergparken syd","catchment":"København Vest","expected_year":"2033"}},{"type":"Feature","geometry":{"type":"MultiPolygon","coordinates":[[[[12.54873,55.71723],[12.54777,55.71732],[12.54762,55.71748],[12.54769,55.71757],[12.54793,55.71756],[12.54864,55.7175],[12.54888,55.71744],[12.54901,55.71736],[12.54898,55.71727],[12.54873,55.71723]]]]},"properties":{"type":"Forsinkelsesplads","project":"Lundehus Skole","catchment":"Bispebjerg","expected_year":"2023"}},{"type":"Feature","geometry":{"type":"MultiPolygon","coordinates":[[[[12.48569,55.67755],[12.48647,55.67707],[12.48585,55.67684],[12.48431,55.6759],[12.48416,55.67507],[12.48382,55.67399],[12.48371,55.67387],[12.48326,55.67364],[12.48253,55.67343],[12.48184,55.67304],[12.4809,55.67285],[12.47612,55.67293],[12.47493,55.67316],[12.47431,55.67353],[12.47409,55.67396],[12.47474,55.67389],[12.4752,55.67372],[12.47709,55.67344],[12.47786,55.67341],[12.47876,55.67342],[12.48008,55.67354],[12.48171,55.67377],[12.48249,55.67397],[12.48322,55.67422],[12.48334,55.67444],[12.4836,55.67559],[12.48357,55.67585],[12.48375,55.67604],[12.48563,55.67709],[12.48538,55.67727],[12.48569,55.67755]]]]},"properties":{"type":"Forsinkelsesplads","project":"Damhussøen","catchment":"København Vest","expected_year":"2033"}},{"type":"Feature","geometry":{"type":"MultiPolygon","coordinates":[[[[12.53373,55.7177],[12.53384,55.71804],[12.53409,55.71821],[12.53462,55.71992],[12.53487,55.71994],[12.5343,55.71817],[12.53445,55.71795],[12.53433,55.71757],[12.53373,55.7177]]]]},"properties":{"type":"Forsinkelsesplads","project":"Bispebjerg Parkallé","catchment":"Bispebjerg","expected_year":"2032"}},{"type":"Feature","geometry":{"type":"MultiPolygon","coordinates":[[[[12.49507,55.70337],[12.49506,55.70373],[12.49514,55.70372],[12.49518,55.70365],[12.49557,55.70363],[12.49629,55.70368],[12.49632,55.70327],[12.49557,55.70327],[12.49558,55.70336],[12.49507,55.70337]]]]},"properties":{"type":"Forsinkelsesplads","project":"Brønshøj Skole","catchment":"Bispebjerg","expected_year":"2037"}},{"type":"Feature","geometry":{"type":"MultiPolygon","coordinates":[[[[12.53704,55.69053],[12.53971,55.68909],[12.54011,55.68863],[12.5382,55.68961],[12.53777,55.68974],[12.53704,55.69053]]]]},"properties":{"type":"Forsinkelsesplads","project":"Ågadeparken","catchment":"Vesterbro-ladegaardså","expected_year":"2031"}},{"type":"Feature","geometry":{"type":"MultiPolygon","coordinates":[[[[12.52829,55.67889],[12.53013,55.67869],[12.52991,55.67811],[12.5281,55.67841],[12.52829,55.67889]]]]},"properties":{"type":"Forsinkelsesplads","project":null,"catchment":null,"expected_year":null}},{"type":"Feature","geometry":{"type":"MultiPolygon","coordinates":[[[[12.57473,55.71052],[12.57473,55.71046],[12.57522,55.71046],[12.57522,55.71057],[12.57518,55.71059],[12.57473,55.71052]]]]},"properties":{"type":"Skybrudsbassin","project":"Reersøgade m.fl. ","catchment":"Østerbro","expected_year":"2024"}},{"type":"Feature","geometry":{"type":"MultiPolygon","coordinates":[[[[12.55497,55.69503],[12.55411,55.69469],[12.55423,55.69453],[12.55505,55.69489],[12.55497,55.69503]]]]},"properties":{"type":"Forsinkelsesplads","project":"Sjællandsgade","catchment":"Nørrebro","expected_year":"2027"}},{"type":"Feature","geometry":{"type":"MultiPolygon","coordinates":[[[[12.50723,55.70568],[12.50728,55.70608],[12.50855,55.70628],[12.50865,55.70587],[12.50723,55.70568]]]]},"properties":{"type":"Forsinkelsesplads","project":"Svenskelejren","catchment":"Bispebjerg","expected_year":"2034"}},{"type":"Feature","geometry":{"type":"MultiPolygon","coordinates":[[[[12.57376,55.71098],[12.57384,55.71081],[12.57414,55.71081],[12.57415,55.7109],[12.57406,55.71106],[12.5738,55.71104],[12.57376,55.71098]]]]},"properties":{"type":"Skybrudsbassin","project":"Reersøgade m.fl. ","catchment":"Østerbro","expected_year":"2024"}},{"type":"Feature","geometry":{"type":"MultiPolygon","coordinates":[[[[12.57015,55.70779],[12.5702,55.70772],[12.56791,55.7073],[12.56787,55.70737],[12.57015,55.70779]]]]},"properties":{"type":"Skybrudsbassin","project":"Jagtvej","catchment":"Østerbro","expected_year":"2027"}},{"type":"Feature","geometry":{"type":"MultiPolygon","coordinates":[[[[12.54442,55.66747],[12.5457,55.66732],[12.5458,55.66697],[12.54362,55.66606],[12.54442,55.66747]]]]},"properties":{"type":"Forsinkelsesplads","project":"Enghave Plads","catchment":"Vesterbro-ladegaardså","expected_year":"2029"}},{"type":"Feature","geometry":{"type":"MultiPolygon","coordinates":[[[[12.51897,55.70867],[12.5192,55.70867],[12.51921,55.70899],[12.51898,55.709],[12.51897,55.70867]]]]},"properties":{"type":"ukendt","project":"Smedetoften m.fl.","catchment":"Bispebjerg","expected_year":"2025"}},{"type":"Feature","geometry":{"type":"MultiPolygon","coordinates":[[[[12.54072,55.68013],[12.54126,55.68005],[12.54099,55.67946],[12.54041,55.6795],[12.54072,55.68013]]]]},"properties":{"type":"Forsinkelsesplads","project":null,"catchment":null,"expected_year":null}},{"type":"Feature","geometry":{"type":"MultiPolygon","coordinates":[[[[12.55362,55.67553],[12.55293,55.67461],[12.55255,55.6747],[12.5533,55.67574],[12.55362,55.67553]]]]},"properties":{"type":"Forsinkelsesplads","project":null,"catchment":null,"expected_year":null}},{"type":"Feature","geometry":{"type":"MultiPolygon","coordinates":[[[[12.59635,55.66384],[12.5966,55.66346],[12.5961,55.66334],[12.59582,55.66372],[12.59635,55.66384]]]]},"properties":{"type":"Forsinkelsesplads","project":"Brigadevej","catchment":"Amager","expected_year":"2028"}},{"type":"Feature","geometry":{"type":"MultiPolygon","coordinates":[[[[12.52003,55.70821],[12.52025,55.70808],[12.52026,55.70843],[12.52002,55.70844],[12.52003,55.70821]]]]},"properties":{"type":"ukendt","project":"Smedetoften m.fl.","catchment":"Bispebjerg","expected_year":"2025"}},{"type":"Feature","geometry":{"type":"MultiPolygon","coordinates":[[[[12.52771,55.67897],[12.52811,55.67893],[12.52794,55.67842],[12.52757,55.67848],[12.52771,55.67897]]]]},"properties":{"type":"Forsinkelsesplads","project":null,"catchment":null,"expected_year":null}},{"type":"Feature","geometry":{"type":"MultiPolygon","coordinates":[[[[12.53235,55.67838],[12.53311,55.67827],[12.53297,55.67781],[12.53218,55.67792],[12.53235,55.67838]]]]},"properties":{"type":"Forsinkelsesplads","project":null,"catchment":null,"expected_year":null}},{"type":"Feature","geometry":{"type":"MultiPolygon","coordinates":[[[[12.53254,55.67768],[12.53297,55.67763],[12.53276,55.67677],[12.53228,55.67682],[12.53254,55.67768]]]]},"properties":{"type":"Forsinkelsesplads","project":null,"catchment":null,"expected_year":null}},{"type":"Feature","geometry":{"type":"MultiPolygon","coordinates":[[[[12.54645,55.6735],[12.54676,55.67363],[12.54722,55.67362],[12.54753,55.67345],[12.54759,55.67322],[12.54732,55.67298],[12.54714,55.67294],[12.54687,55.67293],[12.54662,55.67298],[12.54638,55.67315],[12.54633,55.67327],[12.54635,55.67337],[12.54645,55.6735]]]]},"properties":{"type":"Forsinkelsesplads","project":null,"catchment":null,"expected_year":null}},{"type":"Feature","geometry":{"type":"MultiPolygon","coordinates":[[[[12.54276,55.68682],[12.54294,55.68693],[12.54434,55.68643],[12.54512,55.68599],[12.54507,55.68561],[12.54421,55.6858],[12.54435,55.68608],[12.54263,55.68642],[12.54276,55.68682]]]]},"properties":{"type":"Forsinkelsesplads","project":null,"catchment":null,"expected_year":null}},{"type":"Feature","geometry":{"type":"MultiPolygon","coordinates":[[[[12.51843,55.70842],[12.51869,55.70842],[12.51869,55.7087],[12.51843,55.7087],[12.51843,55.70842]]]]},"properties":{"type":"ukendt","project":"Smedetoften m.fl.","catchment":"Bispebjerg","expected_year":"2025"}},{"type":"Feature","geometry":{"type":"MultiPolygon","coordinates":[[[[12.53411,55.71033],[12.53382,55.71049],[12.5338,55.71054],[12.53389,55.71064],[12.53387,55.7107],[12.53419,55.7107],[12.53425,55.71066],[12.53433,55.71045],[12.53442,55.71039],[12.53428,55.71031],[12.53411,55.71033]]]]},"properties":{"type":"Forsinkelsesplads","project":"Bispeparken Syd","catchment":"Bispebjerg","expected_year":"2023"}},{"type":"Feature","geometry":{"type":"MultiPolygon","coordinates":[[[[12.53195,55.68486],[12.53323,55.68659],[12.5343,55.68631],[12.53288,55.68465],[12.53195,55.68486]]]]},"properties":{"type":"Forsinkelsesplads","project":null,"catchment":null,"expected_year":null}},{"type":"Feature","geometry":{"type":"MultiPolygon","coordinates":[[[[12.49808,55.68122],[12.50015,55.68118],[12.50013,55.68057],[12.49801,55.68062],[12.49808,55.68122]]]]},"properties":{"type":"Forsinkelsesplads","project":null,"catchment":null,"expected_year":null}},{"type":"Feature","geometry":{"type":"MultiPolygon","coordinates":[[[[12.54374,55.68415],[12.5442,55.68402],[12.54218,55.68179],[12.54104,55.68209],[12.54211,55.68259],[12.54374,55.68415]]]]},"properties":{"type":"Forsinkelsesplads","project":null,"catchment":null,"expected_year":null}},{"type":"Feature","geometry":{"type":"MultiPolygon","coordinates":[[[[12.53329,55.69491],[12.53306,55.69471],[12.53289,55.69449],[12.5319,55.69476],[12.53163,55.69461],[12.53089,55.69489],[12.53113,55.69509],[12.53184,55.69489],[12.53205,55.69525],[12.53329,55.69491]]]]},"properties":{"type":"Forsinkelsesplads","project":null,"catchment":null,"expected_year":null}},{"type":"Feature","geometry":{"type":"MultiPolygon","coordinates":[[[[12.556,55.6768],[12.55617,55.67677],[12.55566,55.67479],[12.55537,55.67493],[12.5553,55.67547],[12.55512,55.67555],[12.55489,55.6758],[12.55502,55.67616],[12.55519,55.67615],[12.55524,55.67634],[12.55537,55.67643],[12.55544,55.67659],[12.55574,55.67661],[12.55579,55.67682],[12.556,55.6768]]]]},"properties":{"type":"Forsinkelsesplads","project":"Sankt Jørgens Sø","catchment":"Vesterbro-ladegaardså","expected_year":"2035"}},{"type":"Feature","geometry":{"type":"MultiPolygon","coordinates":[[[[12.5245,55.70398],[12.52466,55.70403],[12.52475,55.704],[12.52483,55.70393],[12.52481,55.7038],[12.52446,55.70377],[12.52438,55.70391],[12.5245,55.70398]]]]},"properties":{"type":"Forsinkelsesplads","project":"Fuglekvarteret Vest","catchment":"Bispebjerg","expected_year":"2028"}},{"type":"Feature","geometry":{"type":"MultiPolygon","coordinates":[[[[12.55467,55.67231],[12.55556,55.67219],[12.55566,55.67209],[12.55482,55.67183],[12.55467,55.67231]]]]},"properties":{"type":"Forsinkelsesplads","project":"Vesterbros Torv","catchment":"Vesterbro-ladegaardså","expected_year":"2029"}},{"type":"Feature","geometry":{"type":"MultiPolygon","coordinates":[[[[12.50731,55.66955],[12.50749,55.6697],[12.50761,55.66992],[12.50763,55.67031],[12.51079,55.6703],[12.5108,55.67111],[12.51142,55.67102],[12.51115,55.67009],[12.51119,55.66983],[12.50731,55.66955]]]]},"properties":{"type":"Forsinkelsesplads","project":null,"catchment":null,"expected_year":null}},{"type":"Feature","geometry":{"type":"MultiPolygon","coordinates":[[[[12.51839,55.67185],[12.51895,55.67183],[12.51789,55.66981],[12.52343,55.66732],[12.52377,55.66699],[12.53029,55.66843],[12.53024,55.66779],[12.52348,55.6665],[12.52294,55.66707],[12.52054,55.66796],[12.51725,55.66965],[12.51839,55.67185]]]]},"properties":{"type":"Forsinkelsesplads","project":null,"catchment":null,"expected_year":null}},{"type":"Feature","geometry":{"type":"MultiPolygon","coordinates":[[[[12.53428,55.69496],[12.53514,55.69446],[12.53529,55.69411],[12.53408,55.69472],[12.53428,55.69496]]]]},"properties":{"type":"Forsinkelsesplads","project":"Bispeengbuen","catchment":"Vesterbro-ladegaardså","expected_year":"2031"}},{"type":"Feature","geometry":{"type":"MultiPolygon","coordinates":[[[[12.51974,55.70847],[12.51948,55.7086],[12.51948,55.70882],[12.51974,55.70879],[12.51974,55.70847]]]]},"properties":{"type":"ukendt","project":"Smedetoften m.fl.","catchment":"Bispebjerg","expected_year":"2025"}},{"type":"Feature","geometry":{"type":"MultiPolygon","coordinates":[[[[12.55335,55.69454],[12.55379,55.69466],[12.55402,55.69441],[12.55372,55.69423],[12.55335,55.69454]]]]},"properties":{"type":"Forsinkelsesplads","project":"Sjællandsgade","catchment":"Nørrebro","expected_year":"2027"}},{"type":"Feature","geometry":{"type":"MultiPolygon","coordinates":[[[[12.52078,55.70857],[12.52053,55.70859],[12.52053,55.70827],[12.52081,55.70813],[12.52078,55.70857]]]]},"properties":{"type":"Skybrudsbassin","project":"Smedetoften m.fl.","catchment":"Bispebjerg","expected_year":"2025"}},{"type":"Feature","geometry":{"type":"MultiPolygon","coordinates":[[[[12.52487,55.70331],[12.52487,55.70315],[12.52512,55.70328],[12.52537,55.70324],[12.52539,55.70316],[12.52528,55.70307],[12.52514,55.70305],[12.52486,55.70311],[12.52487,55.70299],[12.52479,55.70299],[12.52467,55.70332],[12.52487,55.70331]]]]},"properties":{"type":"Forsinkelsesplads","project":"Fuglekvarteret Vest","catchment":"Bispebjerg","expected_year":"2028"}},{"type":"Feature","geometry":{"type":"MultiPolygon","coordinates":[[[[12.51791,55.65633],[12.51791,55.65621],[12.51781,55.65621],[12.51782,55.65633],[12.51791,55.65633]]]]},"properties":{"type":"Forsinkelsesplads","project":"Sti bag Ottiliavej","catchment":"København Vest","expected_year":"2034"}},{"type":"Feature","geometry":{"type":"MultiPolygon","coordinates":[[[[12.51782,55.65454],[12.51799,55.65455],[12.518,55.65488],[12.51781,55.65487],[12.51782,55.65454]]]]},"properties":{"type":"Forsinkelsesplads","project":"Sti bag Ottiliavej","catchment":"København Vest","expected_year":"2034"}},{"type":"Feature","geometry":{"type":"MultiPolygon","coordinates":[[[[12.55939,55.68389],[12.56075,55.68529],[12.56202,55.68496],[12.56068,55.68353],[12.55939,55.68389]]]]},"properties":{"type":"Forsinkelsesplads","project":"Regnvandspark i Peblinge Sø","catchment":"Vesterbro-ladegaardså","expected_year":"2023"}},{"type":"Feature","geometry":{"type":"MultiPolygon","coordinates":[[[[12.6224,55.64186],[12.6235,55.64208],[12.62362,55.6419],[12.6225,55.6417],[12.6224,55.64186]]]]},"properties":{"type":"Forsinkelsesplads","project":"Grækenlandskvarteret","catchment":"Amager","expected_year":"2023"}},{"type":"Feature","geometry":{"type":"MultiPolygon","coordinates":[[[[12.52773,55.65278],[12.52834,55.65284],[12.52849,55.65237],[12.52789,55.6523],[12.52773,55.65278]]]]},"properties":{"type":"Forsinkelsesplads","project":"Vestre Kirkegård","catchment":"København Vest","expected_year":"2023"}},{"type":"Feature","geometry":{"type":"MultiPolygon","coordinates":[[[[12.52375,55.65723],[12.52381,55.65686],[12.52309,55.65682],[12.52302,55.65718],[12.52375,55.65723]]]]},"properties":{"type":"Forsinkelsesplads","project":"Valbygårdsvej","catchment":"København Vest","expected_year":"2031"}},{"type":"Feature","geometry":{"type":"MultiPolygon","coordinates":[[[[12.52866,55.65271],[12.5291,55.65276],[12.52918,55.65245],[12.52876,55.65239],[12.52866,55.65271]]]]},"properties":{"type":"Forsinkelsesplads","project":"Vestre Kirkegård","catchment":"København Vest","expected_year":"2023"}},{"type":"Feature","geometry":{"type":"MultiPolygon","coordinates":[[[[12.54397,55.70927],[12.54422,55.70911],[12.54435,55.70914],[12.54489,55.70971],[12.54524,55.71015],[12.54532,55.71047],[12.54531,55.71055],[12.54506,55.71073],[12.54487,55.71098],[12.54467,55.71111],[12.54449,55.71112],[12.54425,55.71105],[12.54366,55.71043],[12.54342,55.71025],[12.54307,55.71008],[12.543,55.71001],[12.54301,55.70989],[12.5437,55.70949],[12.54397,55.70927]]]]},"properties":{"type":"Skybrudsbassin","project":"Lersøparken","catchment":"Bispebjerg","expected_year":"2025"}},{"type":"Feature","geometry":{"type":"MultiPolygon","coordinates":[[[[12.53141,55.65962],[12.53157,55.65925],[12.53215,55.65933],[12.53197,55.65969],[12.53141,55.65962]]]]},"properties":{"type":"Forsinkelsesplads","project":"Vestre Kirkegård","catchment":"København Vest","expected_year":"2023"}},{"type":"Feature","geometry":{"type":"MultiPolygon","coordinates":[[[[12.51897,55.70866],[12.5192,55.70866],[12.51919,55.70831],[12.51897,55.70832],[12.51897,55.70866]]]]},"properties":{"type":"ukendt","project":"Smedetoften m.fl.","catchment":"Bispebjerg","expected_year":"2025"}},{"type":"Feature","geometry":{"type":"MultiPolygon","coordinates":[[[[12.47403,55.7078],[12.4748,55.708],[12.4742,55.70626],[12.47344,55.70635],[12.47403,55.7078]]]]},"properties":{"type":"Forsinkelsesplads","project":"Husum Vænge","catchment":"København Vest","expected_year":"2020"}},{"type":"Feature","geometry":{"type":"MultiPolygon","coordinates":[[[[12.47601,55.71292],[12.47504,55.71265],[12.47524,55.71327],[12.47543,55.71352],[12.47599,55.71364],[12.47601,55.71292]]]]},"properties":{"type":"Forsinkelsesplads","project":"Bystævnet","catchment":"København Vest","expected_year":"2037"}},{"type":"Feature","geometry":{"type":"MultiPolygon","coordinates":[[[[12.51475,55.69945],[12.51506,55.69936],[12.51459,55.69893],[12.5143,55.69904],[12.51475,55.69945]]]]},"properties":{"type":"Forsinkelsesplads","project":"Bellahøjvej","catchment":"Bispebjerg","expected_year":"2031"}},{"type":"Feature","geometry":{"type":"MultiPolygon","coordinates":[[[[12.5178,55.65743],[12.51794,55.65743],[12.51794,55.65718],[12.5178,55.65718],[12.5178,55.65743]]]]},"properties":{"type":"Forsinkelsesplads","project":"Sti bag Ottiliavej","catchment":"København Vest","expected_year":"2034"}},{"type":"Feature","geometry":{"type":"MultiPolygon","coordinates":[[[[12.48734,55.65775],[12.48785,55.65784],[12.48803,55.65778],[12.48733,55.65708],[12.48711,55.65716],[12.48697,55.65744],[12.48747,55.65752],[12.48734,55.65775]]]]},"properties":{"type":"ukendt","project":"Gårdstedet","catchment":"København Vest","expected_year":"2024"}},{"type":"Feature","geometry":{"type":"MultiPolygon","coordinates":[[[[12.49841,55.70318],[12.49895,55.70318],[12.49913,55.7031],[12.49848,55.70281],[12.49813,55.70273],[12.49798,55.70275],[12.49794,55.70296],[12.49797,55.70316],[12.49841,55.70318]]]]},"properties":{"type":"Forsinkelsesplads","project":"Brønshøj Gadekær","catchment":"Bispebjerg","expected_year":"2037"}},{"type":"Feature","geometry":{"type":"MultiPolygon","coordinates":[[[[12.47757,55.66051],[12.47877,55.66063],[12.47896,55.66383],[12.47854,55.66403],[12.47825,55.6637],[12.47817,55.66354],[12.47817,55.66325],[12.4785,55.66325],[12.47849,55.6631],[12.47816,55.6631],[12.47812,55.66264],[12.47812,55.66232],[12.47845,55.66238],[12.47845,55.6622],[12.47812,55.66215],[12.47806,55.66152],[12.47757,55.66051]]]]},"properties":{"type":"Forsinkelsesplads","project":"Vigerslevparken Midt","catchment":"København Vest","expected_year":"2024"}},{"type":"Feature","geometry":{"type":"MultiPolygon","coordinates":[[[[12.59609,55.65251],[12.59616,55.65251],[12.59559,55.65104],[12.5947,55.65115],[12.59461,55.65097],[12.59443,55.65094],[12.59409,55.65109],[12.59415,55.65125],[12.59553,55.65109],[12.59609,55.65251]]],[[[12.59408,55.64909],[12.59402,55.64892],[12.59422,55.6489],[12.59415,55.64866],[12.59471,55.6486],[12.59451,55.64798],[12.59482,55.64794],[12.59472,55.64756],[12.59587,55.64743],[12.59597,55.64764],[12.59684,55.64754],[12.59679,55.64736],[12.59433,55.64726],[12.59454,55.64787],[12.59424,55.64791],[12.59428,55.64803],[12.59363,55.64809],[12.59368,55.64826],[12.59432,55.6482],[12.59442,55.64849],[12.59412,55.64854],[12.59408,55.64867],[12.59416,55.64887],[12.59383,55.6489],[12.59385,55.64894],[12.59241,55.64912],[12.59242,55.64925],[12.59408,55.64909]]]]},"properties":{"type":"Forsinkelsesplads","project":"Remiseparken og ”Stierne” til Urbanplanen","catchment":"Amager","expected_year":"2020"}}]}