{"type":"FeatureCollection","features":[{"type":"Feature","geometry":{"type":"Polygon","coordinates":[[[12.47758,55.66052],[12.47735,55.65954],[12.47736,55.65844],[12.47782,55.65707],[12.47842,55.65646],[12.48162,55.65411],[12.48246,55.65408],[12.48354,55.65369],[12.48515,55.65252],[12.48733,55.65131],[12.48865,55.64938],[12.48855,55.64917],[12.48925,55.64862],[12.49013,55.64756],[12.49048,55.64647],[12.49122,55.64607],[12.49431,55.64541],[12.49711,55.64332],[12.49725,55.64303],[12.49874,55.64256],[12.50097,55.64137],[12.5015,55.64088],[12.50181,55.64037],[12.50177,55.64022],[12.50258,55.63905],[12.5066,55.63589],[12.50659,55.63572],[12.50676,55.63579],[12.50665,55.63594],[12.50701,55.636],[12.50885,55.6345],[12.50923,55.63445],[12.52,55.63733],[12.52229,55.63745],[12.5226,55.63702],[12.52553,55.63733],[12.52792,55.63651],[12.5319,55.63685],[12.53179,55.63723],[12.53159,55.63731],[12.5283,55.63694],[12.52702,55.63721],[12.52666,55.63714],[12.52703,55.63751],[12.52611,55.64279],[12.52641,55.64279],[12.52736,55.63753],[12.53163,55.638],[12.5319,55.63822],[12.53069,55.64243],[12.53093,55.64239],[12.5311,55.64204],[12.53143,55.64198],[12.53195,55.63951],[12.53217,55.63914],[12.53223,55.63735],[12.53197,55.63723],[12.5321,55.63687],[12.53245,55.63658],[12.53253,55.63618],[12.52954,55.63627],[12.52931,55.63606],[12.5299,55.63578],[12.5308,55.6358],[12.53124,55.6354],[12.53114,55.63429],[12.53095,55.63386],[12.53069,55.63227],[12.53096,55.63187],[12.5314,55.63173],[12.53182,55.63177],[12.53255,55.63206],[12.53315,55.63176],[12.53328,55.63185],[12.53278,55.63226],[12.5332,55.63256],[12.53397,55.63277],[12.53672,55.63431],[12.53741,55.63399],[12.53749,55.63406],[12.53689,55.63441],[12.53741,55.63487],[12.53984,55.63567],[12.5405,55.63572],[12.54063,55.63581],[12.54058,55.63603],[12.54081,55.63618],[12.54134,55.63612],[12.54076,55.63654],[12.546,55.6393],[12.54675,55.63897],[12.54434,55.6405],[12.54153,55.6405],[12.54091,55.64265],[12.54133,55.64305],[12.54346,55.64286],[12.54437,55.64267],[12.54443,55.64252],[12.54506,55.64248],[12.54442,55.6429],[12.54678,55.64173],[12.54672,55.64164],[12.54691,55.64152],[12.54711,55.64153],[12.54889,55.64017],[12.54962,55.64035],[12.54979,55.64052],[12.54874,55.64155],[12.54862,55.64184],[12.54921,55.64217],[12.54913,55.64226],[12.54954,55.64271],[12.549,55.64303],[12.54901,55.64314],[12.54987,55.64297],[12.55055,55.64339],[12.55106,55.6432],[12.55058,55.64342],[12.55214,55.64428],[12.55256,55.64414],[12.55213,55.64443],[12.5524,55.64445],[12.55272,55.6447],[12.5526,55.64478],[12.55287,55.64481],[12.55407,55.64568],[12.55439,55.64554],[12.55419,55.6457],[12.55425,55.64579],[12.55487,55.64622],[12.55512,55.64655],[12.5558,55.64692],[12.55589,55.64716],[12.55577,55.64729],[12.55537,55.64727],[12.554,55.64632],[12.55327,55.64636],[12.55311,55.64621],[12.55031,55.64734],[12.5511,55.64806],[12.55253,55.64755],[12.55321,55.64761],[12.55856,55.65167],[12.55834,55.65216],[12.55317,55.65351],[12.55147,55.652],[12.55071,55.65228],[12.55233,55.65373],[12.54884,55.65463],[12.54941,55.65532],[12.55249,55.65457],[12.55312,55.65536],[12.55315,55.65561],[12.55262,55.65679],[12.55291,55.65683],[12.55303,55.65658],[12.55516,55.65694],[12.55524,55.6569],[12.55314,55.65655],[12.55354,55.65546],[12.55281,55.65448],[12.55858,55.65312],[12.56218,55.65778],[12.56202,55.65782],[12.563,55.65911],[12.56208,55.65936],[12.5584,55.65884],[12.55819,55.65932],[12.55976,55.65953],[12.56028,55.6602],[12.56051,55.66014],[12.56033,55.65992],[12.56109,55.65972],[12.56318,55.66002],[12.56281,55.66036],[12.56289,55.66039],[12.56336,55.65994],[12.5641,55.66015],[12.56435,55.66048],[12.56382,55.66086],[12.56439,55.66054],[12.56638,55.66317],[12.56409,55.6622],[12.56358,55.6626],[12.56377,55.66249],[12.56482,55.66297],[12.56463,55.66311],[12.56355,55.66262],[12.56302,55.663],[12.56321,55.66308],[12.56366,55.6628],[12.56402,55.66296],[12.5636,55.66326],[12.56476,55.66378],[12.56518,55.66349],[12.56584,55.66379],[12.56554,55.66403],[12.56561,55.66406],[12.56539,55.66441],[12.5644,55.66396],[12.56429,55.66404],[12.56537,55.66452],[12.56532,55.66484],[12.56477,55.6646],[12.56473,55.66443],[12.56313,55.66375],[12.56289,55.66375],[12.56295,55.66368],[12.56241,55.66342],[12.56193,55.66333],[12.56198,55.66321],[12.56114,55.66313],[12.5593,55.66229],[12.55911,55.66243],[12.55966,55.6627],[12.55963,55.66279],[12.55801,55.66205],[12.55778,55.66203],[12.55763,55.66223],[12.5554,55.66204],[12.55181,55.66225],[12.55052,55.66219],[12.55008,55.6624],[12.55013,55.66249],[12.54777,55.66226],[12.54684,55.6624],[12.5456,55.66235],[12.54436,55.66218],[12.54302,55.66179],[12.5417,55.66103],[12.54113,55.66043],[12.54097,55.66043],[12.54165,55.66129],[12.54136,55.66104],[12.54121,55.66108],[12.54144,55.66127],[12.54134,55.66146],[12.54183,55.66257],[12.53873,55.66268],[12.53825,55.66292],[12.53768,55.66298],[12.53741,55.66317],[12.53759,55.66361],[12.53699,55.66379],[12.53339,55.66378],[12.53268,55.66392],[12.53136,55.66385],[12.52831,55.66399],[12.52814,55.66443],[12.52787,55.6646],[12.52763,55.665],[12.52784,55.66521],[12.52752,55.6655],[12.52765,55.6657],[12.52753,55.66608],[12.52736,55.66635],[12.52718,55.66639],[12.52722,55.66657],[12.52695,55.66664],[12.52688,55.66679],[12.52734,55.66686],[12.52742,55.66697],[12.52715,55.66711],[12.52721,55.66729],[12.52698,55.66748],[12.52695,55.66797],[12.52669,55.66808],[12.52757,55.66823],[12.52748,55.66837],[12.5271,55.66845],[12.52705,55.66859],[12.52678,55.66853],[12.52609,55.66878],[12.52609,55.66907],[12.52646,55.66911],[12.52602,55.66942],[12.52599,55.66963],[12.52641,55.66997],[12.52634,55.67032],[12.52576,55.67039],[12.52573,55.67057],[12.52434,55.67081],[12.5244,55.67111],[12.52496,55.67117],[12.52506,55.67135],[12.52433,55.6715],[12.52404,55.67172],[12.52344,55.67169],[12.52332,55.67196],[12.52289,55.67223],[12.52311,55.6725],[12.52261,55.67243],[12.52256,55.67277],[12.52229,55.67272],[12.52169,55.67299],[12.52177,55.67321],[12.52122,55.67329],[12.52105,55.67359],[12.52077,55.67367],[12.52083,55.67389],[12.52061,55.67407],[12.52014,55.67401],[12.52024,55.67417],[12.52074,55.67433],[12.52073,55.67503],[12.52035,55.67522],[12.51999,55.67512],[12.51983,55.67526],[12.52022,55.67561],[12.52022,55.67606],[12.52058,55.67627],[12.52057,55.67644],[12.52043,55.67646],[12.52055,55.67661],[12.52044,55.67665],[12.52062,55.67707],[12.52128,55.67711],[12.5214,55.67723],[12.52136,55.67741],[12.52084,55.67751],[12.52087,55.67779],[12.52144,55.67798],[12.52151,55.67821],[12.52198,55.67829],[12.52212,55.6786],[12.52133,55.67868],[12.52126,55.67904],[12.52187,55.6793],[12.52328,55.6795],[12.52356,55.67975],[12.52411,55.67971],[12.52417,55.68014],[12.52487,55.68016],[12.52501,55.68031],[12.52497,55.68051],[12.52517,55.68053],[12.525,55.68073],[12.52517,55.681],[12.52451,55.68098],[12.52478,55.68155],[12.52439,55.68165],[12.52422,55.68202],[12.524,55.68206],[12.52392,55.68196],[12.524,55.68172],[12.5236,55.68175],[12.52347,55.68158],[12.52282,55.68148],[12.52258,55.6816],[12.52215,55.68142],[12.52087,55.68156],[12.52028,55.68174],[12.52034,55.68203],[12.52009,55.68212],[12.51797,55.68257],[12.51826,55.68285],[12.51864,55.68277],[12.51887,55.68292],[12.51937,55.6828],[12.51958,55.6826],[12.51974,55.68272],[12.51983,55.68266],[12.51976,55.68244],[12.5201,55.68241],[12.52026,55.68258],[12.52135,55.68231],[12.52158,55.68236],[12.52144,55.68257],[12.52098,55.68271],[12.5212,55.68296],[12.52103,55.68298],[12.52086,55.68328],[12.5203,55.68323],[12.51978,55.68342],[12.51959,55.68336],[12.51967,55.68383],[12.52009,55.68411],[12.52066,55.68396],[12.52074,55.68402],[12.52057,55.68414],[12.52085,55.68415],[12.52009,55.68448],[12.52018,55.68465],[12.52161,55.68454],[12.52169,55.68469],[12.52188,55.68471],[12.52201,55.68455],[12.52195,55.68446],[12.52216,55.68443],[12.52225,55.68489],[12.52199,55.68495],[12.52205,55.68508],[12.52138,55.68518],[12.5215,55.68535],[12.52134,55.68541],[12.52121,55.68571],[12.5213,55.68599],[12.52183,55.68588],[12.52187,55.68613],[12.52176,55.68619],[12.52232,55.68695],[12.52275,55.68703],[12.52289,55.68699],[12.5229,55.68679],[12.52305,55.68684],[12.52318,55.68708],[12.52279,55.68726],[12.52297,55.68752],[12.52344,55.68752],[12.52398,55.6877],[12.5242,55.68759],[12.52469,55.688],[12.52471,55.68819],[12.52536,55.68811],[12.52601,55.68844],[12.52595,55.68862],[12.52673,55.68947],[12.52669,55.68961],[12.5269,55.68973],[12.52654,55.68984],[12.52667,55.69],[12.52592,55.69024],[12.52586,55.69031],[12.52599,55.69034],[12.52577,55.69044],[12.52621,55.69082],[12.5259,55.69104],[12.5261,55.69118],[12.52604,55.69125],[12.52563,55.69138],[12.52598,55.69157],[12.52597,55.69167],[12.52579,55.69174],[12.52554,55.69162],[12.52551,55.69172],[12.52579,55.69183],[12.52578,55.69199],[12.5249,55.6923],[12.52501,55.69255],[12.52536,55.69266],[12.52548,55.69287],[12.52545,55.69305],[12.52518,55.69322],[12.52575,55.69331],[12.52547,55.69342],[12.52554,55.69366],[12.52524,55.69369],[12.5251,55.69385],[12.52555,55.69395],[12.52554,55.69414],[12.52534,55.69426],[12.52493,55.69412],[12.52484,55.69429],[12.52512,55.69431],[12.52511,55.69441],[12.52487,55.69454],[12.52428,55.69433],[12.52378,55.6946],[12.52102,55.69332],[12.52073,55.69345],[12.52083,55.69356],[12.51988,55.69389],[12.51944,55.69366],[12.51869,55.69258],[12.5183,55.69235],[12.51821,55.6926],[12.51837,55.69265],[12.51814,55.69287],[12.51635,55.69331],[12.51586,55.69319],[12.51582,55.6934],[12.51602,55.69352],[12.51542,55.6936],[12.51507,55.69384],[12.51437,55.69388],[12.51445,55.69407],[12.51418,55.69428],[12.51441,55.69438],[12.51361,55.69466],[12.51363,55.69494],[12.51341,55.69492],[12.51314,55.69536],[12.51262,55.69547],[12.5114,55.69535],[12.51094,55.69508],[12.50992,55.69477],[12.50761,55.69622],[12.50753,55.6964],[12.50661,55.69699],[12.50648,55.69717],[12.50659,55.69727],[12.50559,55.69748],[12.50488,55.69794],[12.50461,55.69785],[12.50493,55.69771],[12.50485,55.69763],[12.50427,55.69749],[12.50312,55.69792],[12.50289,55.69788],[12.5028,55.69794],[12.50297,55.69816],[12.50138,55.69929],[12.49952,55.7],[12.49797,55.69993],[12.49799,55.69947],[12.49733,55.69955],[12.49612,55.69996],[12.4945,55.70088],[12.49105,55.70109],[12.48983,55.70182],[12.49075,55.70423],[12.49236,55.70553],[12.48985,55.70615],[12.48516,55.70797],[12.48572,55.70856],[12.48543,55.70922],[12.48519,55.71071],[12.48543,55.71234],[12.48581,55.71319],[12.48736,55.71533],[12.47617,55.71851],[12.4746,55.71802],[12.47342,55.71931],[12.47286,55.71886],[12.46615,55.71885],[12.46498,55.7182],[12.46339,55.71764],[12.45869,55.71685],[12.45857,55.71597],[12.45819,55.71509],[12.45797,55.71462],[12.45753,55.71417],[12.4555,55.71363],[12.45381,55.71275],[12.45295,55.71255],[12.45329,55.71084],[12.45372,55.70699],[12.45471,55.70609],[12.45565,55.70497],[12.45621,55.70465],[12.46071,55.70327],[12.46342,55.703],[12.46419,55.70247],[12.46423,55.70226],[12.46395,55.7014],[12.46399,55.7008],[12.46375,55.70082],[12.46407,55.69903],[12.46346,55.69685],[12.46346,55.69626],[12.46465,55.69499],[12.4664,55.69341],[12.46684,55.69272],[12.467,55.69186],[12.46692,55.6917],[12.46721,55.69169],[12.46727,55.6914],[12.46669,55.69144],[12.46604,55.69037],[12.46754,55.68454],[12.4675,55.68398],[12.46789,55.68291],[12.46782,55.6824],[12.46935,55.68134],[12.46941,55.68026],[12.47033,55.67887],[12.472,55.67763],[12.47216,55.67692],[12.47276,55.67596],[12.47302,55.6745],[12.47365,55.67389],[12.47413,55.67294],[12.47439,55.67277],[12.47453,55.67231],[12.47468,55.67218],[12.47852,55.67207],[12.47846,55.67057],[12.47862,55.66992],[12.47844,55.66988],[12.47842,55.66841],[12.47808,55.66601],[12.47836,55.66567],[12.47819,55.665],[12.47834,55.66499],[12.47829,55.66455],[12.47844,55.66456],[12.47838,55.66388],[12.47821,55.6638],[12.47808,55.66156],[12.47758,55.66052]],[[12.55207,55.64445],[12.54846,55.64576],[12.54857,55.64585],[12.54964,55.64549],[12.55218,55.64454],[12.55207,55.64445]],[[12.55252,55.64483],[12.55176,55.64536],[12.55129,55.64495],[12.55108,55.64503],[12.55158,55.64546],[12.55054,55.64601],[12.54989,55.64546],[12.54969,55.64554],[12.55035,55.64612],[12.54936,55.64652],[12.54947,55.6466],[12.55049,55.64621],[12.55173,55.64557],[12.55265,55.64492],[12.55252,55.64483]],[[12.54561,55.64565],[12.54491,55.64569],[12.54437,55.64588],[12.54534,55.64673],[12.54333,55.64936],[12.54111,55.65016],[12.54146,55.65049],[12.54329,55.64993],[12.54523,55.6516],[12.54719,55.65146],[12.5471,55.65107],[12.54766,55.65087],[12.54757,55.6508],[12.54702,55.651],[12.54576,55.64989],[12.54662,55.64957],[12.54805,55.65073],[12.54684,55.6496],[12.55081,55.64817],[12.54997,55.64746],[12.54857,55.64786],[12.54865,55.64793],[12.54711,55.64848],[12.54663,55.64728],[12.5476,55.64712],[12.54754,55.64702],[12.54722,55.64708],[12.54561,55.64565]],[[12.55196,55.64551],[12.55178,55.6456],[12.55278,55.64624],[12.55303,55.64614],[12.55196,55.64551]],[[12.55074,55.64617],[12.55057,55.64624],[12.55139,55.64674],[12.55164,55.64665],[12.55074,55.64617]],[[12.54904,55.64662],[12.54759,55.64701],[12.54765,55.64711],[12.5482,55.64701],[12.54914,55.64671],[12.54904,55.64662]],[[12.54824,55.64705],[12.54801,55.6471],[12.5485,55.64778],[12.54869,55.64771],[12.54824,55.64705]],[[12.56295,55.66305],[12.56262,55.66329],[12.56416,55.66399],[12.56428,55.6639],[12.56291,55.66329],[12.56313,55.66313],[12.56295,55.66305]],[[12.56414,55.66269],[12.564,55.66279],[12.56463,55.66307],[12.56476,55.66298],[12.56414,55.66269]],[[12.56393,55.66259],[12.56378,55.66269],[12.56397,55.66278],[12.56411,55.66268],[12.56393,55.66259]],[[12.56375,55.66255],[12.56366,55.66261],[12.56384,55.66259],[12.56375,55.66255]],[[12.54781,55.65071],[12.54769,55.65075],[12.54797,55.65075],[12.54781,55.65071]],[[12.56111,55.66065],[12.56097,55.66076],[12.56234,55.66138],[12.56217,55.6615],[12.56388,55.66227],[12.56402,55.66217],[12.56281,55.66162],[12.56307,55.66145],[12.56111,55.66065]]]},"properties":{"name":"København Vest og Frederiksberg Vest"}},{"type":"Feature","geometry":{"type":"Polygon","coordinates":[[[12.56296,55.70633],[12.56282,55.70688],[12.56171,55.7087],[12.56143,55.70862],[12.56163,55.70821],[12.56133,55.70815],[12.56092,55.70899],[12.56067,55.70908],[12.55848,55.70875],[12.55794,55.70836],[12.55805,55.70822],[12.55837,55.70826],[12.55845,55.70798],[12.55822,55.70788],[12.55828,55.70775],[12.55879,55.70761],[12.5582,55.70735],[12.55824,55.7071],[12.5584,55.7071],[12.55831,55.70691],[12.55848,55.70666],[12.55826,55.70665],[12.55825,55.70649],[12.55734,55.70637],[12.55755,55.7062],[12.55768,55.70572],[12.5576,55.70568],[12.55783,55.70547],[12.55773,55.70533],[12.55803,55.70485],[12.55742,55.7046],[12.55764,55.7039],[12.55704,55.70369],[12.55719,55.70359],[12.55717,55.70338],[12.55671,55.70321],[12.55682,55.7031],[12.55595,55.70275],[12.55504,55.70326],[12.55448,55.70324],[12.55454,55.70316],[12.55434,55.70314],[12.55443,55.703],[12.55413,55.70257],[12.55387,55.70246],[12.55402,55.7024],[12.55383,55.70209],[12.55406,55.7018],[12.55375,55.70155],[12.5535,55.70156],[12.55348,55.7013],[12.55317,55.70127],[12.55281,55.70096],[12.55237,55.70081],[12.552,55.70104],[12.55155,55.70083],[12.55436,55.69883],[12.55539,55.6984],[12.55546,55.69753],[12.55564,55.69721],[12.55607,55.69704],[12.55675,55.69715],[12.55682,55.69732],[12.55762,55.69728],[12.55757,55.69708],[12.55786,55.69702],[12.55774,55.69696],[12.55786,55.69685],[12.55831,55.69703],[12.5603,55.69661],[12.561,55.69639],[12.56088,55.69619],[12.56112,55.69604],[12.56143,55.69609],[12.56112,55.69422],[12.55827,55.69233],[12.55941,55.69188],[12.56029,55.69124],[12.56102,55.69104],[12.56069,55.69032],[12.56011,55.68956],[12.56054,55.68958],[12.56068,55.6894],[12.56086,55.68939],[12.56092,55.68952],[12.56123,55.68948],[12.56116,55.68935],[12.56192,55.68912],[12.56186,55.689],[12.56204,55.68886],[12.56188,55.6887],[12.56221,55.68852],[12.56139,55.68789],[12.56161,55.68782],[12.5616,55.6877],[12.56259,55.68746],[12.56271,55.68713],[12.56293,55.68709],[12.56313,55.68724],[12.56486,55.68662],[12.56489,55.68645],[12.56524,55.6862],[12.56588,55.68666],[12.56645,55.68646],[12.56707,55.68666],[12.56671,55.68683],[12.56659,55.68698],[12.56667,55.68705],[12.56688,55.68707],[12.56825,55.68627],[12.56858,55.68659],[12.5689,55.6865],[12.56874,55.68643],[12.56878,55.6862],[12.5689,55.68615],[12.56882,55.68602],[12.56931,55.68604],[12.56915,55.6859],[12.56917,55.68569],[12.57027,55.68542],[12.57004,55.68524],[12.57016,55.68516],[12.57057,55.68523],[12.57147,55.68493],[12.57064,55.68424],[12.57112,55.68418],[12.57144,55.6844],[12.57192,55.68427],[12.57171,55.68447],[12.57192,55.68457],[12.57177,55.68468],[12.57203,55.68482],[12.57179,55.68506],[12.57096,55.68526],[12.57097,55.68537],[12.57053,55.6855],[12.57055,55.68559],[12.56968,55.68579],[12.56985,55.68591],[12.57022,55.68586],[12.57087,55.68628],[12.5708,55.68644],[12.57095,55.68655],[12.57084,55.68662],[12.57101,55.68679],[12.57139,55.68677],[12.57124,55.68695],[12.57157,55.68703],[12.57176,55.68733],[12.57266,55.68789],[12.57246,55.688],[12.57252,55.68811],[12.57454,55.68942],[12.57461,55.68963],[12.57489,55.68966],[12.5759,55.69082],[12.5767,55.69059],[12.57688,55.69084],[12.57648,55.69087],[12.5762,55.69108],[12.57661,55.6915],[12.57654,55.69159],[12.5767,55.69162],[12.57671,55.69187],[12.57741,55.69225],[12.57732,55.69247],[12.57754,55.69251],[12.57767,55.69287],[12.57819,55.69301],[12.57858,55.69338],[12.57845,55.69355],[12.57852,55.69381],[12.57913,55.69417],[12.57905,55.69437],[12.57962,55.69441],[12.57968,55.69459],[12.57917,55.69459],[12.57914,55.6947],[12.57966,55.69503],[12.57951,55.69519],[12.58007,55.69575],[12.58009,55.69603],[12.57932,55.69709],[12.57839,55.69867],[12.57763,55.69952],[12.57745,55.69956],[12.57685,55.69924],[12.56462,55.7058],[12.56433,55.70581],[12.56331,55.70632],[12.56296,55.70633]]]},"properties":{"name":"Nørrebro"}},{"type":"Feature","geometry":{"type":"Polygon","coordinates":[[[12.56292,55.70644],[12.56296,55.70633],[12.56331,55.70632],[12.56433,55.70581],[12.56462,55.7058],[12.57685,55.69924],[12.57745,55.69956],[12.57763,55.69952],[12.57839,55.69867],[12.57932,55.69709],[12.58009,55.69603],[12.58007,55.69575],[12.57951,55.69519],[12.57966,55.69503],[12.57914,55.6947],[12.57917,55.69459],[12.57968,55.69459],[12.57962,55.69441],[12.57905,55.69437],[12.57913,55.69417],[12.57852,55.69381],[12.57845,55.69355],[12.57858,55.69338],[12.57837,55.69314],[12.57767,55.69287],[12.57754,55.69251],[12.57732,55.69247],[12.57741,55.69225],[12.57671,55.69187],[12.5767,55.69162],[12.57654,55.69159],[12.57661,55.6915],[12.57619,55.69102],[12.57688,55.69084],[12.5767,55.69059],[12.5759,55.69082],[12.57489,55.68966],[12.57452,55.68954],[12.57454,55.68942],[12.57478,55.68935],[12.57503,55.68945],[12.57587,55.68902],[12.57622,55.68922],[12.57664,55.68926],[12.57691,55.68976],[12.57783,55.69006],[12.57775,55.69023],[12.57803,55.6904],[12.57908,55.69079],[12.58004,55.69094],[12.58047,55.69132],[12.58166,55.69158],[12.58173,55.69177],[12.58294,55.69222],[12.58379,55.6922],[12.58517,55.6927],[12.58618,55.69229],[12.58624,55.6925],[12.58693,55.69262],[12.58752,55.69232],[12.58742,55.69226],[12.58746,55.69197],[12.58776,55.69181],[12.58834,55.69162],[12.58877,55.69169],[12.58984,55.69228],[12.59009,55.69229],[12.59016,55.69239],[12.59007,55.69244],[12.59034,55.69252],[12.59025,55.69262],[12.59289,55.69425],[12.59365,55.69423],[12.59427,55.69403],[12.59473,55.69435],[12.59497,55.69425],[12.59546,55.69361],[12.59577,55.69345],[12.59649,55.69352],[12.59728,55.69384],[12.59856,55.69341],[12.59899,55.69312],[12.59895,55.69298],[12.59926,55.69291],[12.60028,55.69348],[12.60057,55.69399],[12.60019,55.69397],[12.59959,55.69349],[12.59823,55.69374],[12.5982,55.69426],[12.59974,55.69487],[12.6,55.69483],[12.60039,55.69421],[12.60061,55.69426],[12.6004,55.69505],[12.60013,55.69531],[12.5998,55.6954],[12.6005,55.69555],[12.60122,55.70392],[12.60078,55.70374],[12.59968,55.70278],[12.5993,55.69843],[12.59885,55.69575],[12.59948,55.69558],[12.59938,55.6955],[12.59884,55.69564],[12.59882,55.69555],[12.59759,55.69565],[12.59806,55.69764],[12.59792,55.69766],[12.59835,55.69867],[12.59755,55.69875],[12.59754,55.69904],[12.59735,55.69876],[12.59722,55.69876],[12.59644,55.69575],[12.59493,55.69587],[12.59671,55.70108],[12.59618,55.7013],[12.59776,55.7026],[12.59749,55.70262],[12.59519,55.7014],[12.59473,55.70168],[12.59496,55.70206],[12.59487,55.70256],[12.59471,55.7028],[12.5977,55.70347],[12.60032,55.70529],[12.5998,55.70529],[12.59914,55.7049],[12.59896,55.70499],[12.5994,55.70525],[12.59938,55.70535],[12.5966,55.70506],[12.59663,55.70488],[12.59256,55.70446],[12.59243,55.70509],[12.59196,55.70611],[12.59869,55.7067],[12.59869,55.70645],[12.59884,55.70645],[12.59884,55.70624],[12.59893,55.70624],[12.59903,55.70695],[12.60334,55.70607],[12.60229,55.70722],[12.59898,55.70801],[12.59897,55.70835],[12.59493,55.70907],[12.59506,55.70989],[12.59537,55.70989],[12.59551,55.7101],[12.60531,55.70816],[12.60326,55.70974],[12.59534,55.71136],[12.59627,55.71258],[12.59774,55.71226],[12.59761,55.712],[12.59955,55.7116],[12.59974,55.71188],[12.61044,55.70969],[12.61027,55.70943],[12.61099,55.70929],[12.61107,55.70912],[12.61073,55.70889],[12.61142,55.70903],[12.61129,55.70915],[12.61163,55.70966],[12.61409,55.7108],[12.61413,55.71151],[12.6139,55.7119],[12.61298,55.71219],[12.61305,55.71251],[12.60592,55.71401],[12.60624,55.71454],[12.61726,55.71231],[12.61795,55.71264],[12.61788,55.7128],[12.61643,55.71294],[12.61629,55.71311],[12.61635,55.71329],[12.61765,55.71354],[12.61842,55.71428],[12.61896,55.71425],[12.61869,55.71376],[12.61919,55.71368],[12.61963,55.71377],[12.61964,55.71366],[12.62,55.71355],[12.62173,55.71429],[12.62177,55.71443],[12.61838,55.71513],[12.61818,55.71534],[12.61775,55.71546],[12.61792,55.71597],[12.61722,55.71611],[12.61688,55.71569],[12.61382,55.71633],[12.61352,55.7165],[12.6144,55.71774],[12.61456,55.71771],[12.61456,55.71754],[12.61481,55.71749],[12.61496,55.71765],[12.61777,55.71704],[12.61755,55.71658],[12.61792,55.71645],[12.61828,55.71644],[12.61864,55.71687],[12.61983,55.71684],[12.62124,55.71661],[12.62136,55.71639],[12.62204,55.71626],[12.6222,55.7164],[12.62297,55.71626],[12.62315,55.71782],[12.60877,55.72331],[12.6048,55.72478],[12.60427,55.72486],[12.60356,55.72525],[12.6031,55.72532],[12.60283,55.72514],[12.60649,55.72376],[12.60593,55.7231],[12.60191,55.72394],[12.60152,55.72387],[12.6012,55.72359],[12.60119,55.72284],[12.60029,55.72054],[12.60477,55.71961],[12.60397,55.71835],[12.60104,55.71893],[12.60093,55.71876],[12.59868,55.71922],[12.59858,55.71905],[12.59577,55.71958],[12.59554,55.71933],[12.59576,55.71927],[12.59404,55.71743],[12.59384,55.71748],[12.59358,55.71717],[12.59377,55.7171],[12.59054,55.71258],[12.59024,55.7127],[12.59006,55.71257],[12.59005,55.71217],[12.59088,55.71216],[12.5927,55.71038],[12.59173,55.71006],[12.59172,55.70992],[12.59161,55.7099],[12.59119,55.7108],[12.59036,55.71067],[12.59076,55.70979],[12.59049,55.70974],[12.59009,55.71058],[12.58836,55.71233],[12.58982,55.7145],[12.5897,55.71454],[12.58979,55.71471],[12.58939,55.71479],[12.58883,55.71463],[12.58829,55.71463],[12.58793,55.71426],[12.58796,55.71414],[12.5878,55.71411],[12.58683,55.71431],[12.58694,55.71458],[12.58562,55.71601],[12.58465,55.71569],[12.58442,55.71576],[12.58423,55.71596],[12.58404,55.71692],[12.5841,55.71704],[12.591,55.71794],[12.59129,55.71834],[12.59241,55.71809],[12.59258,55.71841],[12.59191,55.71862],[12.59102,55.71866],[12.58807,55.71825],[12.58682,55.71754],[12.58458,55.71723],[12.58389,55.71751],[12.58338,55.71646],[12.58249,55.71672],[12.58169,55.71678],[12.57884,55.71684],[12.57867,55.71673],[12.57769,55.71678],[12.57732,55.7166],[12.57736,55.7164],[12.57721,55.71637],[12.57722,55.71648],[12.57703,55.71657],[12.57564,55.71708],[12.57547,55.71719],[12.57547,55.71734],[12.57413,55.71795],[12.57327,55.71862],[12.57238,55.71967],[12.57094,55.72225],[12.57069,55.72248],[12.5692,55.72252],[12.56883,55.72216],[12.56887,55.72205],[12.56867,55.72197],[12.56884,55.72168],[12.56873,55.72152],[12.56895,55.72152],[12.56903,55.721],[12.56984,55.72093],[12.56985,55.72061],[12.57007,55.72032],[12.56982,55.72025],[12.56978,55.72009],[12.57018,55.71999],[12.57041,55.71958],[12.57031,55.71945],[12.56931,55.71917],[12.57002,55.7186],[12.56997,55.71834],[12.56962,55.71838],[12.56958,55.71828],[12.57003,55.71796],[12.56992,55.71782],[12.56902,55.71776],[12.56889,55.7176],[12.5684,55.71761],[12.56816,55.71748],[12.56798,55.71762],[12.56725,55.71752],[12.56717,55.71741],[12.56675,55.71737],[12.56657,55.71718],[12.5648,55.71716],[12.56316,55.71697],[12.56146,55.71642],[12.56226,55.71632],[12.56263,55.71582],[12.56358,55.71582],[12.56447,55.7155],[12.56467,55.71563],[12.56588,55.71576],[12.56594,55.71559],[12.5652,55.71537],[12.56495,55.71515],[12.56503,55.71483],[12.56428,55.71469],[12.56129,55.71366],[12.56135,55.71334],[12.56219,55.71347],[12.56235,55.71339],[12.56206,55.71302],[12.56186,55.71297],[12.56186,55.71285],[12.56156,55.71276],[12.56178,55.71266],[12.56208,55.71221],[12.56191,55.71217],[12.56193,55.71199],[12.56217,55.7118],[12.56224,55.71156],[12.5621,55.71137],[12.5608,55.71109],[12.56092,55.71087],[12.56131,55.71092],[12.56162,55.7107],[12.56154,55.71049],[12.56115,55.71042],[12.5613,55.71017],[12.56105,55.7099],[12.56282,55.70688],[12.56292,55.70644]]]},"properties":{"name":"Østerbro"}},{"type":"Feature","geometry":{"type":"Polygon","coordinates":[[[12.59883,55.68736],[12.59943,55.68822],[12.59933,55.68876],[12.59888,55.68898],[12.59885,55.68916],[12.59925,55.68943],[12.59975,55.68939],[12.5998,55.68902],[12.5999,55.68902],[12.60033,55.69106],[12.59931,55.69117],[12.59889,55.69145],[12.5988,55.69185],[12.59899,55.69262],[12.59926,55.69291],[12.59895,55.69298],[12.59899,55.69312],[12.59856,55.69341],[12.59799,55.69363],[12.59728,55.69384],[12.59649,55.69352],[12.59577,55.69345],[12.59546,55.69361],[12.59497,55.69425],[12.59473,55.69435],[12.59427,55.69403],[12.59365,55.69423],[12.59289,55.69425],[12.59025,55.69262],[12.59034,55.69252],[12.59007,55.69244],[12.59016,55.69239],[12.59009,55.69229],[12.58984,55.69228],[12.58877,55.69169],[12.58834,55.69162],[12.58746,55.69197],[12.58742,55.69226],[12.58752,55.69232],[12.58693,55.69262],[12.58624,55.6925],[12.58618,55.69229],[12.58517,55.6927],[12.58379,55.6922],[12.58294,55.69222],[12.58173,55.69177],[12.58166,55.69158],[12.58047,55.69132],[12.58004,55.69094],[12.57908,55.69079],[12.57803,55.6904],[12.57775,55.69023],[12.57783,55.69006],[12.57691,55.68976],[12.57664,55.68926],[12.57622,55.68922],[12.57587,55.68902],[12.57503,55.68945],[12.57439,55.68937],[12.57261,55.68818],[12.57246,55.688],[12.57266,55.68789],[12.57249,55.68773],[12.57176,55.68733],[12.57157,55.68703],[12.57124,55.68695],[12.57139,55.68677],[12.57101,55.68679],[12.57084,55.68662],[12.57095,55.68655],[12.5708,55.68644],[12.57087,55.68628],[12.57022,55.68586],[12.56985,55.68591],[12.56968,55.68579],[12.57055,55.68559],[12.57053,55.6855],[12.57097,55.68537],[12.57096,55.68526],[12.57179,55.68506],[12.57203,55.68482],[12.57177,55.68468],[12.57192,55.68465],[12.57171,55.68447],[12.57176,55.68435],[12.57218,55.68432],[12.57239,55.68416],[12.57213,55.68409],[12.57211,55.68393],[12.57184,55.68375],[12.57184,55.6836],[12.57162,55.68342],[12.57163,55.68323],[12.57061,55.68249],[12.57006,55.68227],[12.56697,55.67985],[12.56587,55.67921],[12.56585,55.67902],[12.56485,55.67863],[12.56414,55.67865],[12.56344,55.67819],[12.56262,55.67728],[12.56239,55.67684],[12.5622,55.67572],[12.56257,55.67557],[12.56277,55.67525],[12.56299,55.67531],[12.56344,55.67471],[12.56282,55.67457],[12.56334,55.67419],[12.5636,55.67428],[12.56467,55.67352],[12.56389,55.67315],[12.56446,55.67329],[12.56468,55.6731],[12.56503,55.67321],[12.56572,55.67314],[12.5672,55.67163],[12.56716,55.67135],[12.56776,55.67157],[12.56818,55.67136],[12.56888,55.67074],[12.56949,55.67066],[12.56941,55.67076],[12.56958,55.67085],[12.57006,55.67061],[12.57034,55.67065],[12.57072,55.67043],[12.57074,55.67026],[12.57097,55.67008],[12.57134,55.66996],[12.57126,55.66974],[12.57104,55.66961],[12.57177,55.66926],[12.5717,55.66919],[12.57184,55.66906],[12.57169,55.66883],[12.5721,55.6686],[12.57185,55.66851],[12.57199,55.66829],[12.57248,55.66842],[12.57229,55.6682],[12.57242,55.66813],[12.57318,55.66831],[12.57336,55.6682],[12.57655,55.66977],[12.57629,55.66992],[12.58011,55.67215],[12.57986,55.6723],[12.58016,55.67246],[12.58077,55.67209],[12.58347,55.67348],[12.5875,55.67517],[12.58732,55.6752],[12.58742,55.67527],[12.58723,55.67585],[12.58799,55.67594],[12.58903,55.67628],[12.59206,55.67764],[12.59377,55.67883],[12.58797,55.68035],[12.58808,55.68059],[12.594,55.67901],[12.59496,55.67941],[12.5958,55.68029],[12.59519,55.68055],[12.59698,55.68266],[12.59632,55.6828],[12.59491,55.68117],[12.59387,55.6813],[12.59578,55.68374],[12.59663,55.68436],[12.59636,55.68435],[12.59883,55.68736]],[[12.58021,55.67741],[12.58005,55.67744],[12.58013,55.67766],[12.5824,55.67676],[12.58217,55.67661],[12.58021,55.67741]],[[12.58458,55.6757],[12.58251,55.67647],[12.58274,55.67663],[12.58451,55.67608],[12.58458,55.6757]],[[12.57588,55.67572],[12.57573,55.67587],[12.5773,55.67697],[12.57844,55.67744],[12.57982,55.67768],[12.57975,55.6775],[12.57846,55.67717],[12.57745,55.67673],[12.57588,55.67572]],[[12.58693,55.67527],[12.58493,55.67565],[12.58491,55.67604],[12.58696,55.67581],[12.58706,55.67554],[12.58693,55.67527]],[[12.57663,55.67493],[12.57606,55.67553],[12.57626,55.67562],[12.57691,55.67503],[12.57663,55.67493]],[[12.57738,55.6742],[12.57675,55.67481],[12.57705,55.67493],[12.57777,55.67436],[12.57738,55.6742]],[[12.57973,55.67238],[12.57903,55.6728],[12.57747,55.67411],[12.57786,55.67426],[12.57874,55.67331],[12.58002,55.67254],[12.57973,55.67238]]]},"properties":{"name":"Indre By"}},{"type":"Feature","geometry":{"type":"Polygon","coordinates":[[[12.50892,55.61285],[12.51013,55.61338],[12.51067,55.6138],[12.51352,55.61378],[12.513,55.61337],[12.51335,55.61334],[12.51617,55.61347],[12.51598,55.61288],[12.51609,55.61287],[12.51636,55.61344],[12.52066,55.61439],[12.52353,55.61549],[12.57014,55.61559],[12.57203,55.61594],[12.57934,55.61823],[12.59204,55.62325],[12.59217,55.62344],[12.59342,55.63363],[12.59246,55.63794],[12.59912,55.63784],[12.61816,55.64049],[12.61836,55.64011],[12.6189,55.63999],[12.61938,55.63941],[12.62054,55.63956],[12.62092,55.63964],[12.62106,55.64],[12.62386,55.64073],[12.6273,55.64142],[12.62596,55.64378],[12.62837,55.6443],[12.63399,55.64514],[12.63433,55.6444],[12.64783,55.64629],[12.64855,55.6475],[12.64998,55.64738],[12.65057,55.64751],[12.65077,55.64772],[12.65009,55.64746],[12.6484,55.64761],[12.64864,55.64838],[12.65032,55.6482],[12.65071,55.64784],[12.65083,55.64786],[12.65067,55.64813],[12.65038,55.64827],[12.64894,55.64844],[12.64867,55.64881],[12.64804,55.65018],[12.64787,55.65106],[12.64811,55.65156],[12.64803,55.65202],[12.64904,55.65357],[12.64981,55.65422],[12.65052,55.65452],[12.65208,55.65456],[12.65205,55.65464],[12.65049,55.65463],[12.6499,55.65476],[12.64682,55.65662],[12.64338,55.65919],[12.64153,55.66093],[12.63943,55.66358],[12.63994,55.6636],[12.64012,55.66336],[12.64081,55.66351],[12.64053,55.66416],[12.63973,55.66401],[12.63992,55.66374],[12.63939,55.66362],[12.63882,55.66432],[12.63955,55.66509],[12.63959,55.66549],[12.63935,55.66548],[12.63937,55.66515],[12.63698,55.66278],[12.63541,55.6626],[12.63548,55.66333],[12.63505,55.66436],[12.63274,55.66366],[12.63242,55.66402],[12.63227,55.66466],[12.6306,55.66453],[12.63056,55.66467],[12.63333,55.66501],[12.63443,55.66531],[12.63098,55.66925],[12.63217,55.66961],[12.63086,55.67052],[12.63094,55.6707],[12.63299,55.67103],[12.63399,55.67022],[12.63627,55.67034],[12.63665,55.67016],[12.63675,55.66946],[12.63804,55.66839],[12.63823,55.66845],[12.63869,55.66803],[12.63844,55.6679],[12.63764,55.66699],[12.63686,55.66695],[12.63688,55.66682],[12.64093,55.66706],[12.64055,55.6671],[12.64025,55.66735],[12.64005,55.66728],[12.63947,55.66779],[12.63935,55.66775],[12.63871,55.66819],[12.63925,55.66849],[12.63968,55.66919],[12.63936,55.66925],[12.63966,55.66972],[12.63998,55.66967],[12.64025,55.67007],[12.64181,55.67015],[12.64252,55.6696],[12.64283,55.66955],[12.64311,55.66995],[12.64347,55.66988],[12.64185,55.66721],[12.64143,55.66711],[12.6418,55.66707],[12.64203,55.6672],[12.64322,55.66908],[12.64417,55.66931],[12.64495,55.67058],[12.6448,55.67056],[12.64444,55.66999],[12.64362,55.67015],[12.64354,55.66999],[12.64129,55.67047],[12.63679,55.67025],[12.63655,55.67039],[12.64128,55.67062],[12.64175,55.67135],[12.64266,55.67128],[12.64412,55.67154],[12.64467,55.67183],[12.64563,55.6714],[12.64574,55.67116],[12.6456,55.67091],[12.64572,55.6709],[12.6459,55.67119],[12.64573,55.67148],[12.64481,55.67189],[12.6466,55.6743],[12.64818,55.67497],[12.64836,55.67523],[12.64829,55.67552],[12.6478,55.67591],[12.64823,55.67608],[12.64482,55.67923],[12.6407,55.67886],[12.64047,55.67915],[12.64038,55.67907],[12.64062,55.67866],[12.63948,55.6765],[12.63871,55.67658],[12.63878,55.67672],[12.6374,55.67695],[12.63732,55.67683],[12.63635,55.67699],[12.63463,55.67569],[12.63299,55.6757],[12.63491,55.67766],[12.63467,55.67775],[12.63467,55.67853],[12.634,55.67919],[12.63418,55.67924],[12.63467,55.67876],[12.6342,55.67928],[12.63521,55.67948],[12.63527,55.67887],[12.63548,55.67868],[12.63533,55.67889],[12.6354,55.67967],[12.63855,55.68031],[12.63951,55.68036],[12.63964,55.68048],[12.63916,55.68042],[12.63695,55.68319],[12.63722,55.68337],[12.63714,55.68346],[12.63864,55.68437],[12.63891,55.68444],[12.63909,55.68429],[12.6392,55.68433],[12.6388,55.68469],[12.63869,55.68465],[12.63878,55.68458],[12.63705,55.68353],[12.63669,55.68355],[12.63555,55.68499],[12.63539,55.68497],[12.62734,55.68211],[12.62494,55.68051],[12.6305,55.674],[12.63352,55.67195],[12.63327,55.6716],[12.6323,55.67114],[12.63042,55.67099],[12.62974,55.67138],[12.6285,55.67239],[12.62831,55.67233],[12.62158,55.68007],[12.62128,55.67999],[12.6215,55.67979],[12.62079,55.67957],[12.62024,55.68009],[12.62096,55.6803],[12.62119,55.68007],[12.62149,55.68016],[12.62085,55.681],[12.6209,55.68114],[12.62489,55.68379],[12.62577,55.68411],[12.62637,55.68412],[12.62679,55.68451],[12.63588,55.68777],[12.63281,55.6905],[12.62879,55.68901],[12.62805,55.68889],[12.62736,55.68955],[12.6264,55.68974],[12.6257,55.68879],[12.62617,55.68823],[12.6259,55.6881],[12.62575,55.68809],[12.62522,55.68866],[12.62489,55.68858],[12.62478,55.68868],[12.62283,55.6881],[12.62292,55.68799],[12.62014,55.68717],[12.61977,55.6874],[12.61967,55.68719],[12.61812,55.68677],[12.61766,55.68711],[12.6168,55.68724],[12.61356,55.68712],[12.61351,55.68863],[12.61577,55.68857],[12.61927,55.68914],[12.61972,55.6884],[12.6202,55.68847],[12.6196,55.68977],[12.62326,55.69036],[12.62478,55.69009],[12.62478,55.69021],[12.62405,55.69043],[12.62495,55.69177],[12.6252,55.69197],[12.62522,55.69227],[12.62549,55.6923],[12.62548,55.69239],[12.62512,55.69238],[12.62523,55.69267],[12.6285,55.69397],[12.62837,55.69414],[12.62799,55.69415],[12.62746,55.69392],[12.6253,55.69432],[12.62514,55.69445],[12.62491,55.69748],[12.62903,55.69719],[12.6292,55.69709],[12.62997,55.6949],[12.62994,55.69475],[12.62928,55.69455],[12.6295,55.69432],[12.6305,55.69466],[12.6295,55.69734],[12.61967,55.69803],[12.61144,55.69761],[12.61119,55.69747],[12.60938,55.69721],[12.60996,55.69682],[12.61154,55.69658],[12.61158,55.69645],[12.61319,55.69615],[12.61267,55.69528],[12.61044,55.69571],[12.60864,55.69708],[12.60818,55.69727],[12.60774,55.69548],[12.61008,55.69499],[12.60952,55.69412],[12.60756,55.69447],[12.60708,55.69258],[12.6112,55.69184],[12.61131,55.69171],[12.61109,55.69163],[12.60705,55.69236],[12.60674,55.69104],[12.61039,55.69038],[12.61006,55.68987],[12.60668,55.6905],[12.6064,55.69004],[12.61023,55.68933],[12.61038,55.68957],[12.61088,55.68939],[12.61089,55.68917],[12.61052,55.68918],[12.61028,55.68899],[12.61021,55.68793],[12.60986,55.68795],[12.60973,55.68755],[12.6094,55.68758],[12.6093,55.68741],[12.60844,55.68737],[12.60835,55.6872],[12.60976,55.68403],[12.60918,55.68406],[12.60779,55.68754],[12.60817,55.68783],[12.60779,55.68924],[12.60729,55.68942],[12.60667,55.68935],[12.60556,55.68913],[12.60559,55.68894],[12.60586,55.68887],[12.6039,55.68877],[12.60389,55.68861],[12.60581,55.68857],[12.60579,55.68757],[12.60523,55.68739],[12.60517,55.68637],[12.60579,55.68636],[12.60577,55.6855],[12.60558,55.68545],[12.60519,55.685],[12.60535,55.68496],[12.60464,55.684],[12.60665,55.68376],[12.60655,55.68362],[12.60677,55.68354],[12.60708,55.68387],[12.60887,55.68393],[12.60978,55.6838],[12.60991,55.68127],[12.60969,55.68025],[12.60904,55.67882],[12.60768,55.677],[12.60398,55.6746],[12.60272,55.67451],[12.60181,55.67482],[12.60122,55.6764],[12.60146,55.67665],[12.6021,55.67487],[12.60382,55.67484],[12.60647,55.67666],[12.60722,55.67768],[12.60271,55.67885],[12.60298,55.679],[12.60574,55.67826],[12.60584,55.67838],[12.60657,55.67823],[12.60586,55.67841],[12.60596,55.67854],[12.60673,55.67834],[12.60715,55.67888],[12.60693,55.67895],[12.60737,55.67938],[12.60814,55.68149],[12.60793,55.68291],[12.60662,55.68327],[12.60672,55.68342],[12.60652,55.68349],[12.60584,55.68283],[12.60521,55.68301],[12.60562,55.68348],[12.60557,55.68357],[12.60421,55.68373],[12.60367,55.68309],[12.60337,55.68317],[12.6036,55.68344],[12.60377,55.6834],[12.6015,55.68425],[12.59959,55.68389],[12.59857,55.68296],[12.59799,55.68153],[12.59777,55.68048],[12.59847,55.68026],[12.59884,55.68043],[12.6008,55.67993],[12.60061,55.67998],[12.60097,55.68039],[12.60135,55.68029],[12.60074,55.67956],[12.60272,55.67904],[12.60246,55.67888],[12.60057,55.6793],[12.59945,55.67799],[12.59903,55.67824],[12.6,55.67948],[12.59782,55.68004],[12.59676,55.6789],[12.59787,55.67853],[12.59775,55.67842],[12.59798,55.67833],[12.60101,55.67732],[12.60114,55.67717],[12.60104,55.67661],[12.60087,55.6766],[12.60078,55.6769],[12.59903,55.67751],[12.59606,55.67552],[12.59267,55.67346],[12.5923,55.67355],[12.59394,55.67459],[12.59251,55.67562],[12.59278,55.67578],[12.59411,55.67481],[12.59424,55.67483],[12.59838,55.67769],[12.59841,55.67781],[12.59664,55.67838],[12.59573,55.67795],[12.59663,55.67737],[12.59606,55.67715],[12.59515,55.67772],[12.59198,55.67637],[12.59268,55.67585],[12.59241,55.67569],[12.59162,55.6763],[12.58945,55.67546],[12.59051,55.67485],[12.59011,55.6746],[12.58903,55.67523],[12.58742,55.67436],[12.58738,55.6742],[12.58609,55.67358],[12.5863,55.67347],[12.58621,55.67342],[12.58599,55.67353],[12.58557,55.67344],[12.58498,55.67315],[12.58522,55.67303],[12.58514,55.67299],[12.5849,55.67311],[12.58392,55.67256],[12.58754,55.67068],[12.59062,55.67256],[12.59092,55.67238],[12.58755,55.67034],[12.58353,55.67232],[12.57928,55.66963],[12.56834,55.66137],[12.56751,55.6603],[12.56838,55.66008],[12.56807,55.65967],[12.5672,55.65989],[12.56345,55.65504],[12.5637,55.65497],[12.56361,55.65484],[12.56226,55.65326],[12.56196,55.6531],[12.55484,55.64387],[12.55458,55.64366],[12.55426,55.64366],[12.55425,55.64225],[12.55257,55.64273],[12.55198,55.64222],[12.55416,55.64143],[12.55357,55.64116],[12.55152,55.64149],[12.55135,55.64117],[12.5524,55.64073],[12.55242,55.64058],[12.55203,55.64037],[12.55174,55.64002],[12.53488,55.63097],[12.51371,55.61424],[12.51338,55.61412],[12.51108,55.61411],[12.51119,55.61492],[12.51109,55.61501],[12.51046,55.61476],[12.50995,55.61473],[12.50831,55.61498],[12.50677,55.6149],[12.50646,55.61499],[12.50635,55.61517],[12.50556,55.61469],[12.5055,55.61444],[12.50494,55.61447],[12.50475,55.61415],[12.50555,55.61409],[12.50554,55.61371],[12.50606,55.61301],[12.50599,55.61331],[12.5068,55.61339],[12.50864,55.61315],[12.50895,55.61303],[12.509,55.61296],[12.50882,55.61287],[12.50892,55.61285]],[[12.60232,55.68299],[12.60105,55.68335],[12.60118,55.6835],[12.60241,55.68317],[12.60247,55.68307],[12.60232,55.68299]],[[12.60211,55.68213],[12.60038,55.6826],[12.60049,55.68272],[12.60222,55.68226],[12.60211,55.68213]],[[12.60136,55.68115],[12.59963,55.68162],[12.59969,55.68176],[12.60147,55.68128],[12.60136,55.68115]],[[12.60144,55.68037],[12.60104,55.68048],[12.60163,55.68125],[12.60328,55.68307],[12.60361,55.68298],[12.60144,55.68037]],[[12.5913,55.67261],[12.59096,55.67277],[12.59215,55.67346],[12.59241,55.6733],[12.5913,55.67261]],[[12.64,55.66393],[12.63995,55.664],[12.64042,55.66403],[12.64,55.66393]],[[12.64008,55.66372],[12.64001,55.66382],[12.64043,55.66391],[12.6405,55.66381],[12.64008,55.66372]],[[12.64023,55.66341],[12.64009,55.66361],[12.64056,55.66371],[12.6407,55.66352],[12.64023,55.66341]],[[12.63527,55.66117],[12.6354,55.66252],[12.63701,55.6627],[12.63718,55.66224],[12.63828,55.6609],[12.6398,55.65968],[12.64014,55.65894],[12.64021,55.65787],[12.63806,55.65759],[12.63527,55.66117]],[[12.5701,55.65919],[12.56849,55.6596],[12.56874,55.65992],[12.56905,55.65985],[12.57027,55.65932],[12.5701,55.65919]],[[12.64199,55.6513],[12.63967,55.65538],[12.63813,55.65751],[12.64024,55.6578],[12.64242,55.65753],[12.64558,55.65554],[12.64626,55.65497],[12.64625,55.65448],[12.64662,55.65441],[12.64665,55.65416],[12.64639,55.65363],[12.64592,55.65317],[12.6429,55.65138],[12.64276,55.65106],[12.64226,55.65104],[12.64199,55.6513]],[[12.64823,55.64785],[12.64649,55.64803],[12.64323,55.65012],[12.64226,55.65086],[12.64285,55.65089],[12.64322,55.65076],[12.64711,55.64831],[12.64835,55.64819],[12.64823,55.64785]]]},"properties":{"name":"Amager og Christianshavn"}},{"type":"Feature","geometry":{"type":"Polygon","coordinates":[[[12.49073,55.70127],[12.49127,55.70102],[12.4945,55.70088],[12.49612,55.69996],[12.49733,55.69955],[12.49799,55.69947],[12.49797,55.69993],[12.49952,55.7],[12.50138,55.69929],[12.50297,55.69816],[12.5028,55.69794],[12.50289,55.69788],[12.50312,55.69792],[12.50427,55.69749],[12.50485,55.69763],[12.50493,55.69771],[12.50461,55.69785],[12.50488,55.69794],[12.50559,55.69748],[12.50659,55.69727],[12.50648,55.69717],[12.50661,55.69699],[12.50753,55.6964],[12.50761,55.69622],[12.51005,55.69476],[12.51118,55.6952],[12.5159,55.6985],[12.51613,55.69847],[12.51702,55.69923],[12.51703,55.69937],[12.51747,55.69942],[12.51787,55.6997],[12.5181,55.69971],[12.51824,55.69998],[12.51874,55.70006],[12.51872,55.70021],[12.51961,55.70097],[12.52034,55.70116],[12.52049,55.70103],[12.52086,55.70106],[12.52159,55.70048],[12.52242,55.70071],[12.52275,55.70041],[12.52355,55.70073],[12.52389,55.70072],[12.52302,55.70035],[12.52307,55.70017],[12.52342,55.70002],[12.52503,55.70066],[12.5244,55.7012],[12.52451,55.70129],[12.52515,55.70145],[12.52557,55.70169],[12.52549,55.7018],[12.52564,55.70189],[12.52581,55.70178],[12.52594,55.70203],[12.52635,55.70172],[12.52705,55.70153],[12.52811,55.7024],[12.528,55.70251],[12.52848,55.70296],[12.52878,55.7032],[12.52911,55.70319],[12.5294,55.70338],[12.53318,55.70191],[12.53815,55.70092],[12.54012,55.70005],[12.54025,55.69977],[12.54085,55.69939],[12.54047,55.69907],[12.54159,55.69915],[12.54406,55.6975],[12.54423,55.69745],[12.54475,55.69776],[12.54453,55.69744],[12.54482,55.6972],[12.54516,55.69726],[12.5452,55.69716],[12.54504,55.69708],[12.54522,55.69699],[12.54583,55.69727],[12.54588,55.69733],[12.54569,55.69745],[12.5461,55.69767],[12.54529,55.69814],[12.54563,55.69855],[12.5469,55.69779],[12.54719,55.69807],[12.54765,55.69818],[12.5475,55.69833],[12.54762,55.69844],[12.54807,55.69859],[12.54777,55.6988],[12.54798,55.69899],[12.54878,55.69884],[12.54915,55.69891],[12.54949,55.69917],[12.54931,55.69923],[12.54941,55.69935],[12.54905,55.69955],[12.54925,55.69963],[12.54987,55.69948],[12.54982,55.69989],[12.55053,55.70038],[12.55087,55.70026],[12.5511,55.70038],[12.55135,55.70032],[12.5519,55.70063],[12.55155,55.70083],[12.552,55.70104],[12.55237,55.70081],[12.55281,55.70096],[12.55317,55.70127],[12.55348,55.7013],[12.5535,55.70156],[12.55375,55.70155],[12.55406,55.7018],[12.55383,55.70209],[12.55402,55.7024],[12.55387,55.70246],[12.55413,55.70257],[12.55443,55.703],[12.55434,55.70314],[12.55454,55.70316],[12.55448,55.70324],[12.55504,55.70326],[12.55595,55.70275],[12.55682,55.7031],[12.55671,55.70321],[12.55717,55.70338],[12.55719,55.70359],[12.55704,55.70369],[12.55764,55.7039],[12.55742,55.7046],[12.55803,55.70485],[12.55773,55.70533],[12.55783,55.70547],[12.5576,55.70568],[12.55768,55.70572],[12.55755,55.7062],[12.55734,55.70637],[12.55825,55.70649],[12.55826,55.70665],[12.55848,55.70666],[12.55831,55.70691],[12.5584,55.7071],[12.55824,55.7071],[12.5582,55.70735],[12.55879,55.70761],[12.55828,55.70775],[12.55822,55.70788],[12.55845,55.70807],[12.55837,55.70826],[12.55805,55.70822],[12.55794,55.70836],[12.55808,55.70853],[12.55878,55.70885],[12.56067,55.70908],[12.56092,55.70899],[12.56133,55.70815],[12.56163,55.70821],[12.56143,55.70862],[12.5617,55.70878],[12.56105,55.7099],[12.5613,55.71017],[12.56115,55.71042],[12.56154,55.71049],[12.56162,55.7107],[12.56131,55.71092],[12.56092,55.71087],[12.5608,55.71109],[12.5622,55.71143],[12.56217,55.7118],[12.56193,55.71199],[12.56191,55.71217],[12.56208,55.71221],[12.56178,55.71266],[12.56156,55.71276],[12.56186,55.71285],[12.56186,55.71297],[12.56206,55.71302],[12.56235,55.71339],[12.56219,55.71347],[12.56135,55.71334],[12.56129,55.71366],[12.56428,55.71469],[12.56503,55.71483],[12.56495,55.71515],[12.5652,55.71537],[12.56594,55.71559],[12.56588,55.71576],[12.56467,55.71563],[12.56447,55.7155],[12.56358,55.71582],[12.56263,55.71582],[12.56226,55.71632],[12.56146,55.71642],[12.56316,55.71697],[12.5648,55.71716],[12.56657,55.71718],[12.56675,55.71737],[12.56717,55.71741],[12.56725,55.71752],[12.56798,55.71762],[12.56816,55.71748],[12.5684,55.71761],[12.56889,55.7176],[12.56902,55.71776],[12.56992,55.71782],[12.57003,55.71796],[12.56958,55.71828],[12.56962,55.71838],[12.56997,55.71834],[12.57002,55.7186],[12.56931,55.71917],[12.57031,55.71945],[12.57041,55.71958],[12.57018,55.71999],[12.56978,55.72009],[12.56982,55.72025],[12.57007,55.72032],[12.56985,55.72061],[12.56984,55.72093],[12.56903,55.721],[12.56895,55.72152],[12.56873,55.72152],[12.56884,55.72168],[12.56867,55.72197],[12.56887,55.72205],[12.56903,55.72241],[12.5692,55.72252],[12.57069,55.72248],[12.57094,55.72225],[12.57238,55.71967],[12.57327,55.71862],[12.57413,55.71795],[12.57547,55.71734],[12.57547,55.71719],[12.57564,55.71708],[12.57703,55.71657],[12.57722,55.71648],[12.57721,55.71637],[12.57736,55.7164],[12.57732,55.7166],[12.57769,55.71678],[12.57867,55.71673],[12.57884,55.71684],[12.58169,55.71678],[12.58249,55.71672],[12.58338,55.71646],[12.58389,55.71751],[12.58355,55.71795],[12.58367,55.71928],[12.58435,55.72021],[12.58325,55.72115],[12.5842,55.72221],[12.58357,55.72213],[12.58313,55.72184],[12.58071,55.7221],[12.57771,55.72208],[12.57796,55.72283],[12.57787,55.72332],[12.5772,55.7253],[12.57599,55.72763],[12.57651,55.72893],[12.56818,55.73007],[12.56809,55.73034],[12.56784,55.73041],[12.56773,55.73084],[12.56765,55.73117],[12.56773,55.73179],[12.56716,55.73187],[12.56696,55.73249],[12.56571,55.7328],[12.56612,55.7313],[12.56361,55.73154],[12.56172,55.72543],[12.56138,55.72274],[12.55559,55.72296],[12.55442,55.72283],[12.55408,55.72359],[12.55372,55.72333],[12.55198,55.72341],[12.55035,55.72382],[12.54958,55.72368],[12.54934,55.72393],[12.5491,55.72383],[12.54743,55.72386],[12.54533,55.72415],[12.5443,55.72413],[12.54374,55.72392],[12.54358,55.72362],[12.54198,55.7237],[12.5414,55.72385],[12.54086,55.72418],[12.53985,55.72582],[12.53954,55.72608],[12.53569,55.72706],[12.53308,55.72698],[12.52937,55.72713],[12.52749,55.72684],[12.52624,55.72711],[12.52565,55.72684],[12.5253,55.72735],[12.5236,55.72755],[12.52361,55.7274],[12.52119,55.72777],[12.51961,55.72748],[12.51869,55.72695],[12.5174,55.72559],[12.5154,55.72286],[12.51461,55.72288],[12.51473,55.7222],[12.51462,55.72177],[12.51355,55.72041],[12.51353,55.72014],[12.51365,55.72004],[12.51355,55.71988],[12.51243,55.71982],[12.51131,55.72005],[12.50832,55.72024],[12.50606,55.71981],[12.50525,55.72005],[12.50435,55.71985],[12.50256,55.72053],[12.50104,55.72047],[12.49956,55.72077],[12.49932,55.72096],[12.49397,55.72296],[12.49231,55.72269],[12.49042,55.72376],[12.48884,55.72445],[12.48424,55.72477],[12.47764,55.72211],[12.47709,55.72119],[12.47711,55.72103],[12.47458,55.72],[12.47342,55.71931],[12.4746,55.71802],[12.47617,55.71851],[12.48736,55.71533],[12.48581,55.71319],[12.48543,55.71234],[12.48519,55.71071],[12.48543,55.70922],[12.48572,55.70856],[12.48516,55.70797],[12.48985,55.70615],[12.49236,55.70553],[12.49075,55.70423],[12.49053,55.70386],[12.48983,55.70182],[12.49073,55.70127]]]},"properties":{"name":"Bispebjerg, Ryparken og Dyssegård"}},{"type":"Feature","geometry":{"type":"Polygon","coordinates":[[[12.54116,55.66076],[12.54097,55.66043],[12.54113,55.66043],[12.54205,55.66127],[12.54302,55.66179],[12.54436,55.66218],[12.5456,55.66235],[12.54684,55.6624],[12.54777,55.66226],[12.55013,55.66249],[12.55008,55.6624],[12.55052,55.66219],[12.55181,55.66225],[12.5554,55.66204],[12.55763,55.66223],[12.55778,55.66203],[12.55971,55.66277],[12.55911,55.66243],[12.5593,55.66229],[12.56114,55.66313],[12.56198,55.66321],[12.56193,55.66333],[12.56241,55.66342],[12.56295,55.66368],[12.56289,55.66375],[12.56313,55.66375],[12.56473,55.66443],[12.56477,55.6646],[12.56532,55.66484],[12.56536,55.66457],[12.56575,55.66476],[12.56596,55.66461],[12.56667,55.66467],[12.56672,55.66493],[12.56824,55.6656],[12.56837,55.66552],[12.56867,55.66566],[12.56857,55.66576],[12.5704,55.6666],[12.57028,55.6667],[12.57042,55.66676],[12.57099,55.66669],[12.57126,55.66682],[12.57114,55.66692],[12.5735,55.66811],[12.57318,55.66831],[12.57242,55.66813],[12.57229,55.6682],[12.57248,55.66842],[12.57199,55.66829],[12.57185,55.66851],[12.5721,55.6686],[12.57169,55.66883],[12.57184,55.66906],[12.5717,55.66919],[12.57177,55.66926],[12.57104,55.66961],[12.57126,55.66974],[12.57134,55.66996],[12.57097,55.67008],[12.57074,55.67026],[12.57072,55.67043],[12.57034,55.67065],[12.57006,55.67061],[12.56958,55.67085],[12.56941,55.67076],[12.56949,55.67066],[12.56888,55.67074],[12.56818,55.67136],[12.56776,55.67157],[12.56716,55.67135],[12.5672,55.67163],[12.56572,55.67314],[12.56503,55.67321],[12.56468,55.6731],[12.56446,55.67329],[12.56389,55.67315],[12.56467,55.67352],[12.5636,55.67428],[12.56334,55.67419],[12.56282,55.67457],[12.56344,55.67471],[12.56299,55.67531],[12.56277,55.67525],[12.56257,55.67557],[12.5622,55.67572],[12.56239,55.67684],[12.56262,55.67728],[12.56344,55.67819],[12.56414,55.67865],[12.56485,55.67863],[12.56585,55.67902],[12.56587,55.67921],[12.56697,55.67985],[12.57006,55.68227],[12.57061,55.68249],[12.57163,55.68323],[12.57162,55.68342],[12.57184,55.6836],[12.57183,55.68375],[12.57235,55.68417],[12.57211,55.68434],[12.5716,55.68428],[12.57144,55.6844],[12.57112,55.68418],[12.57064,55.68424],[12.57147,55.68493],[12.57057,55.68523],[12.57016,55.68516],[12.57004,55.68524],[12.57027,55.68542],[12.56917,55.68569],[12.56915,55.6859],[12.56931,55.68604],[12.56882,55.68602],[12.5689,55.68615],[12.56878,55.6862],[12.56874,55.68643],[12.5689,55.6865],[12.56858,55.68659],[12.56825,55.68627],[12.56688,55.68707],[12.56667,55.68705],[12.56659,55.68698],[12.56671,55.68683],[12.56707,55.68666],[12.56645,55.68646],[12.56588,55.68666],[12.56524,55.6862],[12.56489,55.68645],[12.56486,55.68662],[12.56313,55.68724],[12.56293,55.68709],[12.56271,55.68713],[12.56259,55.68746],[12.5616,55.6877],[12.56161,55.68782],[12.56139,55.68789],[12.56221,55.68852],[12.56188,55.6887],[12.56204,55.68886],[12.56186,55.689],[12.56192,55.68912],[12.56116,55.68935],[12.56123,55.68948],[12.56092,55.68952],[12.56086,55.68939],[12.56068,55.6894],[12.56054,55.68958],[12.56011,55.68956],[12.56069,55.69032],[12.56102,55.69104],[12.56029,55.69124],[12.55941,55.69188],[12.55827,55.69233],[12.56112,55.69422],[12.56143,55.69609],[12.56112,55.69604],[12.56088,55.69619],[12.561,55.69639],[12.5603,55.69661],[12.55831,55.69703],[12.55786,55.69685],[12.55774,55.69696],[12.55786,55.69702],[12.55757,55.69708],[12.55762,55.69728],[12.55682,55.69732],[12.55675,55.69715],[12.55607,55.69704],[12.55564,55.69721],[12.55546,55.69753],[12.55539,55.6984],[12.55436,55.69883],[12.55185,55.70057],[12.55135,55.70032],[12.5511,55.70038],[12.55087,55.70026],[12.55053,55.70038],[12.54982,55.69989],[12.54987,55.69948],[12.54925,55.69963],[12.54905,55.69955],[12.54941,55.69935],[12.54931,55.69923],[12.54949,55.69917],[12.54915,55.69891],[12.54878,55.69884],[12.54798,55.69899],[12.54777,55.6988],[12.54807,55.69859],[12.54762,55.69844],[12.5475,55.69833],[12.54765,55.69818],[12.54719,55.69807],[12.5469,55.69778],[12.54563,55.69855],[12.54531,55.69812],[12.54611,55.69766],[12.54569,55.69745],[12.54588,55.69733],[12.54583,55.69727],[12.54522,55.69699],[12.54504,55.69708],[12.5452,55.69716],[12.54516,55.69726],[12.54482,55.6972],[12.54453,55.69744],[12.54475,55.69776],[12.54423,55.69745],[12.54406,55.6975],[12.54159,55.69915],[12.54047,55.69907],[12.54085,55.69939],[12.54025,55.69977],[12.54012,55.70005],[12.53815,55.70092],[12.53318,55.70191],[12.52932,55.70339],[12.52911,55.70319],[12.52878,55.7032],[12.52848,55.70296],[12.528,55.70251],[12.52811,55.7024],[12.52705,55.70153],[12.52635,55.70172],[12.52594,55.70203],[12.52581,55.70178],[12.52564,55.70189],[12.52549,55.7018],[12.52557,55.70169],[12.52515,55.70145],[12.52451,55.70129],[12.5244,55.7012],[12.52503,55.70066],[12.52342,55.70002],[12.52307,55.70017],[12.52302,55.70035],[12.52389,55.70072],[12.52355,55.70073],[12.52275,55.70041],[12.52242,55.70071],[12.52159,55.70048],[12.52086,55.70106],[12.52049,55.70103],[12.52034,55.70116],[12.51961,55.70097],[12.51872,55.70021],[12.51874,55.70006],[12.51824,55.69998],[12.5181,55.69971],[12.51787,55.6997],[12.51747,55.69942],[12.51703,55.69937],[12.51702,55.69923],[12.51613,55.69847],[12.5159,55.6985],[12.51139,55.69541],[12.51166,55.6953],[12.51262,55.69547],[12.51314,55.69536],[12.51341,55.69492],[12.51363,55.69494],[12.51361,55.69466],[12.51441,55.69438],[12.51418,55.69428],[12.51445,55.69407],[12.51437,55.69388],[12.51507,55.69384],[12.51542,55.6936],[12.51602,55.69352],[12.51582,55.6934],[12.51586,55.69319],[12.51635,55.69331],[12.51814,55.69287],[12.51837,55.69265],[12.51821,55.6926],[12.5183,55.69235],[12.51869,55.69258],[12.51944,55.69366],[12.51988,55.69389],[12.52083,55.69356],[12.52073,55.69345],[12.52102,55.69332],[12.52378,55.6946],[12.52428,55.69433],[12.52487,55.69454],[12.52511,55.69441],[12.52512,55.69431],[12.52484,55.69429],[12.52493,55.69412],[12.52534,55.69426],[12.52554,55.69414],[12.52555,55.69395],[12.5251,55.69385],[12.52524,55.69369],[12.52554,55.69366],[12.52547,55.69342],[12.52575,55.69331],[12.52518,55.69322],[12.52545,55.69305],[12.52548,55.69287],[12.52536,55.69266],[12.52501,55.69255],[12.5249,55.6923],[12.52578,55.69199],[12.52579,55.69183],[12.52551,55.69172],[12.52554,55.69162],[12.52579,55.69174],[12.52597,55.69167],[12.52598,55.69157],[12.52563,55.69138],[12.52604,55.69125],[12.5261,55.69118],[12.5259,55.69104],[12.52621,55.69082],[12.52577,55.69044],[12.52599,55.69034],[12.52586,55.69031],[12.52592,55.69024],[12.52667,55.69],[12.52654,55.68984],[12.5269,55.68973],[12.52669,55.68961],[12.52673,55.68947],[12.52595,55.68862],[12.52601,55.68844],[12.52536,55.68811],[12.52471,55.68819],[12.52469,55.688],[12.5242,55.68759],[12.52398,55.6877],[12.52344,55.68752],[12.52297,55.68752],[12.52279,55.68726],[12.52318,55.68708],[12.52305,55.68684],[12.5229,55.68679],[12.52289,55.68699],[12.52275,55.68703],[12.52232,55.68695],[12.52176,55.68619],[12.52187,55.68613],[12.52183,55.68588],[12.5213,55.68599],[12.52121,55.68571],[12.52134,55.68541],[12.5215,55.68535],[12.52138,55.68518],[12.52205,55.68508],[12.52199,55.68495],[12.52225,55.68489],[12.52216,55.68443],[12.52195,55.68446],[12.52201,55.68455],[12.52188,55.68471],[12.52169,55.68469],[12.52161,55.68454],[12.52018,55.68465],[12.52009,55.68448],[12.52085,55.68415],[12.52057,55.68414],[12.52074,55.68402],[12.52066,55.68396],[12.52009,55.68411],[12.51967,55.68383],[12.51959,55.68336],[12.51978,55.68342],[12.5203,55.68323],[12.52086,55.68328],[12.52103,55.68298],[12.5212,55.68296],[12.52098,55.68271],[12.52144,55.68257],[12.52158,55.68236],[12.52135,55.68231],[12.52026,55.68258],[12.5201,55.68241],[12.51976,55.68244],[12.51983,55.68266],[12.51974,55.68272],[12.51958,55.6826],[12.51937,55.6828],[12.51887,55.68292],[12.51864,55.68277],[12.51826,55.68285],[12.51797,55.68257],[12.52009,55.68212],[12.52034,55.68203],[12.52028,55.68174],[12.52087,55.68156],[12.52215,55.68142],[12.52258,55.6816],[12.52282,55.68148],[12.52347,55.68158],[12.5236,55.68175],[12.524,55.68172],[12.52392,55.68196],[12.524,55.68206],[12.52422,55.68202],[12.52439,55.68165],[12.52478,55.68155],[12.52451,55.68098],[12.52517,55.681],[12.525,55.68073],[12.52517,55.68053],[12.52497,55.68051],[12.52501,55.68031],[12.52487,55.68016],[12.52417,55.68014],[12.52411,55.67971],[12.52356,55.67975],[12.52328,55.6795],[12.52187,55.6793],[12.52126,55.67904],[12.52133,55.67868],[12.52212,55.6786],[12.52198,55.67829],[12.52151,55.67821],[12.52144,55.67798],[12.52087,55.67779],[12.52084,55.67751],[12.52121,55.67748],[12.52143,55.67733],[12.52128,55.67711],[12.52062,55.67707],[12.52044,55.67665],[12.52055,55.67661],[12.52043,55.67646],[12.52057,55.67644],[12.52058,55.67627],[12.52022,55.67606],[12.52022,55.67561],[12.51983,55.67526],[12.51999,55.67512],[12.52035,55.67522],[12.52073,55.67503],[12.52074,55.67433],[12.5201,55.67408],[12.52061,55.67407],[12.52083,55.67389],[12.52077,55.67367],[12.52105,55.67359],[12.52122,55.67329],[12.52177,55.67321],[12.52169,55.67299],[12.52229,55.67272],[12.52256,55.67277],[12.52261,55.67243],[12.52311,55.6725],[12.52289,55.67223],[12.52332,55.67196],[12.52344,55.67169],[12.52404,55.67172],[12.52433,55.6715],[12.52506,55.67135],[12.52496,55.67117],[12.5244,55.67111],[12.52434,55.67081],[12.52573,55.67057],[12.52576,55.67039],[12.52634,55.67032],[12.52641,55.66997],[12.52599,55.66963],[12.52602,55.66942],[12.52646,55.66911],[12.52609,55.66907],[12.52609,55.66878],[12.52678,55.66853],[12.52705,55.66859],[12.5271,55.66845],[12.52748,55.66837],[12.52757,55.66823],[12.52669,55.66808],[12.52695,55.66797],[12.52698,55.66748],[12.52721,55.66729],[12.52715,55.66711],[12.52742,55.66697],[12.52734,55.66686],[12.52688,55.66679],[12.52695,55.66664],[12.52722,55.66657],[12.52718,55.66639],[12.52736,55.66635],[12.52753,55.66608],[12.52765,55.6657],[12.52752,55.6655],[12.52784,55.66521],[12.52763,55.665],[12.52787,55.6646],[12.52814,55.66443],[12.52831,55.66399],[12.53136,55.66385],[12.53268,55.66392],[12.53339,55.66378],[12.53699,55.66379],[12.53759,55.66361],[12.53741,55.66317],[12.53768,55.66298],[12.53825,55.66292],[12.53873,55.66268],[12.54183,55.66257],[12.54134,55.66146],[12.54144,55.66127],[12.54121,55.66108],[12.54136,55.66104],[12.54165,55.66129],[12.54116,55.66076]]]},"properties":{"name":"Ladegårdsåen, Frederiksberg Øst og Vesterbro"}}]}