{"type":"FeatureCollection","features":[{"type":"Feature","geometry":{"type":"MultiPolygon","coordinates":[[[[12.55755,55.6921],[12.55765,55.69205],[12.55781,55.69215],[12.55771,55.6922],[12.55755,55.6921]]]]},"properties":{"roof":"Primært Grønt tag","material":"Levende tage","year":2017}},{"type":"Feature","geometry":{"type":"MultiPolygon","coordinates":[[[[12.55758,55.6921],[12.55763,55.69214],[12.5576,55.69215],[12.55755,55.69211],[12.55758,55.6921]]]]},"properties":{"roof":"Primært Grønt tag","material":"Levende tage","year":2017}},{"type":"Feature","geometry":{"type":"MultiPolygon","coordinates":[[[[12.55755,55.6921],[12.55765,55.69205],[12.55781,55.69215],[12.55771,55.6922],[12.55755,55.6921]]]]},"properties":{"roof":"Primært Grønt tag","material":"Levende tage","year":2017}},{"type":"Feature","geometry":{"type":"MultiPolygon","coordinates":[[[[12.57699,55.67999],[12.57711,55.68007],[12.57718,55.68004],[12.57722,55.68006],[12.57752,55.67992],[12.57719,55.67969],[12.5766,55.67997],[12.5766,55.68],[12.57686,55.68019],[12.57703,55.68011],[12.57687,55.68],[12.57695,55.67996],[12.57699,55.67999]]]]},"properties":{"roof":"Supplerende Grønt tag","material":"Fibercement herunder asbest","year":1868}},{"type":"Feature","geometry":{"type":"MultiPolygon","coordinates":[[[[12.55375,55.68584],[12.55378,55.68586],[12.5537,55.6859],[12.55367,55.68587],[12.55375,55.68584]]]]},"properties":{"roof":"Primært Grønt tag","material":"Levende tage","year":2008}},{"type":"Feature","geometry":{"type":"MultiPolygon","coordinates":[[[[12.55375,55.68584],[12.55378,55.68586],[12.5537,55.6859],[12.55367,55.68587],[12.55375,55.68584]]]]},"properties":{"roof":"Primært Grønt tag","material":"Levende tage","year":2008}},{"type":"Feature","geometry":{"type":"MultiPolygon","coordinates":[[[[12.55375,55.68584],[12.55378,55.68586],[12.5537,55.6859],[12.55367,55.68587],[12.55375,55.68584]]]]},"properties":{"roof":"Primært Grønt tag","material":"Levende tage","year":2008}},{"type":"Feature","geometry":{"type":"MultiPolygon","coordinates":[[[[12.5798,55.68012],[12.5799,55.68016],[12.57986,55.6802],[12.57975,55.68017],[12.5798,55.68012]]]]},"properties":{"roof":"Primært Grønt tag","material":"Levende tage","year":2020}},{"type":"Feature","geometry":{"type":"MultiPolygon","coordinates":[[[[12.57974,55.68011],[12.5798,55.68012],[12.57975,55.68017],[12.5797,55.68015],[12.57974,55.68011]]]]},"properties":{"roof":"Primært Grønt tag","material":"Levende tage","year":2020}},{"type":"Feature","geometry":{"type":"MultiPolygon","coordinates":[[[[12.58201,55.68714],[12.58189,55.68731],[12.58197,55.68733],[12.58209,55.68716],[12.58201,55.68714]]]]},"properties":{"roof":"Primært Grønt tag","material":"Levende tage","year":2023}},{"type":"Feature","geometry":{"type":"MultiPolygon","coordinates":[[[[12.5723,55.66862],[12.57219,55.6687],[12.57233,55.66877],[12.572,55.669],[12.57186,55.66893],[12.57153,55.66917],[12.572,55.66938],[12.57232,55.66915],[12.57219,55.66908],[12.57251,55.66885],[12.57265,55.66891],[12.57276,55.66884],[12.57262,55.66877],[12.57265,55.66875],[12.57257,55.66871],[12.57247,55.66867],[12.57244,55.66869],[12.5723,55.66862]],[[12.57196,55.66904],[12.57213,55.66911],[12.5719,55.66927],[12.57173,55.6692],[12.57196,55.66904]]]]},"properties":{"roof":"Supplerende Grønt tag","material":"Tagpap med stor hældning","year":1956}},{"type":"Feature","geometry":{"type":"MultiPolygon","coordinates":[[[[12.559,55.68812],[12.55904,55.68811],[12.55887,55.68796],[12.55883,55.68798],[12.559,55.68812]]]]},"properties":{"roof":"Supplerende Grønt tag","material":"Tagpap med stor hældning","year":2021}},{"type":"Feature","geometry":{"type":"MultiPolygon","coordinates":[[[[12.55842,55.67007],[12.55851,55.6701],[12.55849,55.67013],[12.5584,55.6701],[12.55842,55.67007]]]]},"properties":{"roof":"Primært Grønt tag","material":"Levende tage","year":2000}},{"type":"Feature","geometry":{"type":"MultiPolygon","coordinates":[[[[12.55384,55.68595],[12.55388,55.68599],[12.55395,55.68596],[12.554,55.68599],[12.55387,55.68605],[12.55378,55.68598],[12.55384,55.68595]]]]},"properties":{"roof":"Supplerende Grønt tag","material":"Tagpap med stor hældning","year":2005}},{"type":"Feature","geometry":{"type":"MultiPolygon","coordinates":[[[[12.55384,55.68595],[12.55388,55.68599],[12.55395,55.68596],[12.554,55.68599],[12.55387,55.68605],[12.55378,55.68598],[12.55384,55.68595]]]]},"properties":{"roof":"Supplerende Grønt tag","material":"Tagpap med stor hældning","year":2005}},{"type":"Feature","geometry":{"type":"MultiPolygon","coordinates":[[[[12.56331,55.67044],[12.56345,55.67032],[12.5634,55.6703],[12.56326,55.67042],[12.56331,55.67044]]]]},"properties":{"roof":"Primært Grønt tag","material":"Levende tage","year":1960}},{"type":"Feature","geometry":{"type":"MultiPolygon","coordinates":[[[[12.56851,55.68413],[12.56843,55.68408],[12.5684,55.68409],[12.56847,55.68415],[12.56851,55.68413]]]]},"properties":{"roof":"Primært Grønt tag","material":"Levende tage","year":2016}},{"type":"Feature","geometry":{"type":"MultiPolygon","coordinates":[[[[12.56851,55.68413],[12.56847,55.68415],[12.5684,55.68409],[12.56843,55.68408],[12.56851,55.68413]]]]},"properties":{"roof":"Primært Grønt tag","material":"Levende tage","year":2016}},{"type":"Feature","geometry":{"type":"MultiPolygon","coordinates":[[[[12.56851,55.68413],[12.56843,55.68408],[12.5684,55.68409],[12.56847,55.68415],[12.56851,55.68413]]]]},"properties":{"roof":"Primært Grønt tag","material":"Levende tage","year":2016}},{"type":"Feature","geometry":{"type":"MultiPolygon","coordinates":[[[[12.56149,55.68929],[12.56157,55.68927],[12.56163,55.68934],[12.56155,55.68936],[12.56149,55.68929]]]]},"properties":{"roof":"Primært Grønt tag","material":"Levende tage","year":2021}},{"type":"Feature","geometry":{"type":"MultiPolygon","coordinates":[[[[12.5732,55.68415],[12.57316,55.68414],[12.57311,55.684],[12.57316,55.68395],[12.57336,55.68408],[12.57335,55.6841],[12.5732,55.68415]]]]},"properties":{"roof":"Andet tagkonstuktion","material":"Andet materiale","year":2016}},{"type":"Feature","geometry":{"type":"MultiPolygon","coordinates":[[[[12.57092,55.68289],[12.571,55.68289],[12.57113,55.68284],[12.57114,55.68282],[12.57114,55.68279],[12.57099,55.68269],[12.57093,55.68269],[12.57091,55.6827],[12.57086,55.68285],[12.57092,55.68289]]]]},"properties":{"roof":"Andet tagkonstuktion","material":"Andet materiale","year":2016}},{"type":"Feature","geometry":{"type":"MultiPolygon","coordinates":[[[[12.55659,55.69577],[12.55658,55.69581],[12.55647,55.6958],[12.55648,55.69573],[12.55656,55.69576],[12.55659,55.69577]]]]},"properties":{"roof":"Primært Grønt tag","material":"Levende tage","year":2019}},{"type":"Feature","geometry":{"type":"MultiPolygon","coordinates":[[[[12.55649,55.69575],[12.55661,55.69578],[12.55657,55.69583],[12.55646,55.69581],[12.55649,55.69575]]]]},"properties":{"roof":"Primært Grønt tag","material":"Levende tage","year":2019}},{"type":"Feature","geometry":{"type":"MultiPolygon","coordinates":[[[[12.55659,55.69577],[12.55658,55.69581],[12.55647,55.6958],[12.55648,55.69573],[12.55656,55.69576],[12.55659,55.69577]]]]},"properties":{"roof":"Primært Grønt tag","material":"Levende tage","year":2019}},{"type":"Feature","geometry":{"type":"MultiPolygon","coordinates":[[[[12.56044,55.68537],[12.56059,55.68552],[12.56035,55.6856],[12.5603,55.68555],[12.56033,55.68554],[12.56036,55.68555],[12.56042,55.68552],[12.56034,55.68545],[12.56025,55.68548],[12.56021,55.68548],[12.56019,55.68546],[12.56044,55.68537]]]]},"properties":{"roof":"Supplerende Grønt tag","material":"Fibercement herunder asbest","year":1903}},{"type":"Feature","geometry":{"type":"MultiPolygon","coordinates":[[[[12.56035,55.68542],[12.56034,55.68541],[12.56019,55.68546],[12.5602,55.68548],[12.56035,55.68542]]]]},"properties":{"roof":"Supplerende Grønt tag","material":"Fibercement herunder asbest","year":1903}},{"type":"Feature","geometry":{"type":"MultiPolygon","coordinates":[[[[12.56043,55.68537],[12.5604,55.68538],[12.56055,55.68553],[12.56058,55.68553],[12.56043,55.68537]]]]},"properties":{"roof":"Supplerende Grønt tag","material":"Fibercement herunder asbest","year":1903}},{"type":"Feature","geometry":{"type":"MultiPolygon","coordinates":[[[[12.56049,55.68555],[12.56047,55.68554],[12.56037,55.68557],[12.56035,55.68556],[12.56032,55.68557],[12.56035,55.6856],[12.56049,55.68555]]]]},"properties":{"roof":"Supplerende Grønt tag","material":"Fibercement herunder asbest","year":1903}},{"type":"Feature","geometry":{"type":"MultiPolygon","coordinates":[[[[12.574,55.68458],[12.57406,55.6846],[12.57409,55.68472],[12.57408,55.68473],[12.57397,55.68473],[12.57385,55.68464],[12.57386,55.68461],[12.574,55.68458]]]]},"properties":{"roof":"Andet tagkonstuktion","material":"Andet materiale","year":2016}},{"type":"Feature","geometry":{"type":"MultiPolygon","coordinates":[[[[12.57074,55.67098],[12.57058,55.67087],[12.57056,55.67088],[12.57073,55.67099],[12.57074,55.67098]]]]},"properties":{"roof":"Primært Grønt tag","material":"Levende tage","year":2023}},{"type":"Feature","geometry":{"type":"MultiPolygon","coordinates":[[[[12.56047,55.67233],[12.56063,55.67235],[12.56059,55.67244],[12.56043,55.67242],[12.56047,55.67233]]]]},"properties":{"roof":"Andet tagkonstuktion","material":"Tagpap med lille hældning","year":1972}},{"type":"Feature","geometry":{"type":"MultiPolygon","coordinates":[[[[12.56916,55.67139],[12.56922,55.67133],[12.56919,55.67132],[12.56913,55.67138],[12.56916,55.67139]]]]},"properties":{"roof":"Primært Grønt tag","material":"Levende tage","year":2014}},{"type":"Feature","geometry":{"type":"MultiPolygon","coordinates":[[[[12.56923,55.67132],[12.56917,55.67138],[12.56914,55.67137],[12.56921,55.67131],[12.56923,55.67132]]]]},"properties":{"roof":"Primært Grønt tag","material":"Levende tage","year":2014}},{"type":"Feature","geometry":{"type":"MultiPolygon","coordinates":[[[[12.56153,55.67917],[12.5615,55.67908],[12.56138,55.67909],[12.5614,55.67919],[12.56153,55.67917]]]]},"properties":{"roof":"Primært Grønt tag","material":"Levende tage","year":2019}},{"type":"Feature","geometry":{"type":"MultiPolygon","coordinates":[[[[12.55794,55.68996],[12.55797,55.68998],[12.55796,55.69],[12.55793,55.69001],[12.55789,55.68999],[12.5579,55.68997],[12.55794,55.68996]]]]},"properties":{"roof":"Primært Grønt tag","material":"Levende tage","year":2010}},{"type":"Feature","geometry":{"type":"MultiPolygon","coordinates":[[[[12.55166,55.69302],[12.55171,55.69304],[12.55166,55.69308],[12.55161,55.69306],[12.55166,55.69302]]]]},"properties":{"roof":"Primært Grønt tag","material":"Levende tage","year":2015}},{"type":"Feature","geometry":{"type":"MultiPolygon","coordinates":[[[[12.56845,55.68416],[12.56838,55.6841],[12.56834,55.68411],[12.56842,55.68417],[12.56845,55.68416]]]]},"properties":{"roof":"Primært Grønt tag","material":"Levende tage","year":2016}},{"type":"Feature","geometry":{"type":"MultiPolygon","coordinates":[[[[12.56845,55.68416],[12.56842,55.68417],[12.56834,55.68411],[12.56838,55.6841],[12.56845,55.68416]]]]},"properties":{"roof":"Primært Grønt tag","material":"Levende tage","year":2016}},{"type":"Feature","geometry":{"type":"MultiPolygon","coordinates":[[[[12.56845,55.68416],[12.56838,55.6841],[12.56834,55.68411],[12.56842,55.68417],[12.56845,55.68416]]]]},"properties":{"roof":"Primært Grønt tag","material":"Levende tage","year":2016}},{"type":"Feature","geometry":{"type":"MultiPolygon","coordinates":[[[[12.55696,55.69581],[12.557,55.69578],[12.55721,55.69586],[12.55717,55.6959],[12.55696,55.69581]]]]},"properties":{"roof":"Primært Grønt tag","material":"Levende tage","year":2019}},{"type":"Feature","geometry":{"type":"MultiPolygon","coordinates":[[[[12.55696,55.69581],[12.557,55.69578],[12.55721,55.69586],[12.55717,55.6959],[12.55696,55.69581]]]]},"properties":{"roof":"Primært Grønt tag","material":"Levende tage","year":2019}},{"type":"Feature","geometry":{"type":"MultiPolygon","coordinates":[[[[12.5816,55.68198],[12.58172,55.6821],[12.5824,55.68188],[12.58231,55.68178],[12.58224,55.68178],[12.5816,55.68198]]]]},"properties":{"roof":"Supplerende Grønt tag","material":"Tagpap med stor hældning","year":2019}},{"type":"Feature","geometry":{"type":"MultiPolygon","coordinates":[[[[12.55532,55.68514],[12.55549,55.68514],[12.5556,55.68517],[12.55568,55.68523],[12.55571,55.68523],[12.55575,55.68525],[12.55566,55.6853],[12.55573,55.68537],[12.55581,55.68534],[12.55594,55.68541],[12.55597,55.68546],[12.55587,55.68549],[12.5559,55.68555],[12.55596,55.68554],[12.55593,55.68565],[12.55587,55.68564],[12.55585,55.68568],[12.55557,55.68579],[12.55547,55.68579],[12.55532,55.68567],[12.55541,55.6856],[12.55527,55.68548],[12.55524,55.68549],[12.5552,55.68545],[12.55513,55.68542],[12.55511,55.68538],[12.5552,55.68528],[12.55514,55.6852],[12.55532,55.68514]]]]},"properties":{"roof":"Primært Grønt tag","material":"Levende tage","year":2006}},{"type":"Feature","geometry":{"type":"MultiPolygon","coordinates":[[[[12.55532,55.68514],[12.55549,55.68514],[12.5556,55.68517],[12.55568,55.68523],[12.55571,55.68523],[12.55575,55.68525],[12.55566,55.6853],[12.55573,55.68537],[12.55581,55.68534],[12.55594,55.68541],[12.55597,55.68546],[12.55587,55.68549],[12.5559,55.68555],[12.55596,55.68554],[12.55593,55.68565],[12.55587,55.68564],[12.55585,55.68568],[12.55557,55.68579],[12.55547,55.68579],[12.55532,55.68567],[12.55541,55.6856],[12.55527,55.68548],[12.55524,55.68549],[12.5552,55.68545],[12.55513,55.68542],[12.55511,55.68538],[12.5552,55.68528],[12.55514,55.6852],[12.55532,55.68514]]]]},"properties":{"roof":"Primært Grønt tag","material":"Levende tage","year":2006}},{"type":"Feature","geometry":{"type":"MultiPolygon","coordinates":[[[[12.55532,55.68514],[12.55549,55.68514],[12.5556,55.68517],[12.55568,55.68523],[12.55571,55.68523],[12.55575,55.68525],[12.55566,55.6853],[12.55573,55.68537],[12.55581,55.68534],[12.55594,55.68541],[12.55597,55.68546],[12.55587,55.68549],[12.5559,55.68555],[12.55596,55.68554],[12.55593,55.68565],[12.55587,55.68564],[12.55585,55.68568],[12.55557,55.68579],[12.55547,55.68579],[12.55532,55.68567],[12.55541,55.6856],[12.55527,55.68548],[12.55524,55.68549],[12.5552,55.68545],[12.55513,55.68542],[12.55511,55.68538],[12.5552,55.68528],[12.55514,55.6852],[12.55532,55.68514]]]]},"properties":{"roof":"Primært Grønt tag","material":"Levende tage","year":2006}},{"type":"Feature","geometry":{"type":"MultiPolygon","coordinates":[[[[12.56094,55.69371],[12.56095,55.69372],[12.56103,55.69372],[12.56103,55.69373],[12.56094,55.69373],[12.56094,55.69371]]]]},"properties":{"roof":"Supplerende Grønt tag","material":"Andet materiale","year":2011}},{"type":"Feature","geometry":{"type":"MultiPolygon","coordinates":[[[[12.56095,55.6937],[12.56103,55.6937],[12.56103,55.69372],[12.56095,55.69372],[12.56095,55.6937]]]]},"properties":{"roof":"Supplerende Grønt tag","material":"Andet materiale","year":2011}},{"type":"Feature","geometry":{"type":"MultiPolygon","coordinates":[[[[12.56104,55.69378],[12.56095,55.69378],[12.56095,55.69375],[12.56103,55.69375],[12.56104,55.69378]]]]},"properties":{"roof":"Supplerende Grønt tag","material":"Andet materiale","year":2011}},{"type":"Feature","geometry":{"type":"MultiPolygon","coordinates":[[[[12.56094,55.69373],[12.56094,55.69371],[12.56103,55.6937],[12.56103,55.69373],[12.56094,55.69373]]]]},"properties":{"roof":"Supplerende Grønt tag","material":"Andet materiale","year":2011}},{"type":"Feature","geometry":{"type":"MultiPolygon","coordinates":[[[[12.56329,55.69295],[12.56422,55.69345],[12.5639,55.69364],[12.56372,55.69353],[12.56324,55.69347],[12.56266,55.69381],[12.56261,55.6938],[12.56246,55.69372],[12.56247,55.69368],[12.56279,55.69341],[12.5624,55.69335],[12.56235,55.69334],[12.56231,55.69314],[12.56235,55.69311],[12.56274,55.69305],[12.56266,55.6927],[12.56271,55.69268],[12.56289,55.69268],[12.56298,55.69278],[12.56324,55.6925],[12.56328,55.69248],[12.5634,55.69252],[12.56342,55.69253],[12.56342,55.69256],[12.56329,55.69295]]]]},"properties":{"roof":"Supplerende Grønt tag","material":"Tagpap med stor hældning","year":2016}},{"type":"Feature","geometry":{"type":"MultiPolygon","coordinates":[[[[12.56329,55.69295],[12.56422,55.69345],[12.5639,55.69364],[12.56372,55.69353],[12.56324,55.69347],[12.56266,55.69381],[12.56261,55.6938],[12.56246,55.69372],[12.56247,55.69368],[12.56279,55.69341],[12.5624,55.69335],[12.56235,55.69334],[12.56231,55.69314],[12.56235,55.69311],[12.56274,55.69305],[12.56266,55.6927],[12.56271,55.69268],[12.56289,55.69268],[12.56298,55.69278],[12.56324,55.6925],[12.56328,55.69248],[12.5634,55.69252],[12.56342,55.69253],[12.56342,55.69256],[12.56329,55.69295]]]]},"properties":{"roof":"Supplerende Grønt tag","material":"Tagpap med stor hældning","year":2016}},{"type":"Feature","geometry":{"type":"MultiPolygon","coordinates":[[[[12.58672,55.67618],[12.5862,55.67748],[12.5848,55.67712],[12.58511,55.67633],[12.58672,55.67618]]]]},"properties":{"roof":"Supplerende Grønt tag","material":"Tagpap med lille hældning","year":1971}},{"type":"Feature","geometry":{"type":"MultiPolygon","coordinates":[[[[12.58593,55.67625],[12.58552,55.67731],[12.5848,55.67712],[12.58511,55.67633],[12.58593,55.67625]]]]},"properties":{"roof":"Supplerende Grønt tag","material":"Tagpap med lille hældning","year":1971}},{"type":"Feature","geometry":{"type":"MultiPolygon","coordinates":[[[[12.56834,55.68564],[12.56831,55.68562],[12.56847,55.68556],[12.56849,55.68558],[12.56834,55.68564]]]]},"properties":{"roof":"Primært Grønt tag","material":"Levende tage","year":2017}},{"type":"Feature","geometry":{"type":"MultiPolygon","coordinates":[[[[12.58366,55.68654],[12.58363,55.68649],[12.58359,55.6865],[12.58362,55.68656],[12.58366,55.68654]]]]},"properties":{"roof":"Primært Grønt tag","material":"Levende tage","year":0}},{"type":"Feature","geometry":{"type":"MultiPolygon","coordinates":[[[[12.55043,55.68724],[12.55039,55.6872],[12.55033,55.68722],[12.55037,55.68727],[12.55043,55.68724]]]]},"properties":{"roof":"Primært Grønt tag","material":"Levende tage","year":0}},{"type":"Feature","geometry":{"type":"MultiPolygon","coordinates":[[[[12.55043,55.68724],[12.55037,55.68727],[12.5504,55.68729],[12.55046,55.68727],[12.55043,55.68724]]]]},"properties":{"roof":"Primært Grønt tag","material":"Levende tage","year":0}},{"type":"Feature","geometry":{"type":"MultiPolygon","coordinates":[[[[12.5515,55.66994],[12.55146,55.66996],[12.55152,55.66997],[12.55152,55.66995],[12.5515,55.66994]]]]},"properties":{"roof":"Primært Grønt tag","material":"Levende tage","year":0}},{"type":"Feature","geometry":{"type":"MultiPolygon","coordinates":[[[[12.5515,55.66994],[12.55152,55.66995],[12.55152,55.66997],[12.55146,55.66996],[12.5515,55.66994]]]]},"properties":{"roof":"Primært Grønt tag","material":"Levende tage","year":0}},{"type":"Feature","geometry":{"type":"MultiPolygon","coordinates":[[[[12.57148,55.67331],[12.57132,55.67321],[12.57137,55.67318],[12.57154,55.67328],[12.57148,55.67331]]]]},"properties":{"roof":"Primært Grønt tag","material":"Levende tage","year":2016}},{"type":"Feature","geometry":{"type":"MultiPolygon","coordinates":[[[[12.57148,55.67331],[12.57132,55.67321],[12.57137,55.67318],[12.57154,55.67328],[12.57148,55.67331]]]]},"properties":{"roof":"Primært Grønt tag","material":"Levende tage","year":2016}},{"type":"Feature","geometry":{"type":"MultiPolygon","coordinates":[[[[12.57972,55.69208],[12.57973,55.6921],[12.57981,55.69208],[12.5798,55.69206],[12.57972,55.69208]]]]},"properties":{"roof":"Primært Grønt tag","material":"Levende tage","year":2018}},{"type":"Feature","geometry":{"type":"MultiPolygon","coordinates":[[[[12.57973,55.6921],[12.57981,55.69208],[12.57982,55.69209],[12.57973,55.69211],[12.57973,55.6921]]]]},"properties":{"roof":"Primært Grønt tag","material":"Levende tage","year":2018}},{"type":"Feature","geometry":{"type":"MultiPolygon","coordinates":[[[[12.55096,55.69557],[12.55108,55.69567],[12.55103,55.69578],[12.55106,55.6958],[12.55086,55.69587],[12.55084,55.69585],[12.55082,55.69586],[12.55061,55.69567],[12.55094,55.69555],[12.55096,55.69557]]]]},"properties":{"roof":"Supplerende Grønt tag","material":"Tagpap med stor hældning","year":1989}},{"type":"Feature","geometry":{"type":"MultiPolygon","coordinates":[[[[12.55115,55.69577],[12.55116,55.69578],[12.55138,55.6957],[12.5514,55.69559],[12.55114,55.69569],[12.55112,55.69567],[12.55108,55.69567],[12.55103,55.69578],[12.55106,55.6958],[12.55115,55.69577]]]]},"properties":{"roof":"Supplerende Grønt tag","material":"Tagpap med stor hældning","year":1989}},{"type":"Feature","geometry":{"type":"MultiPolygon","coordinates":[[[[12.55108,55.69568],[12.55112,55.69567],[12.55114,55.69569],[12.5514,55.69558],[12.55104,55.69556],[12.55098,55.69558],[12.55108,55.69568]]]]},"properties":{"roof":"Supplerende Grønt tag","material":"Tagpap med stor hældning","year":1989}},{"type":"Feature","geometry":{"type":"MultiPolygon","coordinates":[[[[12.55731,55.69226],[12.55743,55.69233],[12.55735,55.69237],[12.55724,55.6923],[12.55731,55.69226]]]]},"properties":{"roof":"Primært Grønt tag","material":"Levende tage","year":2006}},{"type":"Feature","geometry":{"type":"MultiPolygon","coordinates":[[[[12.55731,55.69226],[12.55743,55.69233],[12.55735,55.69237],[12.55724,55.6923],[12.55731,55.69226]]]]},"properties":{"roof":"Primært Grønt tag","material":"Levende tage","year":2006}},{"type":"Feature","geometry":{"type":"MultiPolygon","coordinates":[[[[12.55731,55.69226],[12.55743,55.69233],[12.55735,55.69237],[12.55724,55.6923],[12.55731,55.69226]]]]},"properties":{"roof":"Primært Grønt tag","material":"Levende tage","year":2006}},{"type":"Feature","geometry":{"type":"MultiPolygon","coordinates":[[[[12.55829,55.67017],[12.55839,55.6702],[12.55836,55.67022],[12.55827,55.67019],[12.55829,55.67017]]]]},"properties":{"roof":"Primært Grønt tag","material":"Levende tage","year":2000}},{"type":"Feature","geometry":{"type":"MultiPolygon","coordinates":[[[[12.58426,55.68329],[12.58403,55.68334],[12.58404,55.68336],[12.58361,55.68348],[12.58359,55.68346],[12.58343,55.68351],[12.5836,55.68371],[12.58377,55.68367],[12.58366,55.68354],[12.58372,55.68353],[12.58376,55.68357],[12.58418,55.68346],[12.58417,55.68344],[12.58431,55.68341],[12.58427,55.68336],[12.58432,55.68335],[12.58454,55.6836],[12.58473,55.68355],[12.58445,55.68323],[12.58426,55.68329]]]]},"properties":{"roof":"Primært Grønt tag","material":"Levende tage","year":1967}},{"type":"Feature","geometry":{"type":"MultiPolygon","coordinates":[[[[12.57253,55.68392],[12.57212,55.68366],[12.57211,55.68363],[12.57221,55.68358],[12.57226,55.68357],[12.57259,55.68371],[12.57262,55.68374],[12.57265,55.68388],[12.57258,55.68392],[12.57253,55.68392]]]]},"properties":{"roof":"Andet tagkonstuktion","material":"Andet materiale","year":2016}},{"type":"Feature","geometry":{"type":"MultiPolygon","coordinates":[[[[12.57071,55.671],[12.57055,55.67089],[12.57052,55.6709],[12.57068,55.67101],[12.57071,55.671]]]]},"properties":{"roof":"Primært Grønt tag","material":"Levende tage","year":2023}},{"type":"Feature","geometry":{"type":"MultiPolygon","coordinates":[[[[12.55719,55.69213],[12.55711,55.69216],[12.55708,55.69213],[12.55716,55.6921],[12.55719,55.69213]]]]},"properties":{"roof":"Primært Grønt tag","material":"Levende tage","year":2017}},{"type":"Feature","geometry":{"type":"MultiPolygon","coordinates":[[[[12.55719,55.69213],[12.55711,55.69216],[12.55708,55.69213],[12.55716,55.6921],[12.55719,55.69213]]]]},"properties":{"roof":"Primært Grønt tag","material":"Levende tage","year":2017}},{"type":"Feature","geometry":{"type":"MultiPolygon","coordinates":[[[[12.5825,55.68781],[12.58235,55.68765],[12.58229,55.68767],[12.58243,55.68783],[12.5825,55.68781]]]]},"properties":{"roof":"Primært Grønt tag","material":"Levende tage","year":2023}},{"type":"Feature","geometry":{"type":"MultiPolygon","coordinates":[[[[12.55839,55.69008],[12.55856,55.6901],[12.55855,55.69014],[12.55857,55.69015],[12.55867,55.69016],[12.55866,55.69019],[12.55875,55.69019],[12.55867,55.69027],[12.55854,55.69025],[12.55851,55.69028],[12.55833,55.69026],[12.55839,55.69008]]]]},"properties":{"roof":"Primært Grønt tag","material":"Levende tage","year":1889}},{"type":"Feature","geometry":{"type":"MultiPolygon","coordinates":[[[[12.55833,55.69026],[12.5585,55.69028],[12.55849,55.69033],[12.55851,55.69033],[12.5585,55.69036],[12.55848,55.69036],[12.55847,55.69039],[12.5583,55.69037],[12.55833,55.69026]]]]},"properties":{"roof":"Primært Grønt tag","material":"Levende tage","year":1889}},{"type":"Feature","geometry":{"type":"MultiPolygon","coordinates":[[[[12.55839,55.69008],[12.55856,55.6901],[12.55855,55.69014],[12.55857,55.69015],[12.55867,55.69016],[12.55866,55.69019],[12.55875,55.69019],[12.55867,55.69027],[12.55854,55.69025],[12.55851,55.69028],[12.55833,55.69026],[12.55839,55.69008]]]]},"properties":{"roof":"Primært Grønt tag","material":"Levende tage","year":1889}},{"type":"Feature","geometry":{"type":"MultiPolygon","coordinates":[[[[12.55837,55.69013],[12.55865,55.69019],[12.55864,55.69022],[12.55859,55.69024],[12.55863,55.69026],[12.55835,55.6902],[12.55837,55.69013]]]]},"properties":{"roof":"Primært Grønt tag","material":"Levende tage","year":1889}},{"type":"Feature","geometry":{"type":"MultiPolygon","coordinates":[[[[12.55833,55.69026],[12.5585,55.69028],[12.55849,55.69033],[12.55851,55.69033],[12.5585,55.69036],[12.55848,55.69036],[12.55847,55.69039],[12.5583,55.69037],[12.55833,55.69026]]]]},"properties":{"roof":"Primært Grønt tag","material":"Levende tage","year":1889}},{"type":"Feature","geometry":{"type":"MultiPolygon","coordinates":[[[[12.55731,55.69223],[12.55729,55.69221],[12.55721,55.69224],[12.55725,55.69227],[12.55731,55.69223]]]]},"properties":{"roof":"Primært Grønt tag","material":"Levende tage","year":2017}},{"type":"Feature","geometry":{"type":"MultiPolygon","coordinates":[[[[12.55731,55.69223],[12.55725,55.69227],[12.55721,55.69224],[12.55729,55.69221],[12.55731,55.69223]]]]},"properties":{"roof":"Primært Grønt tag","material":"Levende tage","year":2017}},{"type":"Feature","geometry":{"type":"MultiPolygon","coordinates":[[[[12.55769,55.69305],[12.55768,55.69296],[12.55762,55.69296],[12.55762,55.69305],[12.55769,55.69305]]]]},"properties":{"roof":"Supplerende Grønt tag","material":"Andet materiale","year":2023}},{"type":"Feature","geometry":{"type":"MultiPolygon","coordinates":[[[[12.56149,55.68929],[12.56158,55.68927],[12.56164,55.68935],[12.56156,55.68937],[12.56149,55.68929]]]]},"properties":{"roof":"Andet tagkonstuktion","material":null,"year":null}},{"type":"Feature","geometry":{"type":"MultiPolygon","coordinates":[[[[12.56164,55.68888],[12.56173,55.68885],[12.56175,55.68887],[12.56167,55.6889],[12.56164,55.68888]]]]},"properties":{"roof":"Andet tagkonstuktion","material":null,"year":null}},{"type":"Feature","geometry":{"type":"MultiPolygon","coordinates":[[[[12.56201,55.68988],[12.56198,55.68985],[12.56202,55.68984],[12.56206,55.68987],[12.56201,55.68988]]]]},"properties":{"roof":"Andet tagkonstuktion","material":null,"year":null}},{"type":"Feature","geometry":{"type":"MultiPolygon","coordinates":[[[[12.57157,55.68313],[12.57167,55.68311],[12.57169,55.68309],[12.57169,55.68306],[12.57161,55.68302],[12.57151,55.68304],[12.57149,55.68306],[12.57149,55.68309],[12.57157,55.68313]]]]},"properties":{"roof":"Andet tagkonstuktion","material":null,"year":null}},{"type":"Feature","geometry":{"type":"MultiPolygon","coordinates":[[[[12.57153,55.6833],[12.57113,55.68305],[12.57112,55.68302],[12.57138,55.68295],[12.57175,55.68299],[12.57181,55.68303],[12.57182,55.68307],[12.57165,55.68329],[12.57159,55.6833],[12.57153,55.6833]]]]},"properties":{"roof":"Andet tagkonstuktion","material":null,"year":null}},{"type":"Feature","geometry":{"type":"MultiPolygon","coordinates":[[[[12.56917,55.67138],[12.56914,55.67137],[12.56921,55.67131],[12.56923,55.67132],[12.56917,55.67138]]]]},"properties":{"roof":"Andet tagkonstuktion","material":null,"year":null}},{"type":"Feature","geometry":{"type":"MultiPolygon","coordinates":[[[[12.57054,55.68264],[12.5706,55.68263],[12.57064,55.68253],[12.57063,55.6825],[12.5706,55.68248],[12.57045,55.68241],[12.57037,55.68242],[12.57035,55.68245],[12.57054,55.68264]]]]},"properties":{"roof":"Andet tagkonstuktion","material":null,"year":null}},{"type":"Feature","geometry":{"type":"MultiPolygon","coordinates":[[[[12.5513,55.67137],[12.55137,55.67141],[12.55129,55.67145],[12.55122,55.67141],[12.5513,55.67137]]]]},"properties":{"roof":"Andet tagkonstuktion","material":null,"year":null}}]}