{"type":"FeatureCollection","features":[{"type":"Feature","geometry":{"type":"MultiPolygon","coordinates":[[[[13.39232,52.52366],[13.39236,52.52363],[13.39444,52.52344],[13.39455,52.52347],[13.39498,52.52433],[13.39296,52.52481],[13.39232,52.52366]]]]},"properties":{"rating":"ungünstig","block":"0101000121000000"}},{"type":"Feature","geometry":{"type":"MultiPolygon","coordinates":[[[[13.39306,52.52508],[13.39391,52.52488],[13.39443,52.5253],[13.39439,52.52532],[13.39477,52.5256],[13.39445,52.52581],[13.39426,52.52603],[13.39442,52.52608],[13.39422,52.52646],[13.39379,52.52638],[13.39306,52.52508]]]]},"properties":{"rating":"ungünstig","block":"0101000141000100"}},{"type":"Feature","geometry":{"type":"MultiPolygon","coordinates":[[[[13.39422,52.52646],[13.39442,52.52608],[13.39426,52.52603],[13.39445,52.52581],[13.39477,52.5256],[13.39439,52.52532],[13.39443,52.5253],[13.39391,52.52488],[13.39445,52.52473],[13.39485,52.52505],[13.39485,52.52502],[13.39524,52.5253],[13.39532,52.52526],[13.39863,52.52576],[13.39826,52.52656],[13.39704,52.52636],[13.39691,52.52671],[13.39535,52.52644],[13.39524,52.52665],[13.39422,52.52646]]]]},"properties":{"rating":"ungünstig","block":"0101000141000200"}},{"type":"Feature","geometry":{"type":"MultiPolygon","coordinates":[[[[13.39445,52.52473],[13.39537,52.52448],[13.39608,52.52509],[13.39873,52.52555],[13.39863,52.52576],[13.39532,52.52526],[13.39524,52.5253],[13.39485,52.52502],[13.39485,52.52505],[13.39445,52.52473]]]]},"properties":{"rating":"sehr ungünstig","block":"0101000141000400"}},{"type":"Feature","geometry":{"type":"MultiPolygon","coordinates":[[[[13.39562,52.52442],[13.39661,52.52414],[13.39774,52.52386],[13.39842,52.52377],[13.39949,52.52373],[13.39904,52.52488],[13.3988,52.52538],[13.39625,52.52495],[13.39562,52.52442]]]]},"properties":{"rating":"weniger günstig","block":"0101000151000000"}},{"type":"Feature","geometry":{"type":"MultiPolygon","coordinates":[[[[13.39541,52.52335],[13.39513,52.5234],[13.39533,52.52379],[13.39499,52.52385],[13.39439,52.52269],[13.39501,52.52257],[13.39541,52.52335]]]]},"properties":{"rating":"ungünstig","block":"0101000161000100"}},{"type":"Feature","geometry":{"type":"MultiPolygon","coordinates":[[[[13.39821,52.52235],[13.40014,52.52245],[13.40003,52.52267],[13.39856,52.52295],[13.39821,52.52235]]]]},"properties":{"rating":"ungünstig","block":"0101000161000400"}},{"type":"Feature","geometry":{"type":"MultiPolygon","coordinates":[[[[13.40011,52.52289],[13.40027,52.52306],[13.40139,52.52356],[13.4001,52.52357],[13.40011,52.5236],[13.39911,52.52364],[13.3991,52.52361],[13.39885,52.52358],[13.39877,52.52351],[13.3988,52.52344],[13.3989,52.52335],[13.40011,52.52289]]]]},"properties":{"rating":"sehr ungünstig","block":"0101000171000000"}},{"type":"Feature","geometry":{"type":"MultiPolygon","coordinates":[[[[13.40092,52.52251],[13.40235,52.52332],[13.40235,52.52335],[13.40191,52.52353],[13.40184,52.52353],[13.40029,52.52286],[13.40026,52.52283],[13.40042,52.52246],[13.40092,52.52251]]]]},"properties":{"rating":"ungünstig","block":"0101000181000000"}},{"type":"Feature","geometry":{"type":"MultiPolygon","coordinates":[[[[13.40338,52.52485],[13.40443,52.52467],[13.40476,52.52466],[13.40508,52.5247],[13.40582,52.52491],[13.40586,52.52498],[13.40391,52.52589],[13.40387,52.52588],[13.40338,52.52485]]]]},"properties":{"rating":"ungünstig","block":"0101000221000000"}},{"type":"Feature","geometry":{"type":"MultiPolygon","coordinates":[[[[13.40514,52.52553],[13.40629,52.52504],[13.40713,52.52609],[13.40652,52.52625],[13.40639,52.526],[13.40636,52.52601],[13.40594,52.52563],[13.40549,52.52583],[13.40514,52.52553]]]]},"properties":{"rating":"ungünstig","block":"0101000441000200"}},{"type":"Feature","geometry":{"type":"MultiPolygon","coordinates":[[[[13.39915,52.52503],[13.39983,52.52515],[13.39957,52.52589],[13.39961,52.52608],[13.39862,52.52645],[13.39856,52.52644],[13.39915,52.52503]]]]},"properties":{"rating":"ungünstig","block":"0101006011000100"}},{"type":"Feature","geometry":{"type":"MultiPolygon","coordinates":[[[[13.39949,52.52419],[13.3997,52.52372],[13.40176,52.5237],[13.40233,52.52382],[13.40268,52.52416],[13.40316,52.52498],[13.40184,52.5253],[13.40127,52.52547],[13.40116,52.52533],[13.40096,52.5252],[13.40058,52.52519],[13.40086,52.52437],[13.40077,52.5238],[13.39999,52.52391],[13.4,52.52402],[13.39995,52.52426],[13.39949,52.52419]]]]},"properties":{"rating":"ungünstig","block":"0101006011000200"}},{"type":"Feature","geometry":{"type":"MultiPolygon","coordinates":[[[[13.39915,52.52503],[13.39941,52.5244],[13.4008,52.5246],[13.40058,52.52519],[13.40096,52.5252],[13.40116,52.52533],[13.40127,52.52547],[13.39961,52.52608],[13.39957,52.52589],[13.39983,52.52515],[13.39915,52.52503]]]]},"properties":{"rating":"weniger günstig","block":"0101006011000400"}},{"type":"Feature","geometry":{"type":"MultiPolygon","coordinates":[[[[13.39834,52.52723],[13.39828,52.52713],[13.39846,52.52662],[13.40091,52.52569],[13.40147,52.52551],[13.40263,52.52518],[13.40318,52.52506],[13.40347,52.52564],[13.4035,52.52607],[13.39896,52.52733],[13.39834,52.52723]]]]},"properties":{"rating":"ungünstig","block":"0101006021000000"}},{"type":"Feature","geometry":{"type":"MultiPolygon","coordinates":[[[[13.40323,52.52461],[13.40264,52.52362],[13.40359,52.5232],[13.40428,52.52338],[13.40523,52.52355],[13.40642,52.52359],[13.40711,52.52353],[13.40726,52.52382],[13.40773,52.52451],[13.40697,52.52478],[13.40647,52.52487],[13.40477,52.52449],[13.40323,52.52461]]]]},"properties":{"rating":"ungünstig","block":"0101006031000000"}},{"type":"Feature","geometry":{"type":"MultiPolygon","coordinates":[[[[13.41322,52.52523],[13.41329,52.52524],[13.4143,52.52603],[13.41474,52.52644],[13.41483,52.52656],[13.41469,52.52669],[13.41456,52.52676],[13.41416,52.52687],[13.41389,52.52678],[13.41357,52.52635],[13.41343,52.52638],[13.4136,52.52665],[13.41354,52.52668],[13.41298,52.52651],[13.41232,52.52554],[13.41322,52.52523]]]]},"properties":{"rating":"ungünstig","block":"0101010051000000"}},{"type":"Feature","geometry":{"type":"MultiPolygon","coordinates":[[[[13.4066,52.52501],[13.40707,52.52493],[13.40779,52.52467],[13.40872,52.52687],[13.40822,52.52702],[13.40688,52.5254],[13.40691,52.52538],[13.4066,52.52501]]]]},"properties":{"rating":"ungünstig","block":"0101010121000000"}},{"type":"Feature","geometry":{"type":"MultiPolygon","coordinates":[[[[13.40807,52.52455],[13.4088,52.5243],[13.40885,52.5243],[13.4097,52.52661],[13.40902,52.52678],[13.40807,52.52455]]]]},"properties":{"rating":"ungünstig","block":"0101010131000000"}},{"type":"Feature","geometry":{"type":"MultiPolygon","coordinates":[[[[13.40906,52.52427],[13.40954,52.52415],[13.41089,52.52587],[13.40977,52.52622],[13.40933,52.52495],[13.40906,52.52427]]]]},"properties":{"rating":"ungünstig","block":"0101010141000000"}},{"type":"Feature","geometry":{"type":"MultiPolygon","coordinates":[[[[13.41115,52.52577],[13.40998,52.52422],[13.41003,52.52418],[13.41067,52.5241],[13.4118,52.52412],[13.41312,52.52513],[13.41222,52.52543],[13.41195,52.52512],[13.41174,52.52518],[13.41201,52.5255],[13.41115,52.52577]]]]},"properties":{"rating":"ungünstig","block":"0101010151000000"}},{"type":"Feature","geometry":{"type":"MultiPolygon","coordinates":[[[[13.40736,52.52349],[13.40799,52.52335],[13.40878,52.52308],[13.40939,52.52396],[13.40802,52.52437],[13.40795,52.52435],[13.40736,52.52349]]]]},"properties":{"rating":"ungünstig","block":"0101010161000000"}},{"type":"Feature","geometry":{"type":"MultiPolygon","coordinates":[[[[13.40966,52.52271],[13.40996,52.52294],[13.41115,52.52365],[13.41118,52.5237],[13.41112,52.52375],[13.40969,52.52386],[13.40905,52.52296],[13.40966,52.52271]]]]},"properties":{"rating":"sehr ungünstig","block":"0101010171000000"}},{"type":"Feature","geometry":{"type":"MultiPolygon","coordinates":[[[[13.41492,52.52578],[13.41617,52.52529],[13.41689,52.52591],[13.41688,52.52594],[13.41573,52.52645],[13.41492,52.52578]]]]},"properties":{"rating":"sehr ungünstig","block":"0101010181000000"}},{"type":"Feature","geometry":{"type":"MultiPolygon","coordinates":[[[[13.4142,52.52276],[13.41266,52.52339],[13.4122,52.52352],[13.41194,52.52351],[13.41167,52.52344],[13.41035,52.52263],[13.41188,52.52172],[13.41293,52.52093],[13.4136,52.52038],[13.41375,52.52021],[13.41411,52.52035],[13.41447,52.52058],[13.4147,52.52077],[13.41446,52.52098],[13.41349,52.52086],[13.41193,52.52198],[13.41275,52.52251],[13.41415,52.5219],[13.41452,52.52164],[13.41481,52.52117],[13.41504,52.52109],[13.41572,52.52177],[13.41576,52.52192],[13.41568,52.5221],[13.41537,52.52227],[13.4142,52.52276]]]]},"properties":{"rating":"ungünstig","block":"0101010211000100"}},{"type":"Feature","geometry":{"type":"MultiPolygon","coordinates":[[[[13.4009,52.52063],[13.40193,52.51953],[13.40238,52.51893],[13.40265,52.51904],[13.40256,52.51914],[13.40437,52.52008],[13.40348,52.52072],[13.40287,52.52049],[13.40349,52.51979],[13.40327,52.51972],[13.40268,52.52037],[13.40185,52.52008],[13.40172,52.52018],[13.40315,52.52069],[13.40338,52.5208],[13.40277,52.52128],[13.4009,52.52063]]]]},"properties":{"rating":"ungünstig","block":"0101010271000000"}},{"type":"Feature","geometry":{"type":"MultiPolygon","coordinates":[[[[13.40444,52.51716],[13.40524,52.51645],[13.40562,52.51651],[13.40576,52.5164],[13.40636,52.51668],[13.40537,52.51756],[13.40444,52.51716]]]]},"properties":{"rating":"ungünstig","block":"0101010291000000"}},{"type":"Feature","geometry":{"type":"MultiPolygon","coordinates":[[[[13.40685,52.51642],[13.40725,52.51619],[13.40739,52.51628],[13.40746,52.51639],[13.40696,52.51653],[13.40685,52.51642]]]]},"properties":{"rating":"sehr ungünstig","block":"0101010311000000"}},{"type":"Feature","geometry":{"type":"MultiPolygon","coordinates":[[[[13.40656,52.51669],[13.40677,52.5165],[13.40696,52.5166],[13.4074,52.5165],[13.4075,52.51652],[13.40795,52.51675],[13.40815,52.51691],[13.40778,52.51724],[13.40771,52.51724],[13.40656,52.51669]]]]},"properties":{"rating":"ungünstig","block":"0101010331000000"}},{"type":"Feature","geometry":{"type":"MultiPolygon","coordinates":[[[[13.40708,52.51814],[13.40562,52.51754],[13.40649,52.51675],[13.40722,52.51711],[13.40706,52.51727],[13.4072,52.51776],[13.40743,52.51785],[13.40708,52.51814]]]]},"properties":{"rating":"ungünstig","block":"0101010341000000"}},{"type":"Feature","geometry":{"type":"MultiPolygon","coordinates":[[[[13.40756,52.51833],[13.40838,52.51771],[13.40951,52.51828],[13.40868,52.51888],[13.40756,52.51833]]]]},"properties":{"rating":"ungünstig","block":"0101010351000000"}},{"type":"Feature","geometry":{"type":"MultiPolygon","coordinates":[[[[13.41007,52.51815],[13.41028,52.51826],[13.41075,52.51863],[13.41129,52.519],[13.41181,52.5193],[13.41237,52.51956],[13.41208,52.51982],[13.41214,52.51984],[13.41153,52.52033],[13.40886,52.519],[13.41007,52.51815]]]]},"properties":{"rating":"sehr ungünstig","block":"0101010371000100"}},{"type":"Feature","geometry":{"type":"MultiPolygon","coordinates":[[[[13.41153,52.52033],[13.41214,52.51984],[13.41208,52.51982],[13.41237,52.51956],[13.41336,52.52],[13.41268,52.52043],[13.41231,52.52064],[13.41227,52.52062],[13.41221,52.52066],[13.41153,52.52033]]]]},"properties":{"rating":"ungünstig","block":"0101010371000200"}},{"type":"Feature","geometry":{"type":"MultiPolygon","coordinates":[[[[13.41283,52.51914],[13.41317,52.51887],[13.41366,52.51839],[13.41391,52.51804],[13.41444,52.5171],[13.41558,52.51737],[13.41519,52.51808],[13.415,52.51855],[13.4148,52.51886],[13.41435,52.51934],[13.41392,52.51961],[13.41384,52.51956],[13.4138,52.51959],[13.41283,52.51914]]]]},"properties":{"rating":"sehr ungünstig","block":"0101010381000000"}},{"type":"Feature","geometry":{"type":"MultiPolygon","coordinates":[[[[13.4122,52.51804],[13.41303,52.51826],[13.41308,52.5183],[13.41312,52.51828],[13.41367,52.51766],[13.41369,52.51746],[13.41405,52.51664],[13.41451,52.5159],[13.41488,52.51593],[13.41358,52.51804],[13.41297,52.51873],[13.41259,52.51903],[13.41171,52.51856],[13.4122,52.51804]]]]},"properties":{"rating":"weniger günstig","block":"0101010391000100"}},{"type":"Feature","geometry":{"type":"MultiPolygon","coordinates":[[[[13.4122,52.51804],[13.41252,52.51755],[13.41264,52.51729],[13.41361,52.51744],[13.4135,52.5177],[13.41325,52.51797],[13.41306,52.51824],[13.41312,52.51828],[13.41308,52.5183],[13.41303,52.51826],[13.4122,52.51804]]]]},"properties":{"rating":"ungünstig","block":"0101010391000200"}},{"type":"Feature","geometry":{"type":"MultiPolygon","coordinates":[[[[13.41035,52.51761],[13.4106,52.5171],[13.41222,52.51732],[13.41212,52.51758],[13.41197,52.51782],[13.41175,52.51811],[13.41142,52.51846],[13.41035,52.51761]]]]},"properties":{"rating":"ungünstig","block":"0101010401000000"}},{"type":"Feature","geometry":{"type":"MultiPolygon","coordinates":[[[[13.41078,52.5162],[13.41214,52.51599],[13.41223,52.51616],[13.41228,52.51653],[13.41225,52.51713],[13.4107,52.51692],[13.41078,52.5162]]]]},"properties":{"rating":"ungünstig","block":"0101010431000000"}},{"type":"Feature","geometry":{"type":"MultiPolygon","coordinates":[[[[13.41246,52.51568],[13.41237,52.51533],[13.41233,52.51502],[13.41236,52.515],[13.41332,52.51509],[13.41502,52.51533],[13.41491,52.51566],[13.41329,52.5156],[13.41246,52.51568]]]]},"properties":{"rating":"ungünstig","block":"0101010451000000"}},{"type":"Feature","geometry":{"type":"MultiPolygon","coordinates":[[[[13.41259,52.51679],[13.41377,52.51674],[13.41374,52.51684],[13.41386,52.51685],[13.41365,52.51732],[13.41261,52.5172],[13.41259,52.51679]]]]},"properties":{"rating":"weniger günstig","block":"0101010461000100"}},{"type":"Feature","geometry":{"type":"MultiPolygon","coordinates":[[[[13.41244,52.51593],[13.41353,52.51586],[13.41439,52.5159],[13.41386,52.51685],[13.41374,52.51684],[13.41377,52.51674],[13.41259,52.51679],[13.41244,52.51593]]]]},"properties":{"rating":"sehr ungünstig","block":"0101010461000200"}},{"type":"Feature","geometry":{"type":"MultiPolygon","coordinates":[[[[13.41514,52.51594],[13.41662,52.5163],[13.41636,52.5166],[13.41572,52.5172],[13.4145,52.51692],[13.41514,52.51594]]]]},"properties":{"rating":"ungünstig","block":"0101010471000000"}},{"type":"Feature","geometry":{"type":"MultiPolygon","coordinates":[[[[13.41444,52.52475],[13.41529,52.52545],[13.4147,52.5257],[13.41385,52.52501],[13.41342,52.5246],[13.41407,52.52432],[13.41446,52.52464],[13.41436,52.52469],[13.41444,52.52475]]]]},"properties":{"rating":"ungünstig","block":"0101010501000000"}},{"type":"Feature","geometry":{"type":"MultiPolygon","coordinates":[[[[13.4151,52.52422],[13.41607,52.52511],[13.41554,52.52535],[13.41427,52.52425],[13.41485,52.524],[13.4151,52.52422]]]]},"properties":{"rating":"ungünstig","block":"0101010511000000"}},{"type":"Feature","geometry":{"type":"MultiPolygon","coordinates":[[[[13.41595,52.52332],[13.41329,52.52448],[13.41311,52.52432],[13.41576,52.52316],[13.41595,52.52332]]]]},"properties":{"rating":"ungünstig","block":"0101010531000000"}},{"type":"Feature","geometry":{"type":"MultiPolygon","coordinates":[[[[13.40396,52.52294],[13.40468,52.52208],[13.40508,52.52229],[13.40513,52.52226],[13.40537,52.52238],[13.40544,52.52232],[13.40575,52.52245],[13.40621,52.52268],[13.40621,52.52272],[13.40673,52.52298],[13.40678,52.52309],[13.40617,52.52319],[13.40552,52.52321],[13.40473,52.52311],[13.4047,52.52315],[13.40396,52.52294]]]]},"properties":{"rating":"ungünstig","block":"0101016001000000"}},{"type":"Feature","geometry":{"type":"MultiPolygon","coordinates":[[[[13.40734,52.51716],[13.40779,52.51735],[13.40831,52.51689],[13.40829,52.51687],[13.40844,52.5168],[13.40855,52.5169],[13.40763,52.51776],[13.40733,52.51764],[13.40722,52.51729],[13.40734,52.51716]]]]},"properties":{"rating":"ungünstig","block":"0101016021000000"}},{"type":"Feature","geometry":{"type":"MultiPolygon","coordinates":[[[[13.40787,52.51625],[13.40835,52.51669],[13.40815,52.51679],[13.40774,52.51659],[13.4075,52.5164],[13.40787,52.51625]]]]},"properties":{"rating":"sehr ungünstig","block":"0101016031000000"}},{"type":"Feature","geometry":{"type":"MultiPolygon","coordinates":[[[[13.40703,52.51559],[13.40735,52.51588],[13.40645,52.5166],[13.40587,52.51634],[13.4059,52.51628],[13.4057,52.51611],[13.40634,52.51582],[13.40647,52.51583],[13.40703,52.51559]]]]},"properties":{"rating":"sehr ungünstig","block":"0101016051000000"}},{"type":"Feature","geometry":{"type":"MultiPolygon","coordinates":[[[[13.40781,52.51546],[13.40817,52.51534],[13.40949,52.51512],[13.41023,52.51505],[13.41027,52.51517],[13.40941,52.51527],[13.40968,52.51609],[13.40903,52.51613],[13.4089,52.5161],[13.40858,52.51599],[13.4083,52.51582],[13.40781,52.51546]]]]},"properties":{"rating":"ungünstig","block":"0101016061000000"}},{"type":"Feature","geometry":{"type":"MultiPolygon","coordinates":[[[[13.40981,52.51614],[13.40961,52.51538],[13.41027,52.5153],[13.41046,52.51603],[13.40981,52.51614]]]]},"properties":{"rating":"ungünstig","block":"0101016071000000"}},{"type":"Feature","geometry":{"type":"MultiPolygon","coordinates":[[[[13.41046,52.51502],[13.41174,52.51492],[13.41178,52.51495],[13.41212,52.51496],[13.41219,52.51572],[13.41071,52.51597],[13.41046,52.51502]]]]},"properties":{"rating":"ungünstig","block":"0101016081000000"}},{"type":"Feature","geometry":{"type":"MultiPolygon","coordinates":[[[[13.41744,52.52454],[13.41624,52.52505],[13.41501,52.52391],[13.4157,52.5236],[13.41589,52.52375],[13.41604,52.52369],[13.41574,52.52342],[13.41595,52.52332],[13.41744,52.52454]]]]},"properties":{"rating":"ungünstig","block":"0101016101000000"}},{"type":"Feature","geometry":{"type":"MultiPolygon","coordinates":[[[[13.4048,52.52193],[13.40444,52.52182],[13.40557,52.5212],[13.4056,52.52122],[13.40572,52.52114],[13.40551,52.52103],[13.40473,52.52147],[13.4043,52.52117],[13.40425,52.52121],[13.40463,52.52148],[13.4042,52.52174],[13.4036,52.52155],[13.40334,52.52141],[13.40346,52.52132],[13.40348,52.52133],[13.40375,52.5211],[13.40378,52.52111],[13.40447,52.52059],[13.40452,52.52061],[13.40485,52.52036],[13.40615,52.52101],[13.40608,52.52107],[13.40747,52.52178],[13.40754,52.52173],[13.40845,52.52219],[13.40833,52.52265],[13.40766,52.52293],[13.40713,52.52306],[13.4071,52.523],[13.40706,52.52301],[13.4069,52.52288],[13.40579,52.52233],[13.4048,52.52193]]]]},"properties":{"rating":"ungünstig","block":"0101016131000000"}},{"type":"Feature","geometry":{"type":"MultiPolygon","coordinates":[[[[13.40077,52.52198],[13.4007,52.52163],[13.40089,52.5211],[13.40104,52.52086],[13.40266,52.5214],[13.40253,52.52155],[13.40218,52.52146],[13.40169,52.52202],[13.40179,52.52215],[13.40143,52.52216],[13.40079,52.52209],[13.40077,52.52198]]]]},"properties":{"rating":"ungünstig","block":"0101016151000000"}},{"type":"Feature","geometry":{"type":"MultiPolygon","coordinates":[[[[13.40292,52.5215],[13.40438,52.52198],[13.40375,52.52275],[13.40357,52.52264],[13.40359,52.52261],[13.40253,52.52234],[13.40251,52.52236],[13.40239,52.52229],[13.40233,52.52221],[13.40235,52.52208],[13.40292,52.5215]]]]},"properties":{"rating":"sehr ungünstig","block":"0101016161000000"}},{"type":"Feature","geometry":{"type":"MultiPolygon","coordinates":[[[[13.3937,52.52201],[13.39496,52.52116],[13.39637,52.52182],[13.39609,52.52191],[13.39566,52.52199],[13.39384,52.52223],[13.39378,52.52218],[13.39369,52.5222],[13.3936,52.52219],[13.39358,52.52212],[13.3937,52.52208],[13.3937,52.52201]]]]},"properties":{"rating":"ungünstig","block":"0101020191000000"}},{"type":"Feature","geometry":{"type":"MultiPolygon","coordinates":[[[[13.39513,52.52104],[13.39651,52.52005],[13.39717,52.51971],[13.39744,52.51951],[13.39976,52.52048],[13.39869,52.5213],[13.39773,52.52154],[13.39665,52.52177],[13.39513,52.52104]]]]},"properties":{"rating":"ungünstig","block":"0101020201000000"}},{"type":"Feature","geometry":{"type":"MultiPolygon","coordinates":[[[[13.39217,52.52002],[13.39231,52.51922],[13.39368,52.51931],[13.39366,52.5194],[13.3936,52.51942],[13.39357,52.51976],[13.39363,52.51979],[13.39536,52.52002],[13.39553,52.5201],[13.39484,52.52063],[13.39466,52.52066],[13.39354,52.52012],[13.39217,52.52002]]]]},"properties":{"rating":"ungünstig","block":"0101020211000000"}},{"type":"Feature","geometry":{"type":"MultiPolygon","coordinates":[[[[13.39397,52.51933],[13.39474,52.51938],[13.39599,52.51968],[13.39601,52.51973],[13.3956,52.52004],[13.39546,52.51996],[13.3937,52.51973],[13.39375,52.51943],[13.39395,52.51945],[13.39397,52.51933]]]]},"properties":{"rating":"ungünstig","block":"0101020221000000"}},{"type":"Feature","geometry":{"type":"MultiPolygon","coordinates":[[[[13.39244,52.51905],[13.39269,52.51752],[13.39514,52.51769],[13.39506,52.51809],[13.39482,52.51807],[13.39458,52.51915],[13.3945,52.51919],[13.39244,52.51905]]]]},"properties":{"rating":"weniger günstig","block":"0101020271000000"}},{"type":"Feature","geometry":{"type":"MultiPolygon","coordinates":[[[[13.3948,52.51921],[13.39499,52.51846],[13.39535,52.51848],[13.39598,52.51853],[13.39591,52.51887],[13.39703,52.51932],[13.39689,52.51946],[13.39657,52.5196],[13.3948,52.51921]]]]},"properties":{"rating":"ungünstig","block":"0101020281000000"}},{"type":"Feature","geometry":{"type":"MultiPolygon","coordinates":[[[[13.39639,52.51765],[13.3977,52.51773],[13.39755,52.51854],[13.39623,52.51845],[13.39639,52.51765]]]]},"properties":{"rating":"weniger günstig","block":"0101020301000000"}},{"type":"Feature","geometry":{"type":"MultiPolygon","coordinates":[[[[13.39804,52.51942],[13.39849,52.51897],[13.39963,52.51942],[13.39915,52.51988],[13.39804,52.51946],[13.39808,52.51943],[13.39804,52.51942]]]]},"properties":{"rating":"ungünstig","block":"0101020331000100"}},{"type":"Feature","geometry":{"type":"MultiPolygon","coordinates":[[[[13.40009,52.52033],[13.39954,52.52007],[13.39947,52.52003],[13.39948,52.52],[13.40109,52.51847],[13.40207,52.5188],[13.40199,52.51882],[13.40171,52.51917],[13.40143,52.51946],[13.40101,52.5198],[13.40056,52.52009],[13.40009,52.52033]]]]},"properties":{"rating":"weniger günstig","block":"0101020341000000"}},{"type":"Feature","geometry":{"type":"MultiPolygon","coordinates":[[[[13.39724,52.51918],[13.39684,52.51906],[13.39617,52.51879],[13.39622,52.51854],[13.39752,52.51863],[13.39747,52.51879],[13.39724,52.51918]]]]},"properties":{"rating":"weniger günstig","block":"0101026071000000"}},{"type":"Feature","geometry":{"type":"MultiPolygon","coordinates":[[[[13.39423,52.51708],[13.3944,52.51607],[13.3945,52.51608],[13.39481,52.5162],[13.39513,52.51624],[13.39525,52.5163],[13.39529,52.51635],[13.39515,52.51715],[13.39443,52.51711],[13.39423,52.51708]]]]},"properties":{"rating":"ungünstig","block":"0101030391000000"}},{"type":"Feature","geometry":{"type":"MultiPolygon","coordinates":[[[[13.39471,52.51521],[13.39534,52.51524],[13.39516,52.51605],[13.39509,52.5161],[13.39499,52.51611],[13.39483,52.51606],[13.39444,52.51591],[13.39461,52.51571],[13.39471,52.51521]]]]},"properties":{"rating":"ungünstig","block":"0101030411000000"}},{"type":"Feature","geometry":{"type":"MultiPolygon","coordinates":[[[[13.39528,52.51716],[13.39568,52.51526],[13.39664,52.51532],[13.39625,52.51722],[13.39528,52.51716]]]]},"properties":{"rating":"ungünstig","block":"0101030421000000"}},{"type":"Feature","geometry":{"type":"MultiPolygon","coordinates":[[[[13.39322,52.5149],[13.39336,52.51421],[13.39682,52.51443],[13.39668,52.51509],[13.39651,52.51512],[13.39322,52.5149]]]]},"properties":{"rating":"sehr ungünstig","block":"0101030431000000"}},{"type":"Feature","geometry":{"type":"MultiPolygon","coordinates":[[[[13.39889,52.51749],[13.39898,52.51743],[13.39921,52.51712],[13.39958,52.51673],[13.39935,52.51663],[13.39943,52.51655],[13.39948,52.51656],[13.39949,52.5165],[13.39945,52.51645],[13.39976,52.51619],[13.39973,52.51615],[13.39985,52.51598],[13.40067,52.51617],[13.39929,52.51752],[13.39889,52.51749]]]]},"properties":{"rating":"weniger günstig","block":"0101030521000000"}},{"type":"Feature","geometry":{"type":"MultiPolygon","coordinates":[[[[13.39949,52.5176],[13.39948,52.51756],[13.4009,52.51621],[13.40097,52.51621],[13.40311,52.51677],[13.40378,52.51708],[13.40229,52.51851],[13.40228,52.51856],[13.39949,52.5176]]]]},"properties":{"rating":"ungünstig","block":"0101030531000000"}},{"type":"Feature","geometry":{"type":"MultiPolygon","coordinates":[[[[13.40282,52.51643],[13.40546,52.51452],[13.40574,52.51448],[13.40588,52.51452],[13.40632,52.51486],[13.40568,52.51521],[13.40535,52.51551],[13.4051,52.5158],[13.40382,52.51688],[13.40282,52.51643]]]]},"properties":{"rating":"ungünstig","block":"0101030541000000"}},{"type":"Feature","geometry":{"type":"MultiPolygon","coordinates":[[[[13.39996,52.51577],[13.40054,52.51496],[13.40114,52.51425],[13.40247,52.51471],[13.40356,52.5153],[13.40231,52.51626],[13.40033,52.51566],[13.40027,52.51572],[13.39996,52.51577]]]]},"properties":{"rating":"weniger günstig","block":"0101030551000000"}},{"type":"Feature","geometry":{"type":"MultiPolygon","coordinates":[[[[13.39817,52.51533],[13.39909,52.51364],[13.39922,52.51346],[13.39934,52.51336],[13.40177,52.51234],[13.40225,52.51264],[13.4012,52.51363],[13.40114,52.51361],[13.40028,52.51459],[13.40002,52.51507],[13.39964,52.51564],[13.39817,52.51533]]]]},"properties":{"rating":"ungünstig","block":"0101030561000000"}},{"type":"Feature","geometry":{"type":"MultiPolygon","coordinates":[[[[13.40269,52.51462],[13.40402,52.5137],[13.40503,52.51424],[13.40374,52.51516],[13.40269,52.51462]]]]},"properties":{"rating":"sehr ungünstig","block":"0101030581000000"}},{"type":"Feature","geometry":{"type":"MultiPolygon","coordinates":[[[[13.39826,52.51653],[13.39817,52.51703],[13.3976,52.51696],[13.39769,52.51649],[13.39826,52.51653]]]]},"properties":{"rating":"ungünstig","block":"0101030781000000"}},{"type":"Feature","geometry":{"type":"MultiPolygon","coordinates":[[[[13.39827,52.51646],[13.3977,52.51643],[13.39778,52.51595],[13.39791,52.51576],[13.39822,52.51583],[13.39836,52.51599],[13.39827,52.51646]]]]},"properties":{"rating":"sehr ungünstig","block":"0101030791000000"}},{"type":"Feature","geometry":{"type":"MultiPolygon","coordinates":[[[[13.39687,52.51513],[13.39705,52.51445],[13.39815,52.51476],[13.39783,52.51529],[13.39718,52.51516],[13.39687,52.51513]]]]},"properties":{"rating":"ungünstig","block":"0101036251000000"}},{"type":"Feature","geometry":{"type":"MultiPolygon","coordinates":[[[[13.39644,52.51723],[13.39665,52.51612],[13.39734,52.51629],[13.39731,52.51644],[13.39748,52.51653],[13.39741,52.51688],[13.39747,52.51688],[13.3974,52.51729],[13.39702,52.51727],[13.39699,52.51732],[13.3965,52.51729],[13.39645,52.51728],[13.39644,52.51723]]]]},"properties":{"rating":"ungünstig","block":"0101036301000000"}},{"type":"Feature","geometry":{"type":"MultiPolygon","coordinates":[[[[13.39668,52.51601],[13.39681,52.51538],[13.39732,52.51545],[13.39694,52.51607],[13.39668,52.51601]]]]},"properties":{"rating":"sehr ungünstig","block":"0101036311000000"}},{"type":"Feature","geometry":{"type":"MultiPolygon","coordinates":[[[[13.39737,52.51546],[13.39786,52.51558],[13.39748,52.51615],[13.3974,52.51617],[13.39699,52.51608],[13.39737,52.51546]]]]},"properties":{"rating":"sehr ungünstig","block":"0101036321000000"}},{"type":"Feature","geometry":{"type":"MultiPolygon","coordinates":[[[[13.39751,52.51729],[13.39755,52.51708],[13.39816,52.51712],[13.39812,52.51733],[13.39751,52.51729]]]]},"properties":{"rating":"weniger günstig","block":"0101036331000000"}},{"type":"Feature","geometry":{"type":"MultiPolygon","coordinates":[[[[13.39851,52.51608],[13.39877,52.51569],[13.3994,52.51585],[13.39914,52.51623],[13.39891,52.51618],[13.39889,52.5162],[13.39851,52.51608]]]]},"properties":{"rating":"ungünstig","block":"0101036361000000"}},{"type":"Feature","geometry":{"type":"MultiPolygon","coordinates":[[[[13.41647,52.51763],[13.4176,52.51804],[13.4174,52.51838],[13.41707,52.51882],[13.41641,52.51952],[13.41523,52.52055],[13.41493,52.52034],[13.41416,52.51991],[13.41473,52.51951],[13.41515,52.51911],[13.41542,52.51868],[13.41564,52.51825],[13.41578,52.51785],[13.41604,52.51748],[13.41647,52.51763]]]]},"properties":{"rating":"sehr ungünstig","block":"0101056111000000"}}]}