{"type":"FeatureCollection","features":[{"type":"Feature","geometry":{"type":"MultiPolygon","coordinates":[[[[13.39232,52.52366],[13.39296,52.52481],[13.39498,52.52433],[13.39455,52.52347],[13.39444,52.52344],[13.39236,52.52363],[13.39232,52.52366]]]]},"properties":{"sealing_pct":99.88,"vg_class":"> 90–100","structure_type":"Commercial and industrial area, large-scale retail, dense development","block":"0101000121000000"}},{"type":"Feature","geometry":{"type":"MultiPolygon","coordinates":[[[[13.39306,52.52508],[13.39379,52.52638],[13.39422,52.52646],[13.39442,52.52608],[13.39426,52.52603],[13.39445,52.52581],[13.39477,52.5256],[13.39439,52.52532],[13.39443,52.5253],[13.39391,52.52488],[13.39306,52.52508]]]]},"properties":{"sealing_pct":89.1,"vg_class":"> 80–90","structure_type":"Closed block development, rear courtyard (1870s - 1918), 5-storey","block":"0101000141000100"}},{"type":"Feature","geometry":{"type":"MultiPolygon","coordinates":[[[[13.39422,52.52646],[13.39524,52.52665],[13.39535,52.52644],[13.39691,52.52671],[13.39704,52.52636],[13.39826,52.52656],[13.39863,52.52576],[13.39532,52.52526],[13.39524,52.5253],[13.39485,52.52502],[13.39485,52.52505],[13.39445,52.52473],[13.39391,52.52488],[13.39443,52.5253],[13.39439,52.52532],[13.39477,52.5256],[13.39445,52.52581],[13.39426,52.52603],[13.39442,52.52608],[13.39422,52.52646]]]]},"properties":{"sealing_pct":73.81,"vg_class":"> 70–80","structure_type":"Hospital","block":"0101000141000200"}},{"type":"Feature","geometry":{"type":"MultiPolygon","coordinates":[[[[13.39445,52.52473],[13.39485,52.52505],[13.39485,52.52502],[13.39524,52.5253],[13.39532,52.52526],[13.39863,52.52576],[13.39873,52.52555],[13.39608,52.52509],[13.39537,52.52448],[13.39445,52.52473]]]]},"properties":{"sealing_pct":93.12,"vg_class":"> 90–100","structure_type":"Closed block development, rear courtyard (1870s - 1918), 5-storey","block":"0101000141000400"}},{"type":"Feature","geometry":{"type":"MultiPolygon","coordinates":[[[[13.39562,52.52442],[13.39625,52.52495],[13.3988,52.52538],[13.39904,52.52488],[13.39949,52.52373],[13.39842,52.52377],[13.39774,52.52386],[13.39661,52.52414],[13.39562,52.52442]]]]},"properties":{"sealing_pct":68.93,"vg_class":"> 60–70","structure_type":"Closed block development, rear courtyard (1870s - 1918), 5-storey","block":"0101000151000000"}},{"type":"Feature","geometry":{"type":"MultiPolygon","coordinates":[[[[13.39541,52.52335],[13.39501,52.52257],[13.39439,52.52269],[13.39499,52.52385],[13.39533,52.52379],[13.39513,52.5234],[13.39541,52.52335]]]]},"properties":{"sealing_pct":72.53,"vg_class":"> 70–80","structure_type":"Commercial and industrial area, large-scale retail, sparse development","block":"0101000161000100"}},{"type":"Feature","geometry":{"type":"MultiPolygon","coordinates":[[[[13.39574,52.52227],[13.39642,52.52356],[13.39665,52.5239],[13.3987,52.52333],[13.39848,52.52296],[13.39856,52.52295],[13.39821,52.52235],[13.39745,52.52224],[13.39693,52.52209],[13.39574,52.52227]],[[13.39672,52.52299],[13.39629,52.52306],[13.39621,52.523],[13.39596,52.52261],[13.39593,52.52249],[13.39699,52.5223],[13.39741,52.52237],[13.39755,52.52259],[13.39695,52.52274],[13.39704,52.52291],[13.39672,52.52299]]]]},"properties":{"sealing_pct":14.47,"vg_class":"> 10–20","structure_type":"Park / green space","block":"0101000161000200"}},{"type":"Feature","geometry":{"type":"MultiPolygon","coordinates":[[[[13.39593,52.52249],[13.39596,52.52261],[13.39621,52.523],[13.39629,52.52306],[13.39704,52.52291],[13.39695,52.52274],[13.39755,52.52259],[13.39741,52.52237],[13.39699,52.5223],[13.39593,52.52249]]]]},"properties":{"sealing_pct":22.09,"vg_class":"> 20–30","structure_type":"Sport facility, uncovered","block":"0101000161000300"}},{"type":"Feature","geometry":{"type":"MultiPolygon","coordinates":[[[[13.39821,52.52235],[13.39856,52.52295],[13.40003,52.52267],[13.40014,52.52245],[13.39821,52.52235]]]]},"properties":{"sealing_pct":85.75,"vg_class":"> 80–90","structure_type":"Rental-flat buildings of the 1990s and later","block":"0101000161000400"}},{"type":"Feature","geometry":{"type":"MultiPolygon","coordinates":[[[[13.3962,52.52315],[13.39574,52.52227],[13.39429,52.52248],[13.39439,52.52269],[13.39501,52.52257],[13.39525,52.523],[13.39541,52.52335],[13.39513,52.5234],[13.39533,52.52379],[13.39499,52.52385],[13.3952,52.52426],[13.39665,52.5239],[13.39642,52.52356],[13.3962,52.52315]]]]},"properties":{"sealing_pct":24.26,"vg_class":"> 20–30","structure_type":"Park / green space","block":"0101000161000500"}},{"type":"Feature","geometry":{"type":"MultiPolygon","coordinates":[[[[13.40011,52.52289],[13.3989,52.52335],[13.3988,52.52344],[13.39877,52.52351],[13.39885,52.52358],[13.3991,52.52361],[13.39911,52.52364],[13.40011,52.5236],[13.4001,52.52357],[13.40139,52.52356],[13.40027,52.52306],[13.40011,52.52289]]]]},"properties":{"sealing_pct":89.55,"vg_class":"> 80–90","structure_type":"Closed block development, rear courtyard (1870s - 1918), 5-storey","block":"0101000171000000"}},{"type":"Feature","geometry":{"type":"MultiPolygon","coordinates":[[[[13.40092,52.52251],[13.40042,52.52246],[13.40026,52.52283],[13.40029,52.52286],[13.40184,52.52353],[13.40191,52.52353],[13.40235,52.52335],[13.40235,52.52332],[13.40092,52.52251]]]]},"properties":{"sealing_pct":89.41,"vg_class":"> 80–90","structure_type":"Heterogeneous inner-city mixed development, post-war gap closure","block":"0101000181000000"}},{"type":"Feature","geometry":{"type":"MultiPolygon","coordinates":[[[[13.40274,52.52336],[13.40345,52.52305],[13.40227,52.52278],[13.40167,52.52267],[13.40165,52.5227],[13.40274,52.52336]]]]},"properties":{"sealing_pct":61.27,"vg_class":"> 60–70","structure_type":"City square / promenade","block":"0101000191000000"}},{"type":"Feature","geometry":{"type":"MultiPolygon","coordinates":[[[[13.40338,52.52485],[13.40387,52.52588],[13.40391,52.52589],[13.40586,52.52498],[13.40582,52.52491],[13.40508,52.5247],[13.40476,52.52466],[13.40443,52.52467],[13.40338,52.52485]]]]},"properties":{"sealing_pct":82.33,"vg_class":"> 80–90","structure_type":"Closed block development, rear courtyard (1870s - 1918), 5-storey","block":"0101000221000000"}},{"type":"Feature","geometry":{"type":"MultiPolygon","coordinates":[[[[13.40514,52.52553],[13.40549,52.52583],[13.40594,52.52563],[13.40636,52.52601],[13.40639,52.526],[13.40652,52.52625],[13.40713,52.52609],[13.40629,52.52504],[13.40514,52.52553]]]]},"properties":{"sealing_pct":78.11,"vg_class":"> 70–80","structure_type":"Closed block development, rear courtyard (1870s - 1918), 5-storey","block":"0101000441000200"}},{"type":"Feature","geometry":{"type":"MultiPolygon","coordinates":[[[[13.39915,52.52503],[13.39856,52.52644],[13.39862,52.52645],[13.39961,52.52608],[13.39957,52.52589],[13.39983,52.52515],[13.39915,52.52503]]]]},"properties":{"sealing_pct":84.04,"vg_class":"> 80–90","structure_type":"Closed block development, rear courtyard (1870s - 1918), 5-storey","block":"0101006011000100"}},{"type":"Feature","geometry":{"type":"MultiPolygon","coordinates":[[[[13.39949,52.52419],[13.39995,52.52426],[13.4,52.52402],[13.39999,52.52391],[13.40077,52.5238],[13.40086,52.52437],[13.40058,52.52519],[13.40096,52.5252],[13.40116,52.52533],[13.40127,52.52547],[13.40184,52.5253],[13.40316,52.52498],[13.40268,52.52416],[13.40233,52.52382],[13.40176,52.5237],[13.3997,52.52372],[13.39949,52.52419]]]]},"properties":{"sealing_pct":86.93,"vg_class":"> 80–90","structure_type":"Dense block development, closed rear courtyard (1870s - 1918), 5 - 6-storey","block":"0101006011000200"}},{"type":"Feature","geometry":{"type":"MultiPolygon","coordinates":[[[[13.39941,52.5244],[13.4008,52.5246],[13.40086,52.52437],[13.40077,52.5238],[13.39999,52.52391],[13.4,52.52402],[13.39995,52.52426],[13.39949,52.52419],[13.39941,52.5244]]]]},"properties":{"sealing_pct":10.84,"vg_class":"> 10–20","structure_type":"Cemetery","block":"0101006011000300"}},{"type":"Feature","geometry":{"type":"MultiPolygon","coordinates":[[[[13.39915,52.52503],[13.39983,52.52515],[13.39957,52.52589],[13.39961,52.52608],[13.40127,52.52547],[13.40116,52.52533],[13.40096,52.5252],[13.40058,52.52519],[13.4008,52.5246],[13.39941,52.5244],[13.39915,52.52503]]]]},"properties":{"sealing_pct":35.97,"vg_class":"> 30–40","structure_type":"Church","block":"0101006011000400"}},{"type":"Feature","geometry":{"type":"MultiPolygon","coordinates":[[[[13.39834,52.52723],[13.39896,52.52733],[13.4035,52.52607],[13.40347,52.52564],[13.40318,52.52506],[13.40263,52.52518],[13.40147,52.52551],[13.40091,52.52569],[13.39846,52.52662],[13.39828,52.52713],[13.39834,52.52723]]]]},"properties":{"sealing_pct":86.42,"vg_class":"> 80–90","structure_type":"Closed block development, rear courtyard (1870s - 1918), 5-storey","block":"0101006021000000"}},{"type":"Feature","geometry":{"type":"MultiPolygon","coordinates":[[[[13.40323,52.52461],[13.40477,52.52449],[13.40647,52.52487],[13.40697,52.52478],[13.40773,52.52451],[13.40726,52.52382],[13.40711,52.52353],[13.40642,52.52359],[13.40523,52.52355],[13.40428,52.52338],[13.40359,52.5232],[13.40264,52.52362],[13.40323,52.52461]]]]},"properties":{"sealing_pct":83.8,"vg_class":"> 80–90","structure_type":"Closed block development, rear courtyard (1870s - 1918), 5-storey","block":"0101006031000000"}},{"type":"Feature","geometry":{"type":"MultiPolygon","coordinates":[[[[13.39429,52.52248],[13.39693,52.52209],[13.39637,52.52182],[13.39609,52.52191],[13.39566,52.52199],[13.39398,52.52221],[13.39418,52.5225],[13.39429,52.52248]]]]},"properties":{"sealing_pct":null,"vg_class":"keine Angabe","structure_type":"Body of water","block":"0101008121000000"}},{"type":"Feature","geometry":{"type":"MultiPolygon","coordinates":[[[[13.40056,52.5223],[13.40051,52.52227],[13.40042,52.52246],[13.40092,52.52251],[13.40056,52.5223]]]]},"properties":{"sealing_pct":100,"vg_class":"> 90–100","structure_type":"Track area","block":"0101009001000000"}},{"type":"Feature","geometry":{"type":"MultiPolygon","coordinates":[[[[13.41322,52.52523],[13.41232,52.52554],[13.41298,52.52651],[13.41354,52.52668],[13.4136,52.52665],[13.41343,52.52638],[13.41357,52.52635],[13.41389,52.52678],[13.41416,52.52687],[13.41456,52.52676],[13.41469,52.52669],[13.41483,52.52656],[13.41474,52.52644],[13.4143,52.52603],[13.41329,52.52524],[13.41322,52.52523]]]]},"properties":{"sealing_pct":68.54,"vg_class":"> 60–70","structure_type":"Administrative","block":"0101010051000000"}},{"type":"Feature","geometry":{"type":"MultiPolygon","coordinates":[[[[13.4066,52.52501],[13.40691,52.52538],[13.40688,52.5254],[13.40822,52.52702],[13.40872,52.52687],[13.40779,52.52467],[13.40707,52.52493],[13.4066,52.52501]]]]},"properties":{"sealing_pct":84.05,"vg_class":"> 80–90","structure_type":"Closed block development, rear courtyard (1870s - 1918), 5-storey","block":"0101010121000000"}},{"type":"Feature","geometry":{"type":"MultiPolygon","coordinates":[[[[13.40807,52.52455],[13.40902,52.52678],[13.4097,52.52661],[13.40885,52.5243],[13.4088,52.5243],[13.40807,52.52455]]]]},"properties":{"sealing_pct":72.34,"vg_class":"> 70–80","structure_type":"Closed block development, rear courtyard (1870s - 1918), 5-storey","block":"0101010131000000"}},{"type":"Feature","geometry":{"type":"MultiPolygon","coordinates":[[[[13.40906,52.52427],[13.40933,52.52495],[13.40977,52.52622],[13.41089,52.52587],[13.40954,52.52415],[13.40906,52.52427]]]]},"properties":{"sealing_pct":82.15,"vg_class":"> 80–90","structure_type":"Closed block development, rear courtyard (1870s - 1918), 5-storey","block":"0101010141000000"}},{"type":"Feature","geometry":{"type":"MultiPolygon","coordinates":[[[[13.41115,52.52577],[13.41201,52.5255],[13.41174,52.52518],[13.41195,52.52512],[13.41222,52.52543],[13.41312,52.52513],[13.4118,52.52412],[13.41067,52.5241],[13.41003,52.52418],[13.40998,52.52422],[13.41115,52.52577]]]]},"properties":{"sealing_pct":80.29,"vg_class":"> 80–90","structure_type":"Core area","block":"0101010151000000"}},{"type":"Feature","geometry":{"type":"MultiPolygon","coordinates":[[[[13.40736,52.52349],[13.40795,52.52435],[13.40802,52.52437],[13.40939,52.52396],[13.40878,52.52308],[13.40799,52.52335],[13.40736,52.52349]]]]},"properties":{"sealing_pct":85.52,"vg_class":"> 80–90","structure_type":"De-cored block development, post-war gap closure","block":"0101010161000000"}},{"type":"Feature","geometry":{"type":"MultiPolygon","coordinates":[[[[13.40966,52.52271],[13.40905,52.52296],[13.40969,52.52386],[13.41112,52.52375],[13.41118,52.5237],[13.41115,52.52365],[13.40996,52.52294],[13.40966,52.52271]]]]},"properties":{"sealing_pct":92.62,"vg_class":"> 90–100","structure_type":"Large estate with tower high-rise buildings (1960s - 1990s), 4 - 11-storey and more","block":"0101010171000000"}},{"type":"Feature","geometry":{"type":"MultiPolygon","coordinates":[[[[13.41492,52.52578],[13.41573,52.52645],[13.41688,52.52594],[13.41689,52.52591],[13.41617,52.52529],[13.41492,52.52578]]]]},"properties":{"sealing_pct":90.04,"vg_class":"> 90–100","structure_type":"Core area","block":"0101010181000000"}},{"type":"Feature","geometry":{"type":"MultiPolygon","coordinates":[[[[13.4142,52.52276],[13.41537,52.52227],[13.41568,52.5221],[13.41576,52.52192],[13.41572,52.52177],[13.41504,52.52109],[13.41481,52.52117],[13.41452,52.52164],[13.41415,52.5219],[13.41275,52.52251],[13.41193,52.52198],[13.41349,52.52086],[13.41446,52.52098],[13.4147,52.52077],[13.41447,52.52058],[13.41411,52.52035],[13.41375,52.52021],[13.4136,52.52038],[13.41293,52.52093],[13.41188,52.52172],[13.41035,52.52263],[13.41167,52.52344],[13.41194,52.52351],[13.4122,52.52352],[13.41266,52.52339],[13.4142,52.52276]]]]},"properties":{"sealing_pct":97.5,"vg_class":"> 90–100","structure_type":"Core area","block":"0101010211000100"}},{"type":"Feature","geometry":{"type":"MultiPolygon","coordinates":[[[[13.41415,52.5219],[13.41452,52.52164],[13.41481,52.52117],[13.41504,52.52109],[13.4147,52.52077],[13.41446,52.52098],[13.41349,52.52086],[13.41193,52.52198],[13.41275,52.52251],[13.41415,52.5219]]]]},"properties":{"sealing_pct":97.76,"vg_class":"> 90–100","structure_type":"City square / promenade","block":"0101010211000200"}},{"type":"Feature","geometry":{"type":"MultiPolygon","coordinates":[[[[13.40642,52.52062],[13.4094,52.52215],[13.41017,52.52165],[13.40967,52.52131],[13.40975,52.52127],[13.41026,52.5216],[13.41097,52.52115],[13.40949,52.52043],[13.41005,52.52028],[13.40963,52.52009],[13.40785,52.52055],[13.40743,52.52036],[13.40667,52.52034],[13.40647,52.52042],[13.40642,52.52062]]]]},"properties":{"sealing_pct":79.02,"vg_class":"> 70–80","structure_type":"Other and miscellaneous public facility / special use area","block":"0101010221000100"}},{"type":"Feature","geometry":{"type":"MultiPolygon","coordinates":[[[[13.40549,52.51982],[13.40522,52.52],[13.40642,52.52062],[13.40647,52.52042],[13.40667,52.52034],[13.40743,52.52036],[13.40785,52.52055],[13.40963,52.52009],[13.41005,52.52028],[13.40949,52.52043],[13.41097,52.52115],[13.41166,52.52071],[13.40725,52.5186],[13.40549,52.51982]]]]},"properties":{"sealing_pct":55.88,"vg_class":"> 50–60","structure_type":"City square / promenade","block":"0101010221000200"}},{"type":"Feature","geometry":{"type":"MultiPolygon","coordinates":[[[[13.39724,52.522],[13.39769,52.52212],[13.39848,52.52224],[13.40023,52.52229],[13.40039,52.52197],[13.40036,52.52164],[13.40064,52.52091],[13.4002,52.52129],[13.39997,52.52137],[13.39724,52.522]]]]},"properties":{"sealing_pct":37.41,"vg_class":"> 30–40","structure_type":"Park / green space","block":"0101010261000000"}},{"type":"Feature","geometry":{"type":"MultiPolygon","coordinates":[[[[13.4009,52.52063],[13.40277,52.52128],[13.40338,52.5208],[13.40315,52.52069],[13.40172,52.52018],[13.40185,52.52008],[13.40268,52.52037],[13.40327,52.51972],[13.40349,52.51979],[13.40287,52.52049],[13.40348,52.52072],[13.40437,52.52008],[13.40256,52.51914],[13.40265,52.51904],[13.40238,52.51893],[13.40193,52.51953],[13.4009,52.52063]]]]},"properties":{"sealing_pct":95.09,"vg_class":"> 90–100","structure_type":"Core area","block":"0101010271000000"}},{"type":"Feature","geometry":{"type":"MultiPolygon","coordinates":[[[[13.40259,52.51872],[13.40481,52.51976],[13.40675,52.51839],[13.40672,52.51834],[13.40416,52.51727],[13.40286,52.51855],[13.40277,52.51855],[13.40259,52.51872]]]]},"properties":{"sealing_pct":29.17,"vg_class":"> 20–30","structure_type":"Park / green space","block":"0101010281000000"}},{"type":"Feature","geometry":{"type":"MultiPolygon","coordinates":[[[[13.40444,52.51716],[13.40537,52.51756],[13.40636,52.51668],[13.40576,52.5164],[13.40562,52.51651],[13.40524,52.51645],[13.40444,52.51716]]]]},"properties":{"sealing_pct":84.07,"vg_class":"> 80–90","structure_type":"Large estate with tower high-rise buildings (1960s - 1990s), 4 - 11-storey and more","block":"0101010291000000"}},{"type":"Feature","geometry":{"type":"MultiPolygon","coordinates":[[[[13.40685,52.51642],[13.40696,52.51653],[13.40746,52.51639],[13.40739,52.51628],[13.40725,52.51619],[13.40685,52.51642]]]]},"properties":{"sealing_pct":98.56,"vg_class":"> 90–100","structure_type":"Culture","block":"0101010311000000"}},{"type":"Feature","geometry":{"type":"MultiPolygon","coordinates":[[[[13.40656,52.51669],[13.40771,52.51724],[13.40778,52.51724],[13.40815,52.51691],[13.40795,52.51675],[13.4075,52.51652],[13.4074,52.5165],[13.40696,52.5166],[13.40677,52.5165],[13.40656,52.51669]]]]},"properties":{"sealing_pct":67.14,"vg_class":"> 60–70","structure_type":"Church","block":"0101010331000000"}},{"type":"Feature","geometry":{"type":"MultiPolygon","coordinates":[[[[13.40708,52.51814],[13.40743,52.51785],[13.4072,52.51776],[13.40706,52.51727],[13.40722,52.51711],[13.40649,52.51675],[13.40562,52.51754],[13.40708,52.51814]]]]},"properties":{"sealing_pct":79.93,"vg_class":"> 70–80","structure_type":"Large estate with tower high-rise buildings (1960s - 1990s), 4 - 11-storey and more","block":"0101010341000000"}},{"type":"Feature","geometry":{"type":"MultiPolygon","coordinates":[[[[13.40756,52.51833],[13.40868,52.51888],[13.40951,52.51828],[13.40838,52.51771],[13.40756,52.51833]]]]},"properties":{"sealing_pct":99.88,"vg_class":"> 90–100","structure_type":"Administrative","block":"0101010351000000"}},{"type":"Feature","geometry":{"type":"MultiPolygon","coordinates":[[[[13.4086,52.51761],[13.40962,52.51814],[13.40983,52.51798],[13.40945,52.51764],[13.40892,52.51736],[13.4086,52.51761]]]]},"properties":{"sealing_pct":85.43,"vg_class":"> 80–90","structure_type":"Parking area","block":"0101010361000000"}},{"type":"Feature","geometry":{"type":"MultiPolygon","coordinates":[[[[13.41007,52.51815],[13.40886,52.519],[13.41153,52.52033],[13.41214,52.51984],[13.41208,52.51982],[13.41237,52.51956],[13.41181,52.5193],[13.41129,52.519],[13.41075,52.51863],[13.41028,52.51826],[13.41007,52.51815]]]]},"properties":{"sealing_pct":92.64,"vg_class":"> 90–100","structure_type":"Large estate with tower high-rise buildings (1960s - 1990s), 4 - 11-storey and more","block":"0101010371000100"}},{"type":"Feature","geometry":{"type":"MultiPolygon","coordinates":[[[[13.41153,52.52033],[13.41221,52.52066],[13.41227,52.52062],[13.41231,52.52064],[13.41268,52.52043],[13.41336,52.52],[13.41237,52.51956],[13.41208,52.51982],[13.41214,52.51984],[13.41153,52.52033]]]]},"properties":{"sealing_pct":94.66,"vg_class":"> 90–100","structure_type":"Core area","block":"0101010371000200"}},{"type":"Feature","geometry":{"type":"MultiPolygon","coordinates":[[[[13.41283,52.51914],[13.4138,52.51959],[13.41384,52.51956],[13.41392,52.51961],[13.41435,52.51934],[13.4148,52.51886],[13.415,52.51855],[13.41519,52.51808],[13.41558,52.51737],[13.41444,52.5171],[13.41391,52.51804],[13.41366,52.51839],[13.41317,52.51887],[13.41283,52.51914]]]]},"properties":{"sealing_pct":89.04,"vg_class":"> 80–90","structure_type":"Administrative","block":"0101010381000000"}},{"type":"Feature","geometry":{"type":"MultiPolygon","coordinates":[[[[13.4122,52.51804],[13.41171,52.51856],[13.41259,52.51903],[13.41297,52.51873],[13.41358,52.51804],[13.41488,52.51593],[13.41451,52.5159],[13.41405,52.51664],[13.41369,52.51746],[13.41367,52.51766],[13.41312,52.51828],[13.41308,52.5183],[13.41303,52.51826],[13.4122,52.51804]]]]},"properties":{"sealing_pct":51.3,"vg_class":"> 50–60","structure_type":"Culture","block":"0101010391000100"}},{"type":"Feature","geometry":{"type":"MultiPolygon","coordinates":[[[[13.4122,52.51804],[13.41303,52.51826],[13.41308,52.5183],[13.41312,52.51828],[13.41306,52.51824],[13.41325,52.51797],[13.4135,52.5177],[13.41361,52.51744],[13.41264,52.51729],[13.41252,52.51755],[13.4122,52.51804]]]]},"properties":{"sealing_pct":79.15,"vg_class":"> 70–80","structure_type":"Culture","block":"0101010391000200"}},{"type":"Feature","geometry":{"type":"MultiPolygon","coordinates":[[[[13.41035,52.51761],[13.41142,52.51846],[13.41175,52.51811],[13.41197,52.51782],[13.41212,52.51758],[13.41222,52.51732],[13.4106,52.5171],[13.41035,52.51761]]]]},"properties":{"sealing_pct":83.51,"vg_class":"> 80–90","structure_type":"Administrative","block":"0101010401000000"}},{"type":"Feature","geometry":{"type":"MultiPolygon","coordinates":[[[[13.41009,52.51741],[13.41016,52.51741],[13.41021,52.51738],[13.41049,52.51671],[13.41055,52.51647],[13.41053,52.51626],[13.41039,52.51625],[13.41004,52.51643],[13.4095,52.51685],[13.40952,52.5169],[13.41009,52.51741]]]]},"properties":{"sealing_pct":61.87,"vg_class":"> 60–70","structure_type":"Other traffic area","block":"0101010411000000"}},{"type":"Feature","geometry":{"type":"MultiPolygon","coordinates":[[[[13.40875,52.51629],[13.40916,52.5166],[13.40933,52.51662],[13.40994,52.51621],[13.40921,52.51634],[13.40875,52.51629]]]]},"properties":{"sealing_pct":52.87,"vg_class":"> 50–60","structure_type":"Other traffic area","block":"0101010421000000"}},{"type":"Feature","geometry":{"type":"MultiPolygon","coordinates":[[[[13.41078,52.5162],[13.4107,52.51692],[13.41225,52.51713],[13.41228,52.51653],[13.41223,52.51616],[13.41214,52.51599],[13.41078,52.5162]]]]},"properties":{"sealing_pct":93.52,"vg_class":"> 90–100","structure_type":"Administrative","block":"0101010431000000"}},{"type":"Feature","geometry":{"type":"MultiPolygon","coordinates":[[[[13.41246,52.51568],[13.41329,52.5156],[13.41491,52.51566],[13.41502,52.51533],[13.41332,52.51509],[13.41236,52.515],[13.41233,52.51502],[13.41237,52.51533],[13.41246,52.51568]]]]},"properties":{"sealing_pct":97.2,"vg_class":"> 90–100","structure_type":"Administrative","block":"0101010451000000"}},{"type":"Feature","geometry":{"type":"MultiPolygon","coordinates":[[[[13.41259,52.51679],[13.41261,52.5172],[13.41365,52.51732],[13.41386,52.51685],[13.41374,52.51684],[13.41377,52.51674],[13.41259,52.51679]]]]},"properties":{"sealing_pct":54.44,"vg_class":"> 50–60","structure_type":"Church","block":"0101010461000100"}},{"type":"Feature","geometry":{"type":"MultiPolygon","coordinates":[[[[13.41244,52.51593],[13.41259,52.51679],[13.41377,52.51674],[13.41374,52.51684],[13.41386,52.51685],[13.41439,52.5159],[13.41353,52.51586],[13.41244,52.51593]]]]},"properties":{"sealing_pct":92.08,"vg_class":"> 90–100","structure_type":"Core area","block":"0101010461000200"}},{"type":"Feature","geometry":{"type":"MultiPolygon","coordinates":[[[[13.41514,52.51594],[13.4145,52.51692],[13.41572,52.5172],[13.41636,52.5166],[13.41662,52.5163],[13.41514,52.51594]]]]},"properties":{"sealing_pct":99.35,"vg_class":"> 90–100","structure_type":"Security and order","block":"0101010471000000"}},{"type":"Feature","geometry":{"type":"MultiPolygon","coordinates":[[[[13.41533,52.51568],[13.41579,52.51568],[13.41699,52.51561],[13.41717,52.51535],[13.41546,52.51539],[13.4153,52.51565],[13.41533,52.51568]]]]},"properties":{"sealing_pct":49.92,"vg_class":"> 40–50","structure_type":"Park / green space","block":"0101010481000000"}},{"type":"Feature","geometry":{"type":"MultiPolygon","coordinates":[[[[13.41444,52.52475],[13.41436,52.52469],[13.41446,52.52464],[13.41407,52.52432],[13.41342,52.5246],[13.41385,52.52501],[13.4147,52.5257],[13.41529,52.52545],[13.41444,52.52475]]]]},"properties":{"sealing_pct":95.8,"vg_class":"> 90–100","structure_type":"Core area","block":"0101010501000000"}},{"type":"Feature","geometry":{"type":"MultiPolygon","coordinates":[[[[13.4151,52.52422],[13.41485,52.524],[13.41427,52.52425],[13.41554,52.52535],[13.41607,52.52511],[13.4151,52.52422]]]]},"properties":{"sealing_pct":81.95,"vg_class":"> 80–90","structure_type":"Rental-flat buildings of the 1990s and later","block":"0101010511000000"}},{"type":"Feature","geometry":{"type":"MultiPolygon","coordinates":[[[[13.41595,52.52332],[13.41576,52.52316],[13.41311,52.52432],[13.41329,52.52448],[13.41595,52.52332]]]]},"properties":{"sealing_pct":99.8,"vg_class":"> 90–100","structure_type":"Core area","block":"0101010531000000"}},{"type":"Feature","geometry":{"type":"MultiPolygon","coordinates":[[[[13.41262,52.52371],[13.41277,52.52385],[13.41628,52.52233],[13.41629,52.5223],[13.41618,52.5222],[13.41611,52.5222],[13.41518,52.52258],[13.41262,52.52371]]]]},"properties":{"sealing_pct":81.63,"vg_class":"> 80–90","structure_type":"Other traffic area","block":"0101015021000000"}},{"type":"Feature","geometry":{"type":"MultiPolygon","coordinates":[[[[13.40396,52.52294],[13.4047,52.52315],[13.40473,52.52311],[13.40552,52.52321],[13.40617,52.52319],[13.40678,52.52309],[13.40673,52.52298],[13.40621,52.52272],[13.40621,52.52268],[13.40575,52.52245],[13.40544,52.52232],[13.40537,52.52238],[13.40513,52.52226],[13.40508,52.52229],[13.40468,52.52208],[13.40396,52.52294]]]]},"properties":{"sealing_pct":57.56,"vg_class":"> 50–60","structure_type":"New school (built after 1945)","block":"0101016001000000"}},{"type":"Feature","geometry":{"type":"MultiPolygon","coordinates":[[[[13.40872,52.52271],[13.40912,52.52251],[13.40875,52.52232],[13.40869,52.5226],[13.40872,52.52271]]]]},"properties":{"sealing_pct":59.81,"vg_class":"> 50–60","structure_type":"Other traffic area","block":"0101016011000000"}},{"type":"Feature","geometry":{"type":"MultiPolygon","coordinates":[[[[13.40734,52.51716],[13.40722,52.51729],[13.40733,52.51764],[13.40763,52.51776],[13.40855,52.5169],[13.40844,52.5168],[13.40829,52.51687],[13.40831,52.51689],[13.40779,52.51735],[13.40734,52.51716]]]]},"properties":{"sealing_pct":91.47,"vg_class":"> 90–100","structure_type":"Large estate with tower high-rise buildings (1960s - 1990s), 4 - 11-storey and more","block":"0101016021000000"}},{"type":"Feature","geometry":{"type":"MultiPolygon","coordinates":[[[[13.40787,52.51625],[13.4075,52.5164],[13.40774,52.51659],[13.40815,52.51679],[13.40835,52.51669],[13.40787,52.51625]]]]},"properties":{"sealing_pct":94.33,"vg_class":"> 90–100","structure_type":"Core area","block":"0101016031000000"}},{"type":"Feature","geometry":{"type":"MultiPolygon","coordinates":[[[[13.40736,52.5161],[13.40754,52.51625],[13.4078,52.51616],[13.40756,52.51593],[13.40739,52.51597],[13.40746,52.51604],[13.40736,52.5161]]]]},"properties":{"sealing_pct":17.16,"vg_class":"> 10–20","structure_type":"City square / promenade","block":"0101016041000000"}},{"type":"Feature","geometry":{"type":"MultiPolygon","coordinates":[[[[13.40703,52.51559],[13.40647,52.51583],[13.40634,52.51582],[13.4057,52.51611],[13.4059,52.51628],[13.40587,52.51634],[13.40645,52.5166],[13.40735,52.51588],[13.40703,52.51559]]]]},"properties":{"sealing_pct":87.29,"vg_class":"> 80–90","structure_type":"Large estate with tower high-rise buildings (1960s - 1990s), 4 - 11-storey and more","block":"0101016051000000"}},{"type":"Feature","geometry":{"type":"MultiPolygon","coordinates":[[[[13.40781,52.51546],[13.4083,52.51582],[13.40858,52.51599],[13.4089,52.5161],[13.40903,52.51613],[13.40968,52.51609],[13.40941,52.51527],[13.41027,52.51517],[13.41023,52.51505],[13.40949,52.51512],[13.40817,52.51534],[13.40781,52.51546]]]]},"properties":{"sealing_pct":98.18,"vg_class":"> 90–100","structure_type":"Core area","block":"0101016061000000"}},{"type":"Feature","geometry":{"type":"MultiPolygon","coordinates":[[[[13.40981,52.51614],[13.41046,52.51603],[13.41027,52.5153],[13.40961,52.51538],[13.40981,52.51614]]]]},"properties":{"sealing_pct":96.03,"vg_class":"> 90–100","structure_type":"Core area","block":"0101016071000000"}},{"type":"Feature","geometry":{"type":"MultiPolygon","coordinates":[[[[13.41046,52.51502],[13.41071,52.51597],[13.41219,52.51572],[13.41212,52.51496],[13.41178,52.51495],[13.41174,52.51492],[13.41046,52.51502]]]]},"properties":{"sealing_pct":88.86,"vg_class":"> 80–90","structure_type":"Core area","block":"0101016081000000"}},{"type":"Feature","geometry":{"type":"MultiPolygon","coordinates":[[[[13.41744,52.52454],[13.41595,52.52332],[13.41574,52.52342],[13.41604,52.52369],[13.41589,52.52375],[13.4157,52.5236],[13.41501,52.52391],[13.41624,52.52505],[13.41744,52.52454]]]]},"properties":{"sealing_pct":98.74,"vg_class":"> 90–100","structure_type":"Security and order","block":"0101016101000000"}},{"type":"Feature","geometry":{"type":"MultiPolygon","coordinates":[[[[13.4048,52.52193],[13.40579,52.52233],[13.4069,52.52288],[13.40706,52.52301],[13.4071,52.523],[13.40713,52.52306],[13.40766,52.52293],[13.40833,52.52265],[13.40845,52.52219],[13.40754,52.52173],[13.40747,52.52178],[13.40608,52.52107],[13.40615,52.52101],[13.40485,52.52036],[13.40452,52.52061],[13.40447,52.52059],[13.40378,52.52111],[13.40375,52.5211],[13.40348,52.52133],[13.40346,52.52132],[13.40334,52.52141],[13.4036,52.52155],[13.4042,52.52174],[13.40463,52.52148],[13.40425,52.52121],[13.4043,52.52117],[13.40473,52.52147],[13.40551,52.52103],[13.40572,52.52114],[13.4056,52.52122],[13.40557,52.5212],[13.40444,52.52182],[13.4048,52.52193]]]]},"properties":{"sealing_pct":64.8,"vg_class":"> 60–70","structure_type":"Large estate with tower high-rise buildings (1960s - 1990s), 4 - 11-storey and more","block":"0101016131000000"}},{"type":"Feature","geometry":{"type":"MultiPolygon","coordinates":[[[[13.40077,52.52198],[13.40079,52.52209],[13.40143,52.52216],[13.40179,52.52215],[13.40169,52.52202],[13.40218,52.52146],[13.40253,52.52155],[13.40266,52.5214],[13.40104,52.52086],[13.40089,52.5211],[13.4007,52.52163],[13.40077,52.52198]]]]},"properties":{"sealing_pct":89.56,"vg_class":"> 80–90","structure_type":"De-cored block development, post-war gap closure","block":"0101016151000000"}},{"type":"Feature","geometry":{"type":"MultiPolygon","coordinates":[[[[13.40292,52.5215],[13.40235,52.52208],[13.40233,52.52221],[13.40239,52.52229],[13.40251,52.52236],[13.40253,52.52234],[13.40359,52.52261],[13.40357,52.52264],[13.40375,52.52275],[13.40438,52.52198],[13.40292,52.5215]]]]},"properties":{"sealing_pct":98.21,"vg_class":"> 90–100","structure_type":"Core area","block":"0101016161000000"}},{"type":"Feature","geometry":{"type":"MultiPolygon","coordinates":[[[[13.39665,52.52177],[13.39724,52.522],[13.39997,52.52137],[13.4002,52.52129],[13.40064,52.52091],[13.39976,52.52048],[13.39869,52.5213],[13.39773,52.52154],[13.39665,52.52177]]]]},"properties":{"sealing_pct":null,"vg_class":"keine Angabe","structure_type":"Body of water","block":"0101018051000000"}},{"type":"Feature","geometry":{"type":"MultiPolygon","coordinates":[[[[13.40009,52.52033],[13.4009,52.52063],[13.40193,52.51953],[13.40238,52.51893],[13.40207,52.5188],[13.40199,52.51882],[13.40171,52.51917],[13.40143,52.51946],[13.40078,52.51996],[13.40009,52.52033]]]]},"properties":{"sealing_pct":null,"vg_class":"keine Angabe","structure_type":"Body of water","block":"0101018061000000"}},{"type":"Feature","geometry":{"type":"MultiPolygon","coordinates":[[[[13.40228,52.51856],[13.40259,52.51872],[13.40277,52.51855],[13.40286,52.51855],[13.40416,52.51727],[13.40378,52.51708],[13.40229,52.51851],[13.40228,52.51856]]]]},"properties":{"sealing_pct":null,"vg_class":"keine Angabe","structure_type":"Body of water","block":"0101018071000000"}},{"type":"Feature","geometry":{"type":"MultiPolygon","coordinates":[[[[13.40382,52.51688],[13.40435,52.51711],[13.40504,52.51652],[13.40564,52.51607],[13.40701,52.51545],[13.40632,52.51486],[13.40568,52.51521],[13.40535,52.51551],[13.4051,52.5158],[13.40382,52.51688]]]]},"properties":{"sealing_pct":null,"vg_class":"keine Angabe","structure_type":"Body of water","block":"0101018081000000"}},{"type":"Feature","geometry":{"type":"MultiPolygon","coordinates":[[[[13.40949,52.51424],[13.40911,52.51431],[13.4084,52.51458],[13.4071,52.51466],[13.40694,52.5147],[13.40765,52.5153],[13.40917,52.51501],[13.41131,52.51484],[13.41214,52.51484],[13.41337,52.51491],[13.41344,52.51496],[13.41441,52.51505],[13.41509,52.51506],[13.41509,52.51502],[13.41545,52.515],[13.41548,52.51512],[13.41555,52.51518],[13.41688,52.51513],[13.41752,52.51461],[13.41759,52.51458],[13.41747,52.51408],[13.41718,52.51414],[13.41715,52.5142],[13.41645,52.51433],[13.41484,52.51444],[13.4146,52.51442],[13.41415,52.51435],[13.41108,52.51338],[13.411,52.51339],[13.41052,52.51365],[13.41086,52.51396],[13.4103,52.51417],[13.40949,52.51424]]]]},"properties":{"sealing_pct":null,"vg_class":"keine Angabe","structure_type":"Body of water","block":"0101018091000000"}},{"type":"Feature","geometry":{"type":"MultiPolygon","coordinates":[[[[13.39693,52.52209],[13.39745,52.52224],[13.39856,52.52239],[13.40014,52.52245],[13.40023,52.52229],[13.39848,52.52224],[13.39769,52.52212],[13.39724,52.522],[13.39693,52.52209]]]]},"properties":{"sealing_pct":94.86,"vg_class":"> 90–100","structure_type":"Track area","block":"0101019011000000"}},{"type":"Feature","geometry":{"type":"MultiPolygon","coordinates":[[[[13.40251,52.52254],[13.40145,52.52235],[13.40056,52.5223],[13.40099,52.52255],[13.40152,52.5226],[13.40156,52.52246],[13.40232,52.52258],[13.40279,52.5227],[13.40315,52.5228],[13.40308,52.5229],[13.40382,52.52308],[13.40396,52.52294],[13.40327,52.52272],[13.40251,52.52254]]]]},"properties":{"sealing_pct":99.56,"vg_class":"> 90–100","structure_type":"Track area","block":"0101019021000100"}},{"type":"Feature","geometry":{"type":"MultiPolygon","coordinates":[[[[13.40152,52.5226],[13.40297,52.52291],[13.403,52.52288],[13.40308,52.5229],[13.40315,52.5228],[13.40232,52.52258],[13.40156,52.52246],[13.40152,52.5226]]]]},"properties":{"sealing_pct":100,"vg_class":"> 90–100","structure_type":"Railway station and railway ground, without track area","block":"0101019021000200"}},{"type":"Feature","geometry":{"type":"MultiPolygon","coordinates":[[[[13.40382,52.52308],[13.40449,52.52325],[13.40517,52.52338],[13.40589,52.52344],[13.40669,52.5234],[13.40724,52.52333],[13.40813,52.52311],[13.4099,52.5224],[13.40962,52.52226],[13.4085,52.5228],[13.40833,52.52265],[13.40766,52.52293],[13.40691,52.52311],[13.40688,52.52307],[13.40617,52.52319],[13.40552,52.52321],[13.40473,52.52311],[13.4047,52.52315],[13.40396,52.52294],[13.40382,52.52308]]]]},"properties":{"sealing_pct":91.54,"vg_class":"> 90–100","structure_type":"Track area","block":"0101019031000000"}},{"type":"Feature","geometry":{"type":"MultiPolygon","coordinates":[[[[13.41194,52.52083],[13.41226,52.52102],[13.41256,52.52077],[13.41259,52.52078],[13.41271,52.52063],[13.41357,52.52009],[13.41336,52.52],[13.41268,52.52043],[13.41231,52.52064],[13.41227,52.52062],[13.41194,52.52083]]]]},"properties":{"sealing_pct":100,"vg_class":"> 90–100","structure_type":"Track area","block":"0101019041000100"}},{"type":"Feature","geometry":{"type":"MultiPolygon","coordinates":[[[[13.40962,52.52226],[13.4099,52.5224],[13.41057,52.52214],[13.41062,52.52216],[13.41212,52.5212],[13.41228,52.52108],[13.41223,52.52104],[13.41226,52.52102],[13.41194,52.52083],[13.41186,52.52084],[13.40962,52.52226]]]]},"properties":{"sealing_pct":100,"vg_class":"> 90–100","structure_type":"Railway station and railway ground, without track area","block":"0101019041000200"}},{"type":"Feature","geometry":{"type":"MultiPolygon","coordinates":[[[[13.41336,52.52],[13.41357,52.52009],[13.41448,52.51947],[13.41493,52.51906],[13.41518,52.5187],[13.41568,52.5176],[13.41579,52.51743],[13.41659,52.51665],[13.41684,52.51634],[13.41709,52.5159],[13.41745,52.51538],[13.41786,52.51501],[13.41819,52.51482],[13.41814,52.51456],[13.41781,52.51474],[13.41728,52.5152],[13.41699,52.51561],[13.41662,52.5163],[13.41636,52.5166],[13.41572,52.5172],[13.41558,52.51737],[13.41519,52.51808],[13.415,52.51855],[13.4148,52.51886],[13.41435,52.51934],[13.41336,52.52]]]]},"properties":{"sealing_pct":99.95,"vg_class":"> 90–100","structure_type":"Track area","block":"0101019051000000"}},{"type":"Feature","geometry":{"type":"MultiPolygon","coordinates":[[[[13.3937,52.52201],[13.3937,52.52208],[13.39358,52.52212],[13.3936,52.52219],[13.39369,52.5222],[13.39378,52.52218],[13.39384,52.52223],[13.39566,52.52199],[13.39609,52.52191],[13.39637,52.52182],[13.39496,52.52116],[13.3937,52.52201]]]]},"properties":{"sealing_pct":96.89,"vg_class":"> 90–100","structure_type":"Culture","block":"0101020191000000"}},{"type":"Feature","geometry":{"type":"MultiPolygon","coordinates":[[[[13.39513,52.52104],[13.39665,52.52177],[13.39773,52.52154],[13.39869,52.5213],[13.39976,52.52048],[13.39744,52.51951],[13.39717,52.51971],[13.39651,52.52005],[13.39513,52.52104]]]]},"properties":{"sealing_pct":91.25,"vg_class":"> 90–100","structure_type":"Culture","block":"0101020201000000"}},{"type":"Feature","geometry":{"type":"MultiPolygon","coordinates":[[[[13.39217,52.52002],[13.39354,52.52012],[13.39466,52.52066],[13.39484,52.52063],[13.39553,52.5201],[13.39536,52.52002],[13.39363,52.51979],[13.39357,52.51976],[13.3936,52.51942],[13.39366,52.5194],[13.39368,52.51931],[13.39231,52.51922],[13.39217,52.52002]]]]},"properties":{"sealing_pct":84.87,"vg_class":"> 80–90","structure_type":"Core area","block":"0101020211000000"}},{"type":"Feature","geometry":{"type":"MultiPolygon","coordinates":[[[[13.39397,52.51933],[13.39395,52.51945],[13.39375,52.51943],[13.3937,52.51973],[13.39546,52.51996],[13.3956,52.52004],[13.39601,52.51973],[13.39599,52.51968],[13.39474,52.51938],[13.39397,52.51933]]]]},"properties":{"sealing_pct":72.74,"vg_class":"> 70–80","structure_type":"Core area","block":"0101020221000000"}},{"type":"Feature","geometry":{"type":"MultiPolygon","coordinates":[[[[13.39244,52.51905],[13.3945,52.51919],[13.39458,52.51915],[13.39482,52.51807],[13.39506,52.51809],[13.39514,52.51769],[13.39269,52.51752],[13.39244,52.51905]]]]},"properties":{"sealing_pct":69.08,"vg_class":"> 60–70","structure_type":"University and research","block":"0101020271000000"}},{"type":"Feature","geometry":{"type":"MultiPolygon","coordinates":[[[[13.3948,52.51921],[13.39657,52.5196],[13.39689,52.51946],[13.39703,52.51932],[13.39591,52.51887],[13.39598,52.51853],[13.39535,52.51848],[13.39499,52.51846],[13.3948,52.51921]]]]},"properties":{"sealing_pct":80.67,"vg_class":"> 80–90","structure_type":"Culture","block":"0101020281000000"}},{"type":"Feature","geometry":{"type":"MultiPolygon","coordinates":[[[[13.39506,52.51809],[13.39504,52.51826],[13.39605,52.51833],[13.39617,52.51773],[13.39516,52.51766],[13.39506,52.51809]]]]},"properties":{"sealing_pct":40.05,"vg_class":"> 40–50","structure_type":"City square / promenade","block":"0101020291000000"}},{"type":"Feature","geometry":{"type":"MultiPolygon","coordinates":[[[[13.39639,52.51765],[13.39623,52.51845],[13.39755,52.51854],[13.3977,52.51773],[13.39639,52.51765]]]]},"properties":{"sealing_pct":100,"vg_class":"> 90–100","structure_type":"Culture","block":"0101020301000000"}},{"type":"Feature","geometry":{"type":"MultiPolygon","coordinates":[[[[13.39804,52.51942],[13.39808,52.51943],[13.39804,52.51946],[13.39915,52.51988],[13.39963,52.51942],[13.39849,52.51897],[13.39804,52.51942]]]]},"properties":{"sealing_pct":98.13,"vg_class":"> 90–100","structure_type":"Culture","block":"0101020331000100"}},{"type":"Feature","geometry":{"type":"MultiPolygon","coordinates":[[[[13.39767,52.51929],[13.39804,52.51942],[13.39849,52.51897],[13.39963,52.51942],[13.40073,52.51836],[13.39962,52.51794],[13.39931,52.51785],[13.39884,52.5178],[13.39767,52.51929]]]]},"properties":{"sealing_pct":39.86,"vg_class":"> 30–40","structure_type":"City square / promenade","block":"0101020331000200"}},{"type":"Feature","geometry":{"type":"MultiPolygon","coordinates":[[[[13.40009,52.52033],[13.40056,52.52009],[13.40101,52.5198],[13.40143,52.51946],[13.40171,52.51917],[13.40199,52.51882],[13.40207,52.5188],[13.40109,52.51847],[13.39948,52.52],[13.39947,52.52003],[13.39954,52.52007],[13.40009,52.52033]]]]},"properties":{"sealing_pct":55.96,"vg_class":"> 50–60","structure_type":"Church","block":"0101020341000000"}},{"type":"Feature","geometry":{"type":"MultiPolygon","coordinates":[[[[13.39724,52.51918],[13.39747,52.51879],[13.39752,52.51863],[13.39622,52.51854],[13.39617,52.51879],[13.39684,52.51906],[13.39724,52.51918]]]]},"properties":{"sealing_pct":98.03,"vg_class":"> 90–100","structure_type":"Culture","block":"0101026071000000"}},{"type":"Feature","geometry":{"type":"MultiPolygon","coordinates":[[[[13.39387,52.52191],[13.39496,52.52116],[13.39467,52.52101],[13.39361,52.52177],[13.39387,52.52191]]]]},"properties":{"sealing_pct":null,"vg_class":"keine Angabe","structure_type":"Body of water","block":"0101028011000000"}},{"type":"Feature","geometry":{"type":"MultiPolygon","coordinates":[[[[13.39483,52.5209],[13.39513,52.52104],[13.39574,52.5206],[13.39546,52.52046],[13.39483,52.5209]]]]},"properties":{"sealing_pct":null,"vg_class":"keine Angabe","structure_type":"Body of water","block":"0101028021000000"}},{"type":"Feature","geometry":{"type":"MultiPolygon","coordinates":[[[[13.39554,52.52041],[13.3958,52.52056],[13.39651,52.52005],[13.39717,52.51971],[13.39744,52.51949],[13.39722,52.51941],[13.39709,52.51954],[13.39629,52.51989],[13.39554,52.52041]]]]},"properties":{"sealing_pct":null,"vg_class":"keine Angabe","structure_type":"Body of water","block":"0101028031000000"}},{"type":"Feature","geometry":{"type":"MultiPolygon","coordinates":[[[[13.39767,52.51929],[13.39884,52.5178],[13.3982,52.51776],[13.39814,52.51778],[13.39741,52.51922],[13.39767,52.51929]]]]},"properties":{"sealing_pct":null,"vg_class":"keine Angabe","structure_type":"Body of water","block":"0101028041000000"}},{"type":"Feature","geometry":{"type":"MultiPolygon","coordinates":[[[[13.39209,52.52028],[13.39306,52.52041],[13.3936,52.52056],[13.39392,52.52066],[13.39444,52.5209],[13.39693,52.52209],[13.39724,52.522],[13.39665,52.52177],[13.39513,52.52104],[13.39391,52.52051],[13.39328,52.52032],[13.39271,52.5202],[13.39212,52.52016],[13.39209,52.52028]]]]},"properties":{"sealing_pct":99.89,"vg_class":"> 90–100","structure_type":"Track area","block":"0101029031000000"}},{"type":"Feature","geometry":{"type":"MultiPolygon","coordinates":[[[[13.39423,52.51708],[13.39443,52.51711],[13.39515,52.51715],[13.39529,52.51635],[13.39525,52.5163],[13.39513,52.51624],[13.39481,52.5162],[13.3945,52.51608],[13.3944,52.51607],[13.39423,52.51708]]]]},"properties":{"sealing_pct":99.12,"vg_class":"> 90–100","structure_type":"Culture","block":"0101030391000000"}},{"type":"Feature","geometry":{"type":"MultiPolygon","coordinates":[[[[13.39471,52.51521],[13.39461,52.51571],[13.39444,52.51591],[13.39483,52.51606],[13.39499,52.51611],[13.39509,52.5161],[13.39516,52.51605],[13.39534,52.51524],[13.39471,52.51521]]]]},"properties":{"sealing_pct":92.74,"vg_class":"> 90–100","structure_type":"Church","block":"0101030411000000"}},{"type":"Feature","geometry":{"type":"MultiPolygon","coordinates":[[[[13.39528,52.51716],[13.39625,52.51722],[13.39664,52.51532],[13.39568,52.51526],[13.39528,52.51716]]]]},"properties":{"sealing_pct":75.81,"vg_class":"> 70–80","structure_type":"Culture","block":"0101030421000000"}},{"type":"Feature","geometry":{"type":"MultiPolygon","coordinates":[[[[13.39322,52.5149],[13.39651,52.51512],[13.39668,52.51509],[13.39682,52.51443],[13.39336,52.51421],[13.39322,52.5149]]]]},"properties":{"sealing_pct":96.31,"vg_class":"> 90–100","structure_type":"Core area","block":"0101030431000000"}},{"type":"Feature","geometry":{"type":"MultiPolygon","coordinates":[[[[13.39889,52.51749],[13.39929,52.51752],[13.40067,52.51617],[13.39985,52.51598],[13.39973,52.51615],[13.39976,52.51619],[13.39945,52.51645],[13.39949,52.5165],[13.39948,52.51656],[13.39943,52.51655],[13.39935,52.51663],[13.39958,52.51673],[13.39921,52.51712],[13.39898,52.51743],[13.39889,52.51749]]]]},"properties":{"sealing_pct":79.33,"vg_class":"> 70–80","structure_type":"Construction site","block":"0101030521000000"}},{"type":"Feature","geometry":{"type":"MultiPolygon","coordinates":[[[[13.39949,52.5176],[13.40228,52.51856],[13.40229,52.51851],[13.40378,52.51708],[13.40311,52.51677],[13.40097,52.51621],[13.4009,52.51621],[13.39948,52.51756],[13.39949,52.5176]]]]},"properties":{"sealing_pct":84.23,"vg_class":"> 80–90","structure_type":"Culture","block":"0101030531000000"}},{"type":"Feature","geometry":{"type":"MultiPolygon","coordinates":[[[[13.40282,52.51643],[13.40382,52.51688],[13.4051,52.5158],[13.40535,52.51551],[13.40568,52.51521],[13.40632,52.51486],[13.40588,52.51452],[13.40574,52.51448],[13.40546,52.51452],[13.40282,52.51643]]]]},"properties":{"sealing_pct":95.65,"vg_class":"> 90–100","structure_type":"Administrative","block":"0101030541000000"}},{"type":"Feature","geometry":{"type":"MultiPolygon","coordinates":[[[[13.39996,52.51577],[13.40027,52.51572],[13.40033,52.51566],[13.40231,52.51626],[13.40356,52.5153],[13.40247,52.51471],[13.40114,52.51425],[13.40054,52.51496],[13.39996,52.51577]]]]},"properties":{"sealing_pct":57.8,"vg_class":"> 50–60","structure_type":"University and research","block":"0101030551000000"}},{"type":"Feature","geometry":{"type":"MultiPolygon","coordinates":[[[[13.39817,52.51533],[13.39964,52.51564],[13.40002,52.51507],[13.40028,52.51459],[13.40114,52.51361],[13.4012,52.51363],[13.40225,52.51264],[13.40177,52.51234],[13.39934,52.51336],[13.39922,52.51346],[13.39909,52.51364],[13.39817,52.51533]]]]},"properties":{"sealing_pct":96.22,"vg_class":"> 90–100","structure_type":"Administrative","block":"0101030561000000"}},{"type":"Feature","geometry":{"type":"MultiPolygon","coordinates":[[[[13.40269,52.51462],[13.40374,52.51516],[13.40503,52.51424],[13.40402,52.5137],[13.40269,52.51462]]]]},"properties":{"sealing_pct":90.82,"vg_class":"> 90–100","structure_type":"Administrative","block":"0101030581000000"}},{"type":"Feature","geometry":{"type":"MultiPolygon","coordinates":[[[[13.39826,52.51653],[13.39769,52.51649],[13.3976,52.51696],[13.39817,52.51703],[13.39826,52.51653]]]]},"properties":{"sealing_pct":90.63,"vg_class":"> 90–100","structure_type":"Rental-flat buildings of the 1990s and later","block":"0101030781000000"}},{"type":"Feature","geometry":{"type":"MultiPolygon","coordinates":[[[[13.39827,52.51646],[13.39836,52.51599],[13.39822,52.51583],[13.39791,52.51576],[13.39778,52.51595],[13.3977,52.51643],[13.39827,52.51646]]]]},"properties":{"sealing_pct":95.98,"vg_class":"> 90–100","structure_type":"Commercial and industrial area, large-scale retail, dense development","block":"0101030791000000"}},{"type":"Feature","geometry":{"type":"MultiPolygon","coordinates":[[[[13.39687,52.51513],[13.39718,52.51516],[13.39783,52.51529],[13.39815,52.51476],[13.39705,52.51445],[13.39687,52.51513]]]]},"properties":{"sealing_pct":86.28,"vg_class":"> 80–90","structure_type":"Core area","block":"0101036251000000"}},{"type":"Feature","geometry":{"type":"MultiPolygon","coordinates":[[[[13.39644,52.51723],[13.39645,52.51728],[13.3965,52.51729],[13.39699,52.51732],[13.39702,52.51727],[13.3974,52.51729],[13.39747,52.51688],[13.39741,52.51688],[13.39748,52.51653],[13.39731,52.51644],[13.39734,52.51629],[13.39665,52.51612],[13.39644,52.51723]]]]},"properties":{"sealing_pct":60.74,"vg_class":"> 60–70","structure_type":"Culture","block":"0101036301000000"}},{"type":"Feature","geometry":{"type":"MultiPolygon","coordinates":[[[[13.39668,52.51601],[13.39694,52.51607],[13.39732,52.51545],[13.39681,52.51538],[13.39668,52.51601]]]]},"properties":{"sealing_pct":99.72,"vg_class":"> 90–100","structure_type":"Rental-flat buildings of the 1990s and later","block":"0101036311000000"}},{"type":"Feature","geometry":{"type":"MultiPolygon","coordinates":[[[[13.39737,52.51546],[13.39699,52.51608],[13.3974,52.51617],[13.39748,52.51615],[13.39786,52.51558],[13.39737,52.51546]]]]},"properties":{"sealing_pct":98.83,"vg_class":"> 90–100","structure_type":"Culture","block":"0101036321000000"}},{"type":"Feature","geometry":{"type":"MultiPolygon","coordinates":[[[[13.39751,52.51729],[13.39812,52.51733],[13.39816,52.51712],[13.39755,52.51708],[13.39751,52.51729]]]]},"properties":{"sealing_pct":100,"vg_class":"> 90–100","structure_type":"Commercial and industrial area, large-scale retail, dense development","block":"0101036331000000"}},{"type":"Feature","geometry":{"type":"MultiPolygon","coordinates":[[[[13.39851,52.51608],[13.39889,52.5162],[13.39891,52.51618],[13.39914,52.51623],[13.3994,52.51585],[13.39877,52.51569],[13.39851,52.51608]]]]},"properties":{"sealing_pct":63.74,"vg_class":"> 60–70","structure_type":"Other and miscellaneous public facility / special use area","block":"0101036361000000"}},{"type":"Feature","geometry":{"type":"MultiPolygon","coordinates":[[[[13.39855,52.51624],[13.3985,52.51627],[13.39842,52.51673],[13.3985,52.51679],[13.39857,52.51679],[13.39865,52.51677],[13.39899,52.51639],[13.39897,52.51634],[13.39855,52.51624]]]]},"properties":{"sealing_pct":67.51,"vg_class":"> 60–70","structure_type":"Park / green space","block":"0101036371000000"}},{"type":"Feature","geometry":{"type":"MultiPolygon","coordinates":[[[[13.39828,52.51745],[13.39889,52.51749],[13.39898,52.51743],[13.39921,52.51712],[13.39958,52.51673],[13.39935,52.51663],[13.39943,52.51655],[13.39948,52.51656],[13.39949,52.5165],[13.39945,52.51645],[13.39976,52.51619],[13.39973,52.51615],[13.39985,52.51598],[13.3996,52.5159],[13.39829,52.51739],[13.39828,52.51745]]]]},"properties":{"sealing_pct":null,"vg_class":"keine Angabe","structure_type":"Body of water","block":"0101038011000000"}},{"type":"Feature","geometry":{"type":"MultiPolygon","coordinates":[[[[13.39975,52.51572],[13.39996,52.51577],[13.40054,52.51496],[13.40151,52.51383],[13.40129,52.51376],[13.40048,52.51463],[13.39975,52.51572]]]]},"properties":{"sealing_pct":null,"vg_class":"keine Angabe","structure_type":"Body of water","block":"0101038021000000"}},{"type":"Feature","geometry":{"type":"MultiPolygon","coordinates":[[[[13.41647,52.51763],[13.41604,52.51748],[13.41578,52.51785],[13.41564,52.51825],[13.41542,52.51868],[13.41515,52.51911],[13.41473,52.51951],[13.41416,52.51991],[13.41493,52.52034],[13.41523,52.52055],[13.41641,52.51952],[13.41707,52.51882],[13.4174,52.51838],[13.4176,52.51804],[13.41647,52.51763]]]]},"properties":{"sealing_pct":98.01,"vg_class":"> 90–100","structure_type":"Core area","block":"0101056111000000"}}]}