{"type":"FeatureCollection","features":[{"type":"Feature","geometry":{"type":"MultiPolygon","coordinates":[[[[13.39306,52.64591],[13.39307,52.64601],[13.39309,52.64603],[13.39302,52.64601],[13.39302,52.64593],[13.39306,52.64591]]],[[[13.50545,52.61989],[13.50544,52.61988],[13.50537,52.61985],[13.50484,52.61962],[13.50481,52.6196],[13.50478,52.61958],[13.50467,52.61953],[13.50377,52.61921],[13.5036,52.61912],[13.50349,52.61904],[13.50345,52.619],[13.50344,52.61899],[13.50346,52.619],[13.50365,52.6191],[13.50494,52.61952],[13.50495,52.61953],[13.505,52.61954],[13.50506,52.61956],[13.50544,52.61969],[13.50545,52.61983],[13.50545,52.61989]]],[[[13.39291,52.64565],[13.39292,52.64567],[13.39285,52.64566],[13.39274,52.64564],[13.3927,52.64558],[13.39279,52.64549],[13.39291,52.64565]]],[[[13.50518,52.59646],[13.49897,52.60516],[13.49666,52.60503],[13.49851,52.61074],[13.50331,52.61899],[13.50546,52.61997],[13.50585,52.62575],[13.51782,52.62957],[13.52244,52.64076],[13.52302,52.64503],[13.52039,52.64488],[13.51927,52.64695],[13.51283,52.6454],[13.50472,52.64956],[13.49076,52.6548],[13.48536,52.65943],[13.48842,52.67079],[13.47797,52.66768],[13.47583,52.66655],[13.47568,52.66754],[13.47459,52.66806],[13.47647,52.67136],[13.48008,52.67486],[13.47949,52.67551],[13.47727,52.6739],[13.47549,52.67501],[13.46593,52.66712],[13.45955,52.66898],[13.45079,52.66267],[13.45395,52.66185],[13.46238,52.65754],[13.47351,52.65653],[13.47426,52.65575],[13.47391,52.65412],[13.46997,52.65186],[13.46572,52.65117],[13.46306,52.64992],[13.46221,52.64889],[13.45973,52.64808],[13.45208,52.6487],[13.4521,52.64967],[13.44874,52.65],[13.44331,52.64954],[13.44277,52.64912],[13.44082,52.64926],[13.43979,52.64527],[13.43401,52.64428],[13.43339,52.64147],[13.43426,52.63795],[13.43272,52.63738],[13.42763,52.63751],[13.42435,52.63546],[13.41655,52.63943],[13.41426,52.64124],[13.41474,52.64239],[13.41363,52.64247],[13.41229,52.64348],[13.40788,52.64269],[13.40659,52.64385],[13.40324,52.64519],[13.39794,52.64829],[13.39639,52.64742],[13.39455,52.64756],[13.39387,52.64632],[13.39315,52.64596],[13.39318,52.64541],[13.39191,52.64475],[13.39233,52.6444],[13.39174,52.64384],[13.39229,52.6437],[13.3915,52.64363],[13.39229,52.64365],[13.39225,52.64328],[13.3913,52.64355],[13.3909,52.64247],[13.39014,52.64244],[13.39059,52.64219],[13.3902,52.64215],[13.39046,52.64183],[13.39005,52.64157],[13.3904,52.6415],[13.38969,52.64123],[13.3904,52.64085],[13.38991,52.64054],[13.39061,52.63992],[13.38961,52.63937],[13.38994,52.63912],[13.38906,52.63813],[13.38921,52.63762],[13.38508,52.63626],[13.38333,52.63664],[13.38181,52.6364],[13.38286,52.63522],[13.3794,52.63387],[13.37871,52.63435],[13.37762,52.63307],[13.37679,52.63292],[13.37719,52.63267],[13.37656,52.63241],[13.37687,52.63217],[13.37582,52.63161],[13.37634,52.63137],[13.37702,52.62982],[13.37685,52.62916],[13.37637,52.62922],[13.37668,52.62889],[13.37583,52.62904],[13.37638,52.62838],[13.37545,52.62868],[13.37457,52.62777],[13.3708,52.62738],[13.36888,52.62568],[13.36797,52.62558],[13.36766,52.62601],[13.36694,52.62585],[13.36689,52.62528],[13.36532,52.62547],[13.36407,52.62466],[13.36369,52.62509],[13.36054,52.62383],[13.35968,52.62405],[13.35918,52.62329],[13.35764,52.62298],[13.35469,52.62362],[13.35148,52.62273],[13.35107,52.62386],[13.33873,52.62335],[13.33668,52.62265],[13.32869,52.62544],[13.31889,52.62678],[13.31299,52.62818],[13.30261,52.62719],[13.30305,52.62777],[13.30887,52.62915],[13.31027,52.63001],[13.30968,52.6301],[13.31019,52.63062],[13.30934,52.6328],[13.30578,52.63735],[13.30706,52.63755],[13.30627,52.63961],[13.30823,52.64024],[13.30815,52.64077],[13.30918,52.64199],[13.30903,52.64267],[13.30941,52.64273],[13.3092,52.64395],[13.30843,52.64381],[13.30043,52.65351],[13.3101,52.6574],[13.30864,52.658],[13.30712,52.65962],[13.30252,52.6592],[13.29369,52.65936],[13.28277,52.66074],[13.28191,52.65275],[13.28513,52.65263],[13.2846,52.64834],[13.28424,52.64845],[13.28457,52.64795],[13.28383,52.64112],[13.2696,52.63971],[13.26215,52.64069],[13.26241,52.63906],[13.26468,52.63598],[13.2652,52.63453],[13.26423,52.62686],[13.2603,52.62774],[13.24641,52.62727],[13.24243,52.6283],[13.2304,52.62739],[13.22592,52.62786],[13.22588,52.62827],[13.22512,52.62841],[13.22054,52.62832],[13.21976,52.62444],[13.21676,52.62016],[13.21482,52.61926],[13.20688,52.60914],[13.20234,52.6074],[13.20163,52.60655],[13.20232,52.60425],[13.20818,52.59901],[13.21129,52.59682],[13.21532,52.59497],[13.21885,52.59237],[13.21925,52.5914],[13.2174,52.58748],[13.20734,52.58837],[13.20671,52.5866],[13.20538,52.58685],[13.20035,52.58877],[13.19174,52.59019],[13.18342,52.59369],[13.17834,52.59488],[13.17367,52.59533],[13.17197,52.59629],[13.1679,52.59701],[13.16453,52.5988],[13.15706,52.59763],[13.15389,52.59571],[13.14929,52.59187],[13.14351,52.5897],[13.13845,52.58887],[13.13548,52.58737],[13.13267,52.58692],[13.12896,52.5873],[13.12843,52.58602],[13.12935,52.58593],[13.12796,52.58313],[13.13026,52.58304],[13.13168,52.58023],[13.13248,52.57961],[13.13752,52.58053],[13.13916,52.58039],[13.14961,52.58336],[13.15124,52.58221],[13.15316,52.57895],[13.1536,52.57746],[13.15355,52.57326],[13.15278,52.57248],[13.15239,52.57046],[13.15127,52.56999],[13.14987,52.56676],[13.14752,52.56441],[13.14714,52.56145],[13.1458,52.56061],[13.14686,52.55862],[13.14729,52.55584],[13.14691,52.55428],[13.14558,52.55272],[13.14321,52.55208],[13.13633,52.55271],[13.13445,52.55335],[13.13047,52.55597],[13.12496,52.54379],[13.12561,52.54354],[13.12418,52.53905],[13.11951,52.53035],[13.11833,52.52075],[13.11738,52.51706],[13.127,52.51755],[13.14318,52.5197],[13.14435,52.51919],[13.14563,52.51747],[13.1475,52.5172],[13.15738,52.51317],[13.16882,52.50923],[13.14959,52.49631],[13.12833,52.47982],[13.12628,52.47866],[13.11769,52.47732],[13.11723,52.47328],[13.11621,52.47168],[13.11379,52.4698],[13.11395,52.46862],[13.11186,52.46745],[13.11056,52.46566],[13.11143,52.46373],[13.11134,52.46186],[13.1105,52.46],[13.11241,52.45899],[13.11267,52.45769],[13.11203,52.45441],[13.1093,52.45064],[13.11536,52.44565],[13.11901,52.44401],[13.11902,52.44297],[13.11977,52.44171],[13.12312,52.43962],[13.12315,52.43871],[13.12214,52.43788],[13.11722,52.43616],[13.11393,52.43297],[13.11207,52.43231],[13.11278,52.4292],[13.10692,52.42565],[13.10541,52.42528],[13.10457,52.42398],[13.09931,52.42534],[13.0984,52.42489],[13.09772,52.42347],[13.09584,52.42197],[13.08835,52.41963],[13.09027,52.41221],[13.09077,52.41156],[13.09739,52.40942],[13.09898,52.41096],[13.09759,52.41165],[13.09645,52.41309],[13.10086,52.41376],[13.101,52.41054],[13.10591,52.40955],[13.10713,52.40996],[13.10742,52.41209],[13.10711,52.41318],[13.10962,52.41294],[13.11014,52.41129],[13.11151,52.41141],[13.1118,52.41048],[13.11042,52.41035],[13.11063,52.40944],[13.10694,52.40949],[13.10638,52.40869],[13.10927,52.40818],[13.10833,52.40726],[13.1111,52.4053],[13.11182,52.40399],[13.11775,52.40212],[13.12023,52.39985],[13.12478,52.39687],[13.12742,52.39664],[13.13351,52.39937],[13.1381,52.39786],[13.13513,52.39737],[13.13571,52.39618],[13.13895,52.39599],[13.13149,52.39188],[13.13017,52.3905],[13.12985,52.3907],[13.1312,52.39184],[13.12729,52.39161],[13.12673,52.38958],[13.1313,52.38723],[13.13318,52.3873],[13.13398,52.38874],[13.13287,52.38874],[13.13037,52.39037],[13.13471,52.39356],[13.14182,52.3971],[13.1432,52.39725],[13.14313,52.39667],[13.14386,52.39614],[13.14574,52.3955],[13.15887,52.39394],[13.16877,52.3944],[13.17176,52.39564],[13.17117,52.39783],[13.1578,52.39636],[13.15778,52.39723],[13.15939,52.39991],[13.15923,52.40278],[13.19725,52.41554],[13.20453,52.41583],[13.20971,52.4168],[13.21709,52.41917],[13.22506,52.42108],[13.23314,52.42034],[13.23563,52.42087],[13.24595,52.42118],[13.24715,52.4189],[13.24899,52.41196],[13.24874,52.40841],[13.24978,52.40498],[13.25331,52.40604],[13.25806,52.4064],[13.26697,52.40428],[13.27092,52.40422],[13.2742,52.40479],[13.28035,52.40736],[13.29675,52.41625],[13.29696,52.41505],[13.29593,52.4145],[13.31206,52.39911],[13.31414,52.40062],[13.3185,52.4024],[13.34335,52.41172],[13.34306,52.40769],[13.35083,52.4029],[13.35937,52.39847],[13.37195,52.3938],[13.37036,52.38843],[13.37785,52.38815],[13.3873,52.38857],[13.38843,52.37786],[13.40989,52.37659],[13.41283,52.37688],[13.41264,52.37641],[13.42081,52.37614],[13.42745,52.38618],[13.41842,52.40708],[13.41875,52.40998],[13.43193,52.41252],[13.44706,52.41669],[13.45469,52.41945],[13.46355,52.42108],[13.46802,52.42003],[13.47101,52.41406],[13.47761,52.40343],[13.47895,52.39998],[13.47976,52.39595],[13.48648,52.39742],[13.50817,52.40026],[13.516,52.40179],[13.5218,52.40057],[13.52969,52.3973],[13.53843,52.40063],[13.53721,52.39804],[13.53631,52.39782],[13.53669,52.39721],[13.53515,52.39351],[13.53482,52.39077],[13.53549,52.38899],[13.56416,52.38814],[13.5829,52.39146],[13.5927,52.39381],[13.59414,52.39244],[13.59368,52.38996],[13.59432,52.38892],[13.5952,52.38874],[13.59491,52.38756],[13.59534,52.38679],[13.59612,52.38598],[13.59938,52.38541],[13.603,52.38284],[13.6064,52.37912],[13.60547,52.37797],[13.60681,52.37603],[13.60582,52.37362],[13.62851,52.38136],[13.63322,52.37624],[13.64268,52.37751],[13.64284,52.37258],[13.6421,52.37081],[13.64683,52.37016],[13.64719,52.36702],[13.6461,52.36527],[13.64114,52.3631],[13.63909,52.36098],[13.63844,52.35974],[13.63872,52.35875],[13.63814,52.35709],[13.63779,52.34821],[13.6367,52.34814],[13.63632,52.34682],[13.63717,52.34473],[13.64282,52.33994],[13.6445,52.33992],[13.64551,52.33879],[13.64774,52.33825],[13.65169,52.33947],[13.65115,52.34261],[13.6533,52.34556],[13.65611,52.34781],[13.65709,52.35161],[13.65898,52.35236],[13.65957,52.35331],[13.66202,52.35421],[13.66269,52.35508],[13.66244,52.35586],[13.66363,52.35741],[13.66491,52.35813],[13.6662,52.35809],[13.66575,52.35963],[13.66666,52.36236],[13.66848,52.36421],[13.67001,52.36477],[13.67118,52.36648],[13.67542,52.36768],[13.67921,52.36945],[13.68215,52.36964],[13.68475,52.36882],[13.68722,52.3673],[13.68999,52.36786],[13.6922,52.36721],[13.69128,52.36778],[13.69308,52.36798],[13.69285,52.36918],[13.69509,52.3707],[13.69996,52.37559],[13.70041,52.37751],[13.69721,52.37744],[13.69883,52.3815],[13.69517,52.38095],[13.68972,52.38325],[13.68791,52.38295],[13.68706,52.38388],[13.68618,52.38386],[13.68683,52.3853],[13.68759,52.38517],[13.68802,52.38607],[13.68887,52.38503],[13.69061,52.3855],[13.69734,52.38992],[13.69827,52.39177],[13.69901,52.39191],[13.69842,52.39114],[13.6987,52.3906],[13.70015,52.39115],[13.70235,52.39333],[13.70449,52.39354],[13.70656,52.39512],[13.70868,52.39537],[13.71587,52.39969],[13.71698,52.39964],[13.71805,52.39882],[13.71984,52.39907],[13.72279,52.39826],[13.72745,52.40023],[13.72886,52.39977],[13.72941,52.4002],[13.73004,52.39966],[13.73114,52.40001],[13.73427,52.40213],[13.73416,52.40334],[13.73536,52.40598],[13.73903,52.40734],[13.73717,52.40964],[13.73461,52.41057],[13.72981,52.41634],[13.73138,52.41918],[13.73107,52.42051],[13.73766,52.42669],[13.74077,52.42642],[13.74128,52.42677],[13.74173,52.4282],[13.73894,52.42886],[13.7401,52.43247],[13.72969,52.43398],[13.72632,52.43518],[13.72281,52.43714],[13.73143,52.4338],[13.7382,52.43296],[13.73828,52.43329],[13.74289,52.43294],[13.74407,52.43807],[13.75051,52.44148],[13.7563,52.44161],[13.75445,52.43668],[13.75999,52.43617],[13.76095,52.43732],[13.76094,52.43788],[13.75532,52.43842],[13.75708,52.44296],[13.75438,52.44328],[13.75644,52.44617],[13.75539,52.446],[13.75349,52.44759],[13.74925,52.44867],[13.73776,52.44964],[13.73435,52.45074],[13.73272,52.45036],[13.72908,52.45078],[13.72059,52.45675],[13.71596,52.46292],[13.71152,52.46329],[13.7057,52.46556],[13.70126,52.46822],[13.69908,52.46828],[13.7021,52.46437],[13.70336,52.46004],[13.70526,52.45987],[13.70559,52.4577],[13.70524,52.45562],[13.70461,52.45476],[13.69835,52.45526],[13.69867,52.45648],[13.69769,52.4585],[13.69753,52.46048],[13.69543,52.46418],[13.68657,52.46514],[13.68277,52.46607],[13.67864,52.46924],[13.67008,52.47309],[13.66756,52.47374],[13.66724,52.47429],[13.66265,52.47376],[13.65836,52.475],[13.65546,52.47665],[13.64831,52.47873],[13.64322,52.47923],[13.63615,52.47615],[13.63104,52.47504],[13.62818,52.47355],[13.62534,52.47371],[13.62471,52.46906],[13.62521,52.46874],[13.6229,52.46879],[13.62266,52.46778],[13.6234,52.46671],[13.62274,52.46646],[13.62139,52.46664],[13.62196,52.46701],[13.62201,52.46802],[13.62192,52.46849],[13.62102,52.4685],[13.62117,52.47046],[13.61712,52.47121],[13.61507,52.46972],[13.61137,52.47065],[13.61649,52.47483],[13.61355,52.47562],[13.61489,52.48076],[13.62972,52.49304],[13.62401,52.4942],[13.62677,52.49907],[13.6289,52.50556],[13.63267,52.51113],[13.63578,52.51422],[13.64246,52.51855],[13.65535,52.52407],[13.6585,52.52595],[13.65691,52.52984],[13.64625,52.52968],[13.64063,52.53042],[13.63156,52.53057],[13.62569,52.53018],[13.62481,52.53358],[13.62574,52.53404],[13.62482,52.53811],[13.62754,52.53749],[13.62886,52.53798],[13.63395,52.53765],[13.63765,52.54092],[13.63737,52.54225],[13.61871,52.54421],[13.58638,52.54978],[13.58777,52.55333],[13.5876,52.55562],[13.58648,52.55769],[13.58443,52.55986],[13.58393,52.56376],[13.58317,52.56521],[13.58335,52.56775],[13.58154,52.57111],[13.57789,52.57113],[13.57697,52.5729],[13.57497,52.57383],[13.56857,52.5731],[13.5665,52.57617],[13.56186,52.58039],[13.55547,52.58415],[13.54713,52.58785],[13.52769,52.59224],[13.52288,52.59275],[13.50812,52.59214],[13.50518,52.59646]],[[13.43362,52.64213],[13.43399,52.64216],[13.43405,52.64217],[13.43393,52.64198],[13.43379,52.64195],[13.43359,52.64189],[13.43362,52.64213]]]]},"properties":{"name":"Berlin"}}]}