{"type":"FeatureCollection","features":[{"type":"Feature","geometry":{"type":"Point","coordinates":[7.59137,47.56014]},"properties":{"species":"Winter-Linde","age_years":105,"street":"Oberer Rheinweg","group":"Strassenbäume"}},{"type":"Feature","geometry":{"type":"Point","coordinates":[7.58985,47.55863]},"properties":{"species":"Sommer-Linde","age_years":15,"street":"Rheinsprung","group":"Öffentliche Grünflächen"}},{"type":"Feature","geometry":{"type":"Point","coordinates":[7.58997,47.55851]},"properties":{"species":"Feld-Ahorn","age_years":15,"street":"Rheinsprung","group":"Öffentliche Grünflächen"}},{"type":"Feature","geometry":{"type":"Point","coordinates":[7.59277,47.55694]},"properties":{"species":"Zitter-Pappel, Espe","age_years":15,"street":"Pfalz","group":"Öffentliche Grünflächen"}},{"type":"Feature","geometry":{"type":"Point","coordinates":[7.59211,47.55562]},"properties":{"species":"Gewöhnliche Hain- oder Weissbuche","age_years":15,"street":"Rittergasse","group":"Schul- und Kindergartenareal"}},{"type":"Feature","geometry":{"type":"Point","coordinates":[7.58703,47.55966]},"properties":{"species":"Kolchischer Ahorn","age_years":29,"street":"Spiegelgasse","group":"Strassenbäume"}},{"type":"Feature","geometry":{"type":"Point","coordinates":[7.5917,47.55654]},"properties":{"species":"Gemeine Rosskastanie","age_years":130,"street":"Münsterplatz","group":"Öffentliche Grünflächen"}},{"type":"Feature","geometry":{"type":"Point","coordinates":[7.58375,47.55883]},"properties":{"species":"Berg-Ahorn","age_years":97,"street":"Petersplatz","group":"Öffentliche Grünflächen"}},{"type":"Feature","geometry":{"type":"Point","coordinates":[7.58365,47.55869]},"properties":{"species":"Krim-Linde","age_years":107,"street":"Petersplatz","group":"Öffentliche Grünflächen"}},{"type":"Feature","geometry":{"type":"Point","coordinates":[7.58494,47.56047]},"properties":{"species":"Feld-Ahorn","age_years":33,"street":"USB Universitätsspital Garten","group":"Privatbäume gepflegt durch STG"}},{"type":"Feature","geometry":{"type":"Point","coordinates":[7.58507,47.55911]},"properties":{"species":"Winter-Linde","age_years":53,"street":"Peterskirchplatz","group":"Öffentliche Grünflächen"}},{"type":"Feature","geometry":{"type":"Point","coordinates":[7.58436,47.55661]},"properties":{"species":"Säulen-Hainbuche","age_years":29,"street":"Leonhardsgraben","group":"Strassenbäume"}},{"type":"Feature","geometry":{"type":"Point","coordinates":[7.58386,47.55584]},"properties":{"species":"Blumen-Esche","age_years":23,"street":"Schützengraben","group":"Öffentliche Grünflächen"}},{"type":"Feature","geometry":{"type":"Point","coordinates":[7.58578,47.55589]},"properties":{"species":"Dreidornen-Gleditschie","age_years":70,"street":"Leonhardsgraben","group":"Strassenbäume"}},{"type":"Feature","geometry":{"type":"Point","coordinates":[7.5923,47.55616]},"properties":{"species":"Sommer-Linde","age_years":75,"street":"Münsterplatz","group":"Öffentliche Grünflächen"}},{"type":"Feature","geometry":{"type":"Point","coordinates":[7.5838,47.55584]},"properties":{"species":"Gewöhnliche Hain- oder Weissbuche","age_years":50,"street":"Schützengraben","group":"Öffentliche Grünflächen"}},{"type":"Feature","geometry":{"type":"Point","coordinates":[7.58828,47.55559]},"properties":{"species":"Weiss-Esche","age_years":50,"street":"Leonhardsstapfelberg","group":"Strassenbäume"}},{"type":"Feature","geometry":{"type":"Point","coordinates":[7.59276,47.55553]},"properties":{"species":"Spitz-Ahorn","age_years":71,"street":"Rittergasse","group":"Öffentliche Grünflächen"}},{"type":"Feature","geometry":{"type":"Point","coordinates":[7.58386,47.55877]},"properties":{"species":"Sommer-Linde","age_years":97,"street":"Petersplatz","group":"Öffentliche Grünflächen"}},{"type":"Feature","geometry":{"type":"Point","coordinates":[7.5836,47.55817]},"properties":{"species":"Schwarzkiefer","age_years":107,"street":"Vesalgasse","group":"Privatbäume gepflegt durch STG"}},{"type":"Feature","geometry":{"type":"Point","coordinates":[7.59287,47.55909]},"properties":{"species":"Winter-Linde","age_years":60,"street":"Oberer Rheinweg","group":"Strassenbäume"}},{"type":"Feature","geometry":{"type":"Point","coordinates":[7.58376,47.55909]},"properties":{"species":"Krim-Linde","age_years":52,"street":"Petersplatz","group":"Öffentliche Grünflächen"}},{"type":"Feature","geometry":{"type":"Point","coordinates":[7.58361,47.55785]},"properties":{"species":"Gewöhnliche Scheinakazie / Robinie","age_years":34,"street":"Vesalgasse","group":"Privatbäume gepflegt durch STG"}},{"type":"Feature","geometry":{"type":"Point","coordinates":[7.58403,47.55934]},"properties":{"species":"Winter-Linde","age_years":92,"street":"Petersplatz","group":"Öffentliche Grünflächen"}},{"type":"Feature","geometry":{"type":"Point","coordinates":[7.58405,47.55885]},"properties":{"species":"Krim-Linde","age_years":33,"street":"Petersplatz","group":"Öffentliche Grünflächen"}},{"type":"Feature","geometry":{"type":"Point","coordinates":[7.58388,47.55899]},"properties":{"species":"Sommer-Linde","age_years":107,"street":"Petersplatz","group":"Öffentliche Grünflächen"}},{"type":"Feature","geometry":{"type":"Point","coordinates":[7.58397,47.55582]},"properties":{"species":"Südlicher Zürgelbaum","age_years":74,"street":"Schützengraben","group":"Öffentliche Grünflächen"}},{"type":"Feature","geometry":{"type":"Point","coordinates":[7.59209,47.55674]},"properties":{"species":"Gemeine Rosskastanie","age_years":110,"street":"Münsterplatz","group":"Öffentliche Grünflächen"}},{"type":"Feature","geometry":{"type":"Point","coordinates":[7.58403,47.55981]},"properties":{"species":"Mädchenhaarbaum / Ginkgo","age_years":30,"street":"Hebelstrasse","group":"Privatbäume gepflegt durch STG"}},{"type":"Feature","geometry":{"type":"Point","coordinates":[7.58413,47.55875]},"properties":{"species":"Winter-Linde","age_years":112,"street":"Petersplatz","group":"Öffentliche Grünflächen"}},{"type":"Feature","geometry":{"type":"Point","coordinates":[7.59331,47.55636]},"properties":{"species":"Berg-Ahorn","age_years":null,"street":"Pfalz","group":"Öffentliche Grünflächen"}},{"type":"Feature","geometry":{"type":"Point","coordinates":[7.58363,47.55816]},"properties":{"species":"Gewöhnliche Hain- oder Weissbuche","age_years":92,"street":"Vesalgasse","group":"Privatbäume gepflegt durch STG"}},{"type":"Feature","geometry":{"type":"Point","coordinates":[7.59252,47.55931]},"properties":{"species":"Winter-Linde","age_years":62,"street":"Oberer Rheinweg","group":"Strassenbäume"}},{"type":"Feature","geometry":{"type":"Point","coordinates":[7.58845,47.55973]},"properties":{"species":"Südlicher Zürgelbaum","age_years":30,"street":"Schifflände","group":"Strassenbäume"}},{"type":"Feature","geometry":{"type":"Point","coordinates":[7.585,47.55816]},"properties":{"species":"Amerikanischer Geweihbaum","age_years":null,"street":null,"group":"Privatbäume gepflegt durch STG"}},{"type":"Feature","geometry":{"type":"Point","coordinates":[7.58431,47.55593]},"properties":{"species":"Mädchenhaarbaum / Ginkgo","age_years":29,"street":"Schützengraben","group":"Öffentliche Grünflächen"}},{"type":"Feature","geometry":{"type":"Point","coordinates":[7.58641,47.56004]},"properties":{"species":"Säulen-Gleditschie","age_years":36,"street":"Spiegelhof","group":"Öffentliche Grünflächen"}},{"type":"Feature","geometry":{"type":"Point","coordinates":[7.58837,47.55978]},"properties":{"species":"Südlicher Zürgelbaum","age_years":30,"street":"Schifflände","group":"Strassenbäume"}},{"type":"Feature","geometry":{"type":"Point","coordinates":[7.59193,47.55971]},"properties":{"species":"Winter-Linde","age_years":59,"street":"Oberer Rheinweg","group":"Strassenbäume"}},{"type":"Feature","geometry":{"type":"Point","coordinates":[7.59266,47.55688]},"properties":{"species":"Gemeine Rosskastanie","age_years":36,"street":"Pfalz","group":"Öffentliche Grünflächen"}},{"type":"Feature","geometry":{"type":"Point","coordinates":[7.59286,47.55676]},"properties":{"species":"Gemeine Rosskastanie","age_years":156,"street":"Pfalz","group":"Öffentliche Grünflächen"}},{"type":"Feature","geometry":{"type":"Point","coordinates":[7.59246,47.5571]},"properties":{"species":"Gemeine Rosskastanie","age_years":156,"street":"Pfalz","group":"Öffentliche Grünflächen"}},{"type":"Feature","geometry":{"type":"Point","coordinates":[7.5928,47.5568]},"properties":{"species":"Gemeine Rosskastanie","age_years":156,"street":"Pfalz","group":"Öffentliche Grünflächen"}},{"type":"Feature","geometry":{"type":"Point","coordinates":[7.59273,47.55675]},"properties":{"species":"Gemeine Rosskastanie","age_years":156,"street":"Pfalz","group":"Öffentliche Grünflächen"}},{"type":"Feature","geometry":{"type":"Point","coordinates":[7.58426,47.5565]},"properties":{"species":"Säulen-Hainbuche","age_years":34,"street":"Leonhardsgraben","group":"Strassenbäume"}},{"type":"Feature","geometry":{"type":"Point","coordinates":[7.58403,47.55661]},"properties":{"species":"Säulen-Hainbuche","age_years":31,"street":"Leonhardsgraben","group":"Strassenbäume"}},{"type":"Feature","geometry":{"type":"Point","coordinates":[7.59017,47.56119]},"properties":{"species":"Winter-Linde","age_years":37,"street":"Unterer Rheinweg","group":"Strassenbäume"}},{"type":"Feature","geometry":{"type":"Point","coordinates":[7.59209,47.55959]},"properties":{"species":"Krim-Linde","age_years":36,"street":"Oberer Rheinweg","group":"Strassenbäume"}},{"type":"Feature","geometry":{"type":"Point","coordinates":[7.59122,47.56026]},"properties":{"species":"Krim-Linde","age_years":87,"street":"Oberer Rheinweg","group":"Strassenbäume"}},{"type":"Feature","geometry":{"type":"Point","coordinates":[7.59161,47.55995]},"properties":{"species":"Winter-Linde","age_years":117,"street":"Oberer Rheinweg","group":"Strassenbäume"}},{"type":"Feature","geometry":{"type":"Point","coordinates":[7.59269,47.55919]},"properties":{"species":"Winter-Linde","age_years":117,"street":"Oberer Rheinweg","group":"Strassenbäume"}},{"type":"Feature","geometry":{"type":"Point","coordinates":[7.59266,47.55971]},"properties":{"species":"Gewöhnliche oder Europäische Eibe","age_years":76,"street":"Utengasse","group":"Öffentliche Grünflächen"}},{"type":"Feature","geometry":{"type":"Point","coordinates":[7.59332,47.55881]},"properties":{"species":"Sommer-Linde","age_years":117,"street":"Oberer Rheinweg","group":"Strassenbäume"}},{"type":"Feature","geometry":{"type":"Point","coordinates":[7.5899,47.56145]},"properties":{"species":"Ungarische Silber-Linde","age_years":57,"street":"Unterer Rheinweg","group":"Strassenbäume"}},{"type":"Feature","geometry":{"type":"Point","coordinates":[7.58676,47.55668]},"properties":{"species":"Gewöhnliche Esche","age_years":null,"street":"Trillengässlein","group":"Strassenbäume"}},{"type":"Feature","geometry":{"type":"Point","coordinates":[7.58953,47.55892]},"properties":{"species":"Gewöhnliche Hain- oder Weissbuche","age_years":null,"street":"Rheinsprung","group":"Öffentliche Grünflächen"}},{"type":"Feature","geometry":{"type":"Point","coordinates":[7.58603,47.56096]},"properties":{"species":"Pyramiden-Eiche","age_years":null,"street":"Petersgasse","group":"Strassenbäume"}},{"type":"Feature","geometry":{"type":"Point","coordinates":[7.5854,47.55861]},"properties":{"species":"Mädchenhaarbaum / Ginkgo","age_years":20,"street":"Nadelberg","group":"Privatbäume gepflegt durch STG"}},{"type":"Feature","geometry":{"type":"Point","coordinates":[7.58425,47.55595]},"properties":{"species":"Mädchenhaarbaum / Ginkgo","age_years":29,"street":"Schützengraben","group":"Öffentliche Grünflächen"}},{"type":"Feature","geometry":{"type":"Point","coordinates":[7.58451,47.55806]},"properties":{"species":"Pyramiden-Eiche","age_years":null,"street":"Petersgraben","group":"Privatbäume gepflegt durch STG"}},{"type":"Feature","geometry":{"type":"Point","coordinates":[7.58389,47.55592]},"properties":{"species":"Schmalblättrige Purpur-Esche","age_years":47,"street":"Schützengraben","group":"Öffentliche Grünflächen"}},{"type":"Feature","geometry":{"type":"Point","coordinates":[7.59166,47.55684]},"properties":{"species":"Gemeine Rosskastanie","age_years":110,"street":"Münsterplatz","group":"Öffentliche Grünflächen"}},{"type":"Feature","geometry":{"type":"Point","coordinates":[7.5836,47.55901]},"properties":{"species":"Sommer-Linde","age_years":102,"street":"Petersplatz","group":"Öffentliche Grünflächen"}},{"type":"Feature","geometry":{"type":"Point","coordinates":[7.58635,47.55817]},"properties":{"species":"Krim-Linde","age_years":50,"street":"Andreasplatz","group":"Strassenbäume"}},{"type":"Feature","geometry":{"type":"Point","coordinates":[7.58636,47.5593]},"properties":{"species":"Eisenholzbaum","age_years":40,"street":"Kellergässlein","group":"Öffentliche Grünflächen"}},{"type":"Feature","geometry":{"type":"Point","coordinates":[7.5934,47.55631]},"properties":{"species":"Berg-Ahorn","age_years":null,"street":"Pfalz","group":"Öffentliche Grünflächen"}},{"type":"Feature","geometry":{"type":"Point","coordinates":[7.5916,47.55689]},"properties":{"species":"Gemeine Rosskastanie","age_years":110,"street":"Münsterplatz","group":"Öffentliche Grünflächen"}},{"type":"Feature","geometry":{"type":"Point","coordinates":[7.59175,47.55664]},"properties":{"species":"Gemeine Rosskastanie","age_years":110,"street":"Münsterplatz","group":"Öffentliche Grünflächen"}},{"type":"Feature","geometry":{"type":"Point","coordinates":[7.59195,47.55683]},"properties":{"species":"Gemeine Rosskastanie","age_years":110,"street":"Münsterplatz","group":"Öffentliche Grünflächen"}},{"type":"Feature","geometry":{"type":"Point","coordinates":[7.5913,47.5602]},"properties":{"species":"Winter-Linde","age_years":105,"street":"Oberer Rheinweg","group":"Strassenbäume"}},{"type":"Feature","geometry":{"type":"Point","coordinates":[7.59153,47.55685]},"properties":{"species":"Gemeine Rosskastanie","age_years":110,"street":"Münsterplatz","group":"Öffentliche Grünflächen"}},{"type":"Feature","geometry":{"type":"Point","coordinates":[7.59298,47.55681]},"properties":{"species":"Feld-Ahorn","age_years":51,"street":"Pfalz","group":"Öffentliche Grünflächen"}},{"type":"Feature","geometry":{"type":"Point","coordinates":[7.59168,47.55692]},"properties":{"species":"Gemeine Rosskastanie","age_years":110,"street":"Münsterplatz","group":"Öffentliche Grünflächen"}},{"type":"Feature","geometry":{"type":"Point","coordinates":[7.59169,47.55989]},"properties":{"species":"Winter-Linde","age_years":65,"street":"Oberer Rheinweg","group":"Strassenbäume"}},{"type":"Feature","geometry":{"type":"Point","coordinates":[7.58431,47.55931]},"properties":{"species":"Gewöhnliche Platane","age_years":82,"street":"Petersplatz","group":"Öffentliche Grünflächen"}},{"type":"Feature","geometry":{"type":"Point","coordinates":[7.58648,47.55817]},"properties":{"species":"Krim-Linde","age_years":50,"street":"Andreasplatz","group":"Strassenbäume"}},{"type":"Feature","geometry":{"type":"Point","coordinates":[7.59175,47.55696]},"properties":{"species":"Gemeine Rosskastanie","age_years":110,"street":"Münsterplatz","group":"Öffentliche Grünflächen"}},{"type":"Feature","geometry":{"type":"Point","coordinates":[7.58551,47.55912]},"properties":{"species":"Winter-Linde","age_years":53,"street":"Peterskirchplatz","group":"Öffentliche Grünflächen"}},{"type":"Feature","geometry":{"type":"Point","coordinates":[7.5862,47.55931]},"properties":{"species":"Gewöhnlicher Trompetenbaum","age_years":40,"street":"Kellergässlein","group":"Öffentliche Grünflächen"}},{"type":"Feature","geometry":{"type":"Point","coordinates":[7.58588,47.56122]},"properties":{"species":"Kuchenbaum/ Katsurabaum","age_years":40,"street":"Petersgraben","group":"Strassenbäume"}},{"type":"Feature","geometry":{"type":"Point","coordinates":[7.59226,47.55948]},"properties":{"species":"Winter-Linde","age_years":68,"street":"Oberer Rheinweg","group":"Strassenbäume"}},{"type":"Feature","geometry":{"type":"Point","coordinates":[7.58358,47.55591]},"properties":{"species":"Gewöhnliche Platane","age_years":58,"street":"Schützengraben","group":"Öffentliche Grünflächen"}},{"type":"Feature","geometry":{"type":"Point","coordinates":[7.58757,47.55669]},"properties":{"species":"Krim-Linde","age_years":60,"street":"Rümelinsplatz","group":"Strassenbäume"}},{"type":"Feature","geometry":{"type":"Point","coordinates":[7.58373,47.55836]},"properties":{"species":"Gewöhnliche Platane","age_years":152,"street":"Petersgraben","group":"Privatbäume gepflegt durch STG"}},{"type":"Feature","geometry":{"type":"Point","coordinates":[7.59279,47.55671]},"properties":{"species":"Gemeine Rosskastanie","age_years":71,"street":"Pfalz","group":"Öffentliche Grünflächen"}},{"type":"Feature","geometry":{"type":"Point","coordinates":[7.59272,47.55573]},"properties":{"species":"Krim-Linde","age_years":51,"street":"Rittergasse","group":"Öffentliche Grünflächen"}},{"type":"Feature","geometry":{"type":"Point","coordinates":[7.58407,47.55973]},"properties":{"species":"Amerikanischer Amberbaum","age_years":46,"street":"Hebelstrasse","group":"Privatbäume gepflegt durch STG"}},{"type":"Feature","geometry":{"type":"Point","coordinates":[7.58395,47.55939]},"properties":{"species":"Krim-Linde","age_years":52,"street":"Petersplatz","group":"Öffentliche Grünflächen"}},{"type":"Feature","geometry":{"type":"Point","coordinates":[7.58976,47.55855]},"properties":{"species":"Kornelkirsche","age_years":266,"street":"Rheinsprung","group":"Öffentliche Grünflächen"}},{"type":"Feature","geometry":{"type":"Point","coordinates":[7.58375,47.55808]},"properties":{"species":"Feld-Ahorn","age_years":102,"street":"Vesalgasse","group":"Privatbäume gepflegt durch STG"}},{"type":"Feature","geometry":{"type":"Point","coordinates":[7.58367,47.55993]},"properties":{"species":"Japanische Blüten-Kirsche","age_years":38,"street":"Hebelstrasse","group":"Privatbäume gepflegt durch STG"}},{"type":"Feature","geometry":{"type":"Point","coordinates":[7.5924,47.55594]},"properties":{"species":"Blasenbaum / Blasenesche","age_years":90,"street":"Münsterplatz","group":"Öffentliche Grünflächen"}},{"type":"Feature","geometry":{"type":"Point","coordinates":[7.59284,47.55691]},"properties":{"species":"Zitter-Pappel, Espe","age_years":15,"street":"Pfalz","group":"Öffentliche Grünflächen"}},{"type":"Feature","geometry":{"type":"Point","coordinates":[7.58418,47.55586]},"properties":{"species":"Mädchenhaarbaum / Ginkgo","age_years":36,"street":"Schützengraben","group":"Öffentliche Grünflächen"}},{"type":"Feature","geometry":{"type":"Point","coordinates":[7.58363,47.55916]},"properties":{"species":"Sommer-Linde","age_years":112,"street":"Petersplatz","group":"Öffentliche Grünflächen"}},{"type":"Feature","geometry":{"type":"Point","coordinates":[7.59172,47.55679]},"properties":{"species":"Gemeine Rosskastanie","age_years":110,"street":"Münsterplatz","group":"Öffentliche Grünflächen"}},{"type":"Feature","geometry":{"type":"Point","coordinates":[7.58375,47.55999]},"properties":{"species":"Zimt Ahorn","age_years":46,"street":"Hebelstrasse","group":"Privatbäume gepflegt durch STG"}},{"type":"Feature","geometry":{"type":"Point","coordinates":[7.58413,47.55938]},"properties":{"species":"Krim-Linde","age_years":42,"street":"Petersplatz","group":"Öffentliche Grünflächen"}},{"type":"Feature","geometry":{"type":"Point","coordinates":[7.58499,47.56055]},"properties":{"species":"Feld-Ahorn","age_years":33,"street":"USB Universitätsspital Garten","group":"Privatbäume gepflegt durch STG"}},{"type":"Feature","geometry":{"type":"Point","coordinates":[7.58702,47.56126]},"properties":{"species":"Leder-Weissdorn","age_years":38,"street":"Drei König-Weglein","group":"Strassenbäume"}},{"type":"Feature","geometry":{"type":"Point","coordinates":[7.59185,47.55977]},"properties":{"species":"Winter-Linde","age_years":36,"street":"Oberer Rheinweg","group":"Strassenbäume"}},{"type":"Feature","geometry":{"type":"Point","coordinates":[7.58526,47.55886]},"properties":{"species":"Spaeths Erle","age_years":10,"street":"Stiftsgasse","group":"Schul- und Kindergartenareal"}},{"type":"Feature","geometry":{"type":"Point","coordinates":[7.59293,47.55948]},"properties":{"species":"Hängebirke / Weiss- oder Sandbirke","age_years":76,"street":"Utengasse","group":"Öffentliche Grünflächen"}},{"type":"Feature","geometry":{"type":"Point","coordinates":[7.59024,47.56112]},"properties":{"species":"Krim-Linde","age_years":57,"street":"Unterer Rheinweg","group":"Strassenbäume"}},{"type":"Feature","geometry":{"type":"Point","coordinates":[7.59153,47.56001]},"properties":{"species":"Winter-Linde","age_years":117,"street":"Oberer Rheinweg","group":"Strassenbäume"}},{"type":"Feature","geometry":{"type":"Point","coordinates":[7.59296,47.55903]},"properties":{"species":"Sommer-Linde","age_years":87,"street":"Oberer Rheinweg","group":"Strassenbäume"}},{"type":"Feature","geometry":{"type":"Point","coordinates":[7.59261,47.55925]},"properties":{"species":"Krim-Linde","age_years":87,"street":"Oberer Rheinweg","group":"Strassenbäume"}},{"type":"Feature","geometry":{"type":"Point","coordinates":[7.59278,47.55914]},"properties":{"species":"Krim-Linde","age_years":36,"street":"Oberer Rheinweg","group":"Strassenbäume"}},{"type":"Feature","geometry":{"type":"Point","coordinates":[7.58383,47.55556]},"properties":{"species":"Amerikanische Rot-Eiche","age_years":11,"street":"Holbeinplatz","group":"Strassenbäume"}},{"type":"Feature","geometry":{"type":"Point","coordinates":[7.58414,47.55656]},"properties":{"species":"Säulen-Hainbuche","age_years":34,"street":"Leonhardsgraben","group":"Strassenbäume"}},{"type":"Feature","geometry":{"type":"Point","coordinates":[7.58366,47.55971]},"properties":{"species":"Winter-Linde","age_years":25,"street":"Hebelstrasse","group":"Privatbäume gepflegt durch STG"}},{"type":"Feature","geometry":{"type":"Point","coordinates":[7.5926,47.55684]},"properties":{"species":"Gemeine Rosskastanie","age_years":96,"street":"Pfalz","group":"Öffentliche Grünflächen"}},{"type":"Feature","geometry":{"type":"Point","coordinates":[7.58418,47.55591]},"properties":{"species":"Mädchenhaarbaum / Ginkgo","age_years":30,"street":"Schützengraben","group":"Öffentliche Grünflächen"}},{"type":"Feature","geometry":{"type":"Point","coordinates":[7.58432,47.55627]},"properties":{"species":"Europäische Hopfenbuche","age_years":25,"street":"Auf der Lyss","group":"Strassenbäume"}},{"type":"Feature","geometry":{"type":"Point","coordinates":[7.58971,47.55869]},"properties":{"species":"Echte Quitte","age_years":15,"street":"Rheinsprung","group":"Öffentliche Grünflächen"}},{"type":"Feature","geometry":{"type":"Point","coordinates":[7.58431,47.55632]},"properties":{"species":"Europäische Hopfenbuche","age_years":25,"street":"Auf der Lyss","group":"Strassenbäume"}},{"type":"Feature","geometry":{"type":"Point","coordinates":[7.58433,47.55623]},"properties":{"species":"Europäische Hopfenbuche","age_years":25,"street":"Auf der Lyss","group":"Strassenbäume"}},{"type":"Feature","geometry":{"type":"Point","coordinates":[7.58973,47.55866]},"properties":{"species":"Echte Quitte","age_years":15,"street":"Rheinsprung","group":"Öffentliche Grünflächen"}},{"type":"Feature","geometry":{"type":"Point","coordinates":[7.59238,47.55613]},"properties":{"species":"Krim-Linde","age_years":47,"street":"Rittergasse","group":"Strassenbäume"}},{"type":"Feature","geometry":{"type":"Point","coordinates":[7.59226,47.55567]},"properties":{"species":"Sommer-Linde","age_years":52,"street":"Rittergasse","group":"Öffentliche Grünflächen"}},{"type":"Feature","geometry":{"type":"Point","coordinates":[7.58535,47.55886]},"properties":{"species":"Hängebirke / Weiss- oder Sandbirke","age_years":38,"street":"Stiftsgasse","group":"Schul- und Kindergartenareal"}},{"type":"Feature","geometry":{"type":"Point","coordinates":[7.58372,47.55558]},"properties":{"species":"Stiel-Eiche","age_years":40,"street":"Holbeinplatz","group":"Strassenbäume"}},{"type":"Feature","geometry":{"type":"Point","coordinates":[7.59201,47.55574]},"properties":{"species":"Gewöhnlicher Judasbaum","age_years":33,"street":"Rittergasse","group":"Öffentliche Grünflächen"}},{"type":"Feature","geometry":{"type":"Point","coordinates":[7.58989,47.55859]},"properties":{"species":null,"age_years":15,"street":"Rheinsprung","group":"Öffentliche Grünflächen"}},{"type":"Feature","geometry":{"type":"Point","coordinates":[7.58406,47.55893]},"properties":{"species":"Krim-Linde","age_years":19,"street":"Petersplatz","group":"Öffentliche Grünflächen"}},{"type":"Feature","geometry":{"type":"Point","coordinates":[7.58425,47.55666]},"properties":{"species":"Säulen-Hainbuche","age_years":22,"street":"Leonhardsgraben","group":"Strassenbäume"}},{"type":"Feature","geometry":{"type":"Point","coordinates":[7.59266,47.55579]},"properties":{"species":"Krim-Linde","age_years":91,"street":"Rittergasse","group":"Öffentliche Grünflächen"}},{"type":"Feature","geometry":{"type":"Point","coordinates":[7.58741,47.55678]},"properties":{"species":"Krim-Linde","age_years":60,"street":"Rümelinsplatz","group":"Strassenbäume"}},{"type":"Feature","geometry":{"type":"Point","coordinates":[7.58636,47.55924]},"properties":{"species":"Gewöhnlicher Trompetenbaum","age_years":40,"street":"Kellergässlein","group":"Öffentliche Grünflächen"}},{"type":"Feature","geometry":{"type":"Point","coordinates":[7.58484,47.55554]},"properties":{"species":"Spitz-Ahorn","age_years":49,"street":"Steinengraben","group":"Strassenbäume"}},{"type":"Feature","geometry":{"type":"Point","coordinates":[7.587,47.56097]},"properties":{"species":"Dreidornen-Gleditschie","age_years":50,"street":"Blumenrain","group":"Strassenbäume"}},{"type":"Feature","geometry":{"type":"Point","coordinates":[7.59177,47.55983]},"properties":{"species":"Krim-Linde","age_years":65,"street":"Oberer Rheinweg","group":"Strassenbäume"}},{"type":"Feature","geometry":{"type":"Point","coordinates":[7.5863,47.55918]},"properties":{"species":"Persimone","age_years":40,"street":"Kellergässlein","group":"Öffentliche Grünflächen"}},{"type":"Feature","geometry":{"type":"Point","coordinates":[7.5919,47.55664]},"properties":{"species":"Gemeine Rosskastanie","age_years":110,"street":"Münsterplatz","group":"Öffentliche Grünflächen"}},{"type":"Feature","geometry":{"type":"Point","coordinates":[7.59193,47.55674]},"properties":{"species":"Gemeine Rosskastanie","age_years":110,"street":"Münsterplatz","group":"Öffentliche Grünflächen"}},{"type":"Feature","geometry":{"type":"Point","coordinates":[7.58356,47.56004]},"properties":{"species":"Eisenholzbaum","age_years":46,"street":"Hebelstrasse","group":"Privatbäume gepflegt durch STG"}},{"type":"Feature","geometry":{"type":"Point","coordinates":[7.58385,47.5594]},"properties":{"species":"Sommer-Linde","age_years":77,"street":"Petersplatz","group":"Öffentliche Grünflächen"}},{"type":"Feature","geometry":{"type":"Point","coordinates":[7.58355,47.5598]},"properties":{"species":"Gewöhnliche oder Europäische Eibe","age_years":48,"street":"Hebelstrasse","group":"Privatbäume gepflegt durch STG"}},{"type":"Feature","geometry":{"type":"Point","coordinates":[7.58456,47.55572]},"properties":{"species":"Spitz-Ahorn","age_years":52,"street":"Steinengraben","group":"Strassenbäume"}},{"type":"Feature","geometry":{"type":"Point","coordinates":[7.58594,47.56126]},"properties":{"species":"Kuchenbaum/ Katsurabaum","age_years":40,"street":"Petersgraben","group":"Strassenbäume"}},{"type":"Feature","geometry":{"type":"Point","coordinates":[7.59279,47.55568]},"properties":{"species":"Krim-Linde","age_years":51,"street":"Rittergasse","group":"Öffentliche Grünflächen"}},{"type":"Feature","geometry":{"type":"Point","coordinates":[7.58372,47.55989]},"properties":{"species":"Pagoden-Hartriegel","age_years":36,"street":"Hebelstrasse","group":"Privatbäume gepflegt durch STG"}},{"type":"Feature","geometry":{"type":"Point","coordinates":[7.58392,47.55892]},"properties":{"species":"Ungarische Silber-Linde","age_years":82,"street":"Petersplatz","group":"Öffentliche Grünflächen"}},{"type":"Feature","geometry":{"type":"Point","coordinates":[7.59244,47.55936]},"properties":{"species":"Winter-Linde","age_years":58,"street":"Oberer Rheinweg","group":"Strassenbäume"}},{"type":"Feature","geometry":{"type":"Point","coordinates":[7.59174,47.55688]},"properties":{"species":"Gemeine Rosskastanie","age_years":110,"street":"Münsterplatz","group":"Öffentliche Grünflächen"}},{"type":"Feature","geometry":{"type":"Point","coordinates":[7.59168,47.55701]},"properties":{"species":"Gemeine Rosskastanie","age_years":110,"street":"Münsterplatz","group":"Öffentliche Grünflächen"}},{"type":"Feature","geometry":{"type":"Point","coordinates":[7.58375,47.55926]},"properties":{"species":"Weiss-Esche","age_years":50,"street":"Petersplatz","group":"Öffentliche Grünflächen"}},{"type":"Feature","geometry":{"type":"Point","coordinates":[7.58543,47.55912]},"properties":{"species":"Winter-Linde","age_years":53,"street":"Peterskirchplatz","group":"Öffentliche Grünflächen"}},{"type":"Feature","geometry":{"type":"Point","coordinates":[7.58705,47.55693]},"properties":{"species":"Mädchenhaarbaum / Ginkgo","age_years":50,"street":"Rümelinsplatz","group":"Strassenbäume"}},{"type":"Feature","geometry":{"type":"Point","coordinates":[7.59336,47.55584]},"properties":{"species":"Blasenbaum / Blasenesche","age_years":23,"street":"Rittergasse","group":"Öffentliche Grünflächen"}},{"type":"Feature","geometry":{"type":"Point","coordinates":[7.59178,47.55674]},"properties":{"species":"Gemeine Rosskastanie","age_years":110,"street":"Münsterplatz","group":"Öffentliche Grünflächen"}},{"type":"Feature","geometry":{"type":"Point","coordinates":[7.58618,47.55937]},"properties":{"species":"Eisenholzbaum","age_years":40,"street":"Kellergässlein","group":"Öffentliche Grünflächen"}},{"type":"Feature","geometry":{"type":"Point","coordinates":[7.58411,47.55586]},"properties":{"species":"Mädchenhaarbaum / Ginkgo","age_years":50,"street":"Schützengraben","group":"Öffentliche Grünflächen"}},{"type":"Feature","geometry":{"type":"Point","coordinates":[7.58429,47.55918]},"properties":{"species":"Gewöhnliche Platane","age_years":62,"street":"Petersplatz","group":"Öffentliche Grünflächen"}},{"type":"Feature","geometry":{"type":"Point","coordinates":[7.5837,47.55982]},"properties":{"species":"Blasenbaum / Blasenesche","age_years":34,"street":"Hebelstrasse","group":"Privatbäume gepflegt durch STG"}},{"type":"Feature","geometry":{"type":"Point","coordinates":[7.58423,47.55878]},"properties":{"species":"Gewöhnliche Platane","age_years":92,"street":"Petersplatz","group":"Öffentliche Grünflächen"}},{"type":"Feature","geometry":{"type":"Point","coordinates":[7.59151,47.55676]},"properties":{"species":"Gemeine Rosskastanie","age_years":110,"street":"Münsterplatz","group":"Öffentliche Grünflächen"}},{"type":"Feature","geometry":{"type":"Point","coordinates":[7.58549,47.56115]},"properties":{"species":"Gewöhnliche Platane","age_years":48,"street":"USB Universitätsspital Garten","group":"Privatbäume gepflegt durch STG"}},{"type":"Feature","geometry":{"type":"Point","coordinates":[7.58425,47.5589]},"properties":{"species":"Gewöhnliche Platane","age_years":52,"street":"Petersplatz","group":"Öffentliche Grünflächen"}},{"type":"Feature","geometry":{"type":"Point","coordinates":[7.5931,47.55671]},"properties":{"species":"Feld-Ahorn","age_years":51,"street":"Pfalz","group":"Öffentliche Grünflächen"}},{"type":"Feature","geometry":{"type":"Point","coordinates":[7.58428,47.55906]},"properties":{"species":"Gewöhnliche Platane","age_years":47,"street":"Petersplatz","group":"Öffentliche Grünflächen"}},{"type":"Feature","geometry":{"type":"Point","coordinates":[7.58372,47.55809]},"properties":{"species":"Feld-Ahorn","age_years":92,"street":"Vesalgasse","group":"Privatbäume gepflegt durch STG"}},{"type":"Feature","geometry":{"type":"Point","coordinates":[7.58389,47.55908]},"properties":{"species":"Spitz-Ahorn","age_years":52,"street":"Petersplatz","group":"Öffentliche Grünflächen"}},{"type":"Feature","geometry":{"type":"Point","coordinates":[7.58374,47.55868]},"properties":{"species":"Krim-Linde","age_years":47,"street":"Petersplatz","group":"Öffentliche Grünflächen"}},{"type":"Feature","geometry":{"type":"Point","coordinates":[7.5883,47.55983]},"properties":{"species":"Südlicher Zürgelbaum","age_years":30,"street":"Schifflände","group":"Strassenbäume"}},{"type":"Feature","geometry":{"type":"Point","coordinates":[7.59019,47.55824]},"properties":{"species":"Spitz-Ahorn","age_years":null,"street":null,"group":"Privatbäume gepflegt durch STG"}},{"type":"Feature","geometry":{"type":"Point","coordinates":[7.58443,47.55733]},"properties":{"species":"Gefülltblühende Rosskastanie","age_years":null,"street":"Petersgraben","group":"Strassenbäume"}},{"type":"Feature","geometry":{"type":"Point","coordinates":[7.59283,47.55959]},"properties":{"species":"Gewöhnlicher Judasbaum","age_years":24,"street":"Utengasse","group":"Öffentliche Grünflächen"}},{"type":"Feature","geometry":{"type":"Point","coordinates":[7.58424,47.55592]},"properties":{"species":"Mädchenhaarbaum / Ginkgo","age_years":29,"street":"Schützengraben","group":"Öffentliche Grünflächen"}},{"type":"Feature","geometry":{"type":"Point","coordinates":[7.58596,47.55829]},"properties":{"species":"Mädchenhaarbaum / Ginkgo","age_years":null,"street":null,"group":"Privatbäume gepflegt durch STG"}},{"type":"Feature","geometry":{"type":"Point","coordinates":[7.58411,47.55593]},"properties":{"species":"Mädchenhaarbaum / Ginkgo","age_years":74,"street":"Schützengraben","group":"Öffentliche Grünflächen"}},{"type":"Feature","geometry":{"type":"Point","coordinates":[7.58413,47.55879]},"properties":{"species":"Sommer-Linde","age_years":112,"street":"Petersplatz","group":"Öffentliche Grünflächen"}},{"type":"Feature","geometry":{"type":"Point","coordinates":[7.58373,47.55896]},"properties":{"species":"Winter-Linde","age_years":37,"street":"Petersplatz","group":"Öffentliche Grünflächen"}},{"type":"Feature","geometry":{"type":"Point","coordinates":[7.59155,47.55694]},"properties":{"species":"Gemeine Rosskastanie","age_years":110,"street":"Münsterplatz","group":"Öffentliche Grünflächen"}},{"type":"Feature","geometry":{"type":"Point","coordinates":[7.58402,47.55592]},"properties":{"species":"Schmalblättrige Purpur-Esche","age_years":74,"street":"Schützengraben","group":"Öffentliche Grünflächen"}},{"type":"Feature","geometry":{"type":"Point","coordinates":[7.59318,47.5565]},"properties":{"species":"Gewöhnliche oder Europäische Eibe","age_years":null,"street":"Pfalz","group":"Öffentliche Grünflächen"}},{"type":"Feature","geometry":{"type":"Point","coordinates":[7.59202,47.55679]},"properties":{"species":"Gemeine Rosskastanie","age_years":110,"street":"Münsterplatz","group":"Öffentliche Grünflächen"}},{"type":"Feature","geometry":{"type":"Point","coordinates":[7.58375,47.55936]},"properties":{"species":"Krim-Linde","age_years":52,"street":"Petersplatz","group":"Öffentliche Grünflächen"}},{"type":"Feature","geometry":{"type":"Point","coordinates":[7.58428,47.55912]},"properties":{"species":"Gewöhnliche Platane","age_years":47,"street":"Petersplatz","group":"Öffentliche Grünflächen"}},{"type":"Feature","geometry":{"type":"Point","coordinates":[7.58366,47.55937]},"properties":{"species":"Krim-Linde","age_years":42,"street":"Petersplatz","group":"Öffentliche Grünflächen"}},{"type":"Feature","geometry":{"type":"Point","coordinates":[7.59169,47.55669]},"properties":{"species":"Gemeine Rosskastanie","age_years":110,"street":"Münsterplatz","group":"Öffentliche Grünflächen"}},{"type":"Feature","geometry":{"type":"Point","coordinates":[7.59159,47.5568]},"properties":{"species":"Gemeine Rosskastanie","age_years":110,"street":"Münsterplatz","group":"Öffentliche Grünflächen"}},{"type":"Feature","geometry":{"type":"Point","coordinates":[7.58514,47.56076]},"properties":{"species":"Gewöhnliche Platane","age_years":48,"street":"USB Universitätsspital Garten","group":"Privatbäume gepflegt durch STG"}},{"type":"Feature","geometry":{"type":"Point","coordinates":[7.5862,47.55918]},"properties":{"species":"Persimone","age_years":40,"street":"Kellergässlein","group":"Öffentliche Grünflächen"}},{"type":"Feature","geometry":{"type":"Point","coordinates":[7.58521,47.5584]},"properties":{"species":"Ungarische Silber-Linde","age_years":130,"street":"Nadelberg","group":"Privatbäume gepflegt durch STG"}},{"type":"Feature","geometry":{"type":"Point","coordinates":[7.59061,47.55705]},"properties":{"species":"Sommer-Linde","age_years":23,"street":"Münsterplatz","group":"Privatbäume gepflegt durch STG"}},{"type":"Feature","geometry":{"type":"Point","coordinates":[7.59326,47.55563]},"properties":{"species":"Amerikanischer Tulpenbaum","age_years":14,"street":"Rittergasse","group":"Öffentliche Grünflächen"}},{"type":"Feature","geometry":{"type":"Point","coordinates":[7.58405,47.55889]},"properties":{"species":"Krim-Linde","age_years":19,"street":"Petersplatz","group":"Öffentliche Grünflächen"}},{"type":"Feature","geometry":{"type":"Point","coordinates":[7.58649,47.56003]},"properties":{"species":"Dreidornen-Gleditschie","age_years":39,"street":"Spiegelhof","group":"Öffentliche Grünflächen"}},{"type":"Feature","geometry":{"type":"Point","coordinates":[7.58989,47.55856]},"properties":{"species":"Elsbeere","age_years":12,"street":"Rheinsprung","group":"Öffentliche Grünflächen"}},{"type":"Feature","geometry":{"type":"Point","coordinates":[7.58886,47.55879]},"properties":{"species":"Mongolische Linde","age_years":12,"street":"Martinskirchplatz","group":"Strassenbäume"}},{"type":"Feature","geometry":{"type":"Point","coordinates":[7.5925,47.55591]},"properties":{"species":"Krim-Linde","age_years":17,"street":"Rittergasse","group":"Schul- und Kindergartenareal"}},{"type":"Feature","geometry":{"type":"Point","coordinates":[7.58614,47.55576]},"properties":{"species":"Zerr-Eiche","age_years":22,"street":"Leonhardsgraben","group":"Strassenbäume"}},{"type":"Feature","geometry":{"type":"Point","coordinates":[7.59292,47.55687]},"properties":{"species":"Zitter-Pappel, Espe","age_years":15,"street":"Pfalz","group":"Öffentliche Grünflächen"}},{"type":"Feature","geometry":{"type":"Point","coordinates":[7.58458,47.55585]},"properties":{"species":"Japanischer Pagodenbaum","age_years":28,"street":"Steinengraben","group":"Öffentliche Grünflächen"}},{"type":"Feature","geometry":{"type":"Point","coordinates":[7.58454,47.55591]},"properties":{"species":"Japanischer Pagodenbaum","age_years":28,"street":"Steinengraben","group":"Öffentliche Grünflächen"}},{"type":"Feature","geometry":{"type":"Point","coordinates":[7.58371,47.55805]},"properties":{"species":"Dreizähniger Ahorn","age_years":10,"street":"Vesalgasse","group":"Privatbäume gepflegt durch STG"}},{"type":"Feature","geometry":{"type":"Point","coordinates":[7.58997,47.56138]},"properties":{"species":"Ungarische Silber-Linde","age_years":37,"street":"Unterer Rheinweg","group":"Strassenbäume"}},{"type":"Feature","geometry":{"type":"Point","coordinates":[7.58372,47.56011]},"properties":{"species":"Eisenholzbaum","age_years":46,"street":"Hebelstrasse","group":"Privatbäume gepflegt durch STG"}},{"type":"Feature","geometry":{"type":"Point","coordinates":[7.59161,47.55665]},"properties":{"species":"Gemeine Rosskastanie","age_years":45,"street":"Münsterplatz","group":"Öffentliche Grünflächen"}},{"type":"Feature","geometry":{"type":"Point","coordinates":[7.58389,47.55883]},"properties":{"species":"Spitz-Ahorn","age_years":52,"street":"Petersplatz","group":"Öffentliche Grünflächen"}},{"type":"Feature","geometry":{"type":"Point","coordinates":[7.58361,47.5588]},"properties":{"species":"Stiel-Eiche","age_years":17,"street":"Petersplatz","group":"Öffentliche Grünflächen"}},{"type":"Feature","geometry":{"type":"Point","coordinates":[7.5901,47.56125]},"properties":{"species":"Ungarische Silber-Linde","age_years":77,"street":"Unterer Rheinweg","group":"Strassenbäume"}},{"type":"Feature","geometry":{"type":"Point","coordinates":[7.59003,47.56132]},"properties":{"species":"Winter-Linde","age_years":37,"street":"Unterer Rheinweg","group":"Strassenbäume"}},{"type":"Feature","geometry":{"type":"Point","coordinates":[7.59323,47.55887]},"properties":{"species":"Sommer-Linde","age_years":117,"street":"Oberer Rheinweg","group":"Strassenbäume"}},{"type":"Feature","geometry":{"type":"Point","coordinates":[7.59182,47.55692]},"properties":{"species":"Gemeine Rosskastanie","age_years":110,"street":"Münsterplatz","group":"Öffentliche Grünflächen"}},{"type":"Feature","geometry":{"type":"Point","coordinates":[7.58376,47.55941]},"properties":{"species":"Krim-Linde","age_years":42,"street":"Petersplatz","group":"Öffentliche Grünflächen"}},{"type":"Feature","geometry":{"type":"Point","coordinates":[7.58357,47.55942]},"properties":{"species":"Krim-Linde","age_years":52,"street":"Petersplatz","group":"Öffentliche Grünflächen"}},{"type":"Feature","geometry":{"type":"Point","coordinates":[7.59145,47.56008]},"properties":{"species":"Krim-Linde","age_years":65,"street":"Oberer Rheinweg","group":"Strassenbäume"}},{"type":"Feature","geometry":{"type":"Point","coordinates":[7.59305,47.55567]},"properties":{"species":"Gewöhnlicher Trompetenbaum","age_years":24,"street":"Rittergasse","group":"Öffentliche Grünflächen"}},{"type":"Feature","geometry":{"type":"Point","coordinates":[7.59255,47.55588]},"properties":{"species":"Krim-Linde","age_years":14,"street":"Rittergasse","group":"Schul- und Kindergartenareal"}},{"type":"Feature","geometry":{"type":"Point","coordinates":[7.59146,47.55681]},"properties":{"species":"Indische Rosskastanie","age_years":13,"street":"Münsterplatz","group":"Öffentliche Grünflächen"}},{"type":"Feature","geometry":{"type":"Point","coordinates":[7.59042,47.55818]},"properties":{"species":"Rot-Buche","age_years":116,"street":"Rheinsprung","group":"Privatbäume gepflegt durch STG"}},{"type":"Feature","geometry":{"type":"Point","coordinates":[7.59305,47.55898]},"properties":{"species":"Krim-Linde","age_years":36,"street":"Oberer Rheinweg","group":"Strassenbäume"}},{"type":"Feature","geometry":{"type":"Point","coordinates":[7.59273,47.55974]},"properties":{"species":"Gewöhnliche oder Europäische Eibe","age_years":76,"street":"Utengasse","group":"Öffentliche Grünflächen"}},{"type":"Feature","geometry":{"type":"Point","coordinates":[7.59031,47.56106]},"properties":{"species":"Ungarische Silber-Linde","age_years":57,"street":"Unterer Rheinweg","group":"Strassenbäume"}},{"type":"Feature","geometry":{"type":"Point","coordinates":[7.59065,47.55668]},"properties":{"species":"Sommer-Linde","age_years":267,"street":"Münsterplatz","group":"Öffentliche Grünflächen"}},{"type":"Feature","geometry":{"type":"Point","coordinates":[7.5845,47.55586]},"properties":{"species":"Japanischer Pagodenbaum","age_years":28,"street":"Steinengraben","group":"Öffentliche Grünflächen"}},{"type":"Feature","geometry":{"type":"Point","coordinates":[7.58711,47.55697]},"properties":{"species":"Mädchenhaarbaum / Ginkgo","age_years":64,"street":"Rümelinsplatz","group":"Strassenbäume"}},{"type":"Feature","geometry":{"type":"Point","coordinates":[7.59341,47.55876]},"properties":{"species":"Winter-Linde","age_years":36,"street":"Oberer Rheinweg","group":"Strassenbäume"}},{"type":"Feature","geometry":{"type":"Point","coordinates":[7.58953,47.5589]},"properties":{"species":"Gewöhnliche Hain- oder Weissbuche","age_years":null,"street":"Rheinsprung","group":"Öffentliche Grünflächen"}},{"type":"Feature","geometry":{"type":"Point","coordinates":[7.58969,47.55875]},"properties":{"species":"Echte Quitte","age_years":null,"street":"Rheinsprung","group":"Öffentliche Grünflächen"}},{"type":"Feature","geometry":{"type":"Point","coordinates":[7.58583,47.55856]},"properties":{"species":"Echte Mispel","age_years":null,"street":null,"group":"Privatbäume gepflegt durch STG"}},{"type":"Feature","geometry":{"type":"Point","coordinates":[7.58604,47.5583]},"properties":{"species":"Echte Feige","age_years":null,"street":"Totengässlein","group":"Privatbäume gepflegt durch STG"}},{"type":"Feature","geometry":{"type":"Point","coordinates":[7.58815,47.55994]},"properties":{"species":"Südlicher Zürgelbaum","age_years":30,"street":"Schifflände","group":"Strassenbäume"}},{"type":"Feature","geometry":{"type":"Point","coordinates":[7.59208,47.5556]},"properties":{"species":"Kornelkirsche","age_years":15,"street":"Rittergasse","group":"Schul- und Kindergartenareal"}},{"type":"Feature","geometry":{"type":"Point","coordinates":[7.58823,47.55989]},"properties":{"species":"Südlicher Zürgelbaum","age_years":30,"street":"Schifflände","group":"Strassenbäume"}},{"type":"Feature","geometry":{"type":"Point","coordinates":[7.59199,47.55669]},"properties":{"species":"Gemeine Rosskastanie","age_years":110,"street":"Münsterplatz","group":"Öffentliche Grünflächen"}},{"type":"Feature","geometry":{"type":"Point","coordinates":[7.59187,47.55678]},"properties":{"species":"Gemeine Rosskastanie","age_years":110,"street":"Münsterplatz","group":"Öffentliche Grünflächen"}},{"type":"Feature","geometry":{"type":"Point","coordinates":[7.59161,47.55697]},"properties":{"species":"Gemeine Rosskastanie","age_years":110,"street":"Münsterplatz","group":"Öffentliche Grünflächen"}},{"type":"Feature","geometry":{"type":"Point","coordinates":[7.59322,47.55657]},"properties":{"species":"Berg-Ahorn","age_years":null,"street":"Pfalz","group":"Öffentliche Grünflächen"}},{"type":"Feature","geometry":{"type":"Point","coordinates":[7.58638,47.55932]},"properties":{"species":"Eisenholzbaum","age_years":40,"street":"Kellergässlein","group":"Öffentliche Grünflächen"}},{"type":"Feature","geometry":{"type":"Point","coordinates":[7.58472,47.55924]},"properties":{"species":"Winter-Linde","age_years":105,"street":"Peterskirchplatz","group":"Öffentliche Grünflächen"}},{"type":"Feature","geometry":{"type":"Point","coordinates":[7.58407,47.55898]},"properties":{"species":"Krim-Linde","age_years":34,"street":"Petersplatz","group":"Öffentliche Grünflächen"}},{"type":"Feature","geometry":{"type":"Point","coordinates":[7.58357,47.55915]},"properties":{"species":"Krim-Linde","age_years":52,"street":"Petersplatz","group":"Öffentliche Grünflächen"}},{"type":"Feature","geometry":{"type":"Point","coordinates":[7.58368,47.55569]},"properties":{"species":"Gewöhnliche Platane","age_years":44,"street":"Schützengraben","group":"Strassenbäume"}},{"type":"Feature","geometry":{"type":"Point","coordinates":[7.58478,47.55562]},"properties":{"species":"Spitz-Ahorn","age_years":49,"street":"Steinengraben","group":"Strassenbäume"}},{"type":"Feature","geometry":{"type":"Point","coordinates":[7.58413,47.55934]},"properties":{"species":"Winter-Linde","age_years":92,"street":"Petersplatz","group":"Öffentliche Grünflächen"}},{"type":"Feature","geometry":{"type":"Point","coordinates":[7.58445,47.55642]},"properties":{"species":"Gewöhnliche Platane","age_years":60,"street":"Leonhardsgraben","group":"Strassenbäume"}},{"type":"Feature","geometry":{"type":"Point","coordinates":[7.59314,47.55892]},"properties":{"species":"Winter-Linde","age_years":96,"street":"Oberer Rheinweg","group":"Strassenbäume"}},{"type":"Feature","geometry":{"type":"Point","coordinates":[7.58369,47.56005]},"properties":{"species":"Eisenholzbaum","age_years":46,"street":"Hebelstrasse","group":"Privatbäume gepflegt durch STG"}},{"type":"Feature","geometry":{"type":"Point","coordinates":[7.58374,47.55995]},"properties":{"species":"Zimt Ahorn","age_years":46,"street":"Hebelstrasse","group":"Privatbäume gepflegt durch STG"}},{"type":"Feature","geometry":{"type":"Point","coordinates":[7.59326,47.5564]},"properties":{"species":"Gewöhnliche Hain- oder Weissbuche","age_years":null,"street":"Pfalz","group":"Öffentliche Grünflächen"}},{"type":"Feature","geometry":{"type":"Point","coordinates":[7.58534,47.56099]},"properties":{"species":"Gewöhnliche Platane","age_years":48,"street":"USB Universitätsspital Garten","group":"Privatbäume gepflegt durch STG"}},{"type":"Feature","geometry":{"type":"Point","coordinates":[7.58409,47.55911]},"properties":{"species":"Sommer-Linde","age_years":132,"street":"Petersplatz","group":"Öffentliche Grünflächen"}},{"type":"Feature","geometry":{"type":"Point","coordinates":[7.59056,47.55742]},"properties":{"species":"Blasenbaum / Blasenesche","age_years":56,"street":"Augustinergasse","group":"Privatbäume gepflegt durch STG"}},{"type":"Feature","geometry":{"type":"Point","coordinates":[7.58354,47.55572]},"properties":{"species":"Gewöhnliche Platane","age_years":44,"street":"Schützengraben","group":"Strassenbäume"}},{"type":"Feature","geometry":{"type":"Point","coordinates":[7.59342,47.55603]},"properties":{"species":"Gewöhnliche Platane","age_years":88,"street":"Rittergasse","group":"Schul- und Kindergartenareal"}},{"type":"Feature","geometry":{"type":"Point","coordinates":[7.58361,47.55892]},"properties":{"species":"Sommer-Linde","age_years":92,"street":"Petersplatz","group":"Öffentliche Grünflächen"}},{"type":"Feature","geometry":{"type":"Point","coordinates":[7.58466,47.55569]},"properties":{"species":"Spitz-Ahorn","age_years":52,"street":"Steinengraben","group":"Strassenbäume"}},{"type":"Feature","geometry":{"type":"Point","coordinates":[7.59324,47.55655]},"properties":{"species":"Berg-Ahorn","age_years":null,"street":"Pfalz","group":"Öffentliche Grünflächen"}},{"type":"Feature","geometry":{"type":"Point","coordinates":[7.58708,47.56092]},"properties":{"species":"Dornlose Gleditschie","age_years":18,"street":"Blumenrain","group":"Strassenbäume"}},{"type":"Feature","geometry":{"type":"Point","coordinates":[7.59267,47.55679]},"properties":{"species":"Gemeine Rosskastanie","age_years":41,"street":"Pfalz","group":"Öffentliche Grünflächen"}},{"type":"Feature","geometry":{"type":"Point","coordinates":[7.58423,47.55589]},"properties":{"species":"Mädchenhaarbaum / Ginkgo","age_years":30,"street":"Schützengraben","group":"Öffentliche Grünflächen"}},{"type":"Feature","geometry":{"type":"Point","coordinates":[7.58415,47.55589]},"properties":{"species":"Mädchenhaarbaum / Ginkgo","age_years":30,"street":"Schützengraben","group":"Öffentliche Grünflächen"}},{"type":"Feature","geometry":{"type":"Point","coordinates":[7.58534,47.55861]},"properties":{"species":"Mädchenhaarbaum / Ginkgo","age_years":30,"street":"Nadelberg","group":"Privatbäume gepflegt durch STG"}},{"type":"Feature","geometry":{"type":"Point","coordinates":[7.58965,47.5587]},"properties":{"species":"Echte Quitte","age_years":15,"street":"Rheinsprung","group":"Öffentliche Grünflächen"}},{"type":"Feature","geometry":{"type":"Point","coordinates":[7.58434,47.55618]},"properties":{"species":"Europäische Hopfenbuche","age_years":25,"street":"Auf der Lyss","group":"Strassenbäume"}},{"type":"Feature","geometry":{"type":"Point","coordinates":[7.59148,47.5569]},"properties":{"species":"Gemeine Rosskastanie","age_years":110,"street":"Münsterplatz","group":"Öffentliche Grünflächen"}},{"type":"Feature","geometry":{"type":"Point","coordinates":[7.59184,47.55669]},"properties":{"species":"Gemeine Rosskastanie","age_years":110,"street":"Münsterplatz","group":"Öffentliche Grünflächen"}},{"type":"Feature","geometry":{"type":"Point","coordinates":[7.58422,47.55871]},"properties":{"species":"Gewöhnliche Platane","age_years":92,"street":"Petersplatz","group":"Öffentliche Grünflächen"}},{"type":"Feature","geometry":{"type":"Point","coordinates":[7.58361,47.5591]},"properties":{"species":"Sommer-Linde","age_years":97,"street":"Petersplatz","group":"Öffentliche Grünflächen"}},{"type":"Feature","geometry":{"type":"Point","coordinates":[7.59286,47.55667]},"properties":{"species":"Gemeine Rosskastanie","age_years":95,"street":"Pfalz","group":"Öffentliche Grünflächen"}},{"type":"Feature","geometry":{"type":"Point","coordinates":[7.59292,47.55672]},"properties":{"species":"Gemeine Rosskastanie","age_years":95,"street":"Pfalz","group":"Öffentliche Grünflächen"}},{"type":"Feature","geometry":{"type":"Point","coordinates":[7.59164,47.55674]},"properties":{"species":"Gemeine Rosskastanie","age_years":110,"street":"Münsterplatz","group":"Öffentliche Grünflächen"}},{"type":"Feature","geometry":{"type":"Point","coordinates":[7.59273,47.55684]},"properties":{"species":"Gemeine Rosskastanie","age_years":95,"street":"Pfalz","group":"Öffentliche Grünflächen"}},{"type":"Feature","geometry":{"type":"Point","coordinates":[7.58857,47.55879]},"properties":{"species":"Krim-Linde","age_years":48,"street":"Martinskirchplatz","group":"Öffentliche Grünflächen"}},{"type":"Feature","geometry":{"type":"Point","coordinates":[7.58714,47.56086]},"properties":{"species":"Dreidornen-Gleditschie","age_years":50,"street":"Blumenrain","group":"Strassenbäume"}},{"type":"Feature","geometry":{"type":"Point","coordinates":[7.5918,47.55683]},"properties":{"species":"Gemeine Rosskastanie","age_years":110,"street":"Münsterplatz","group":"Öffentliche Grünflächen"}},{"type":"Feature","geometry":{"type":"Point","coordinates":[7.58364,47.55813]},"properties":{"species":"Schwarzkiefer","age_years":107,"street":"Vesalgasse","group":"Privatbäume gepflegt durch STG"}},{"type":"Feature","geometry":{"type":"Point","coordinates":[7.58431,47.55925]},"properties":{"species":"Gewöhnliche Platane","age_years":42,"street":"Petersplatz","group":"Öffentliche Grünflächen"}},{"type":"Feature","geometry":{"type":"Point","coordinates":[7.58384,47.55872]},"properties":{"species":"Sommer-Linde","age_years":97,"street":"Petersplatz","group":"Öffentliche Grünflächen"}},{"type":"Feature","geometry":{"type":"Point","coordinates":[7.58412,47.55928]},"properties":{"species":"Krim-Linde","age_years":47,"street":"Petersplatz","group":"Öffentliche Grünflächen"}},{"type":"Feature","geometry":{"type":"Point","coordinates":[7.59141,47.55686]},"properties":{"species":"Gemeine Rosskastanie","age_years":110,"street":"Münsterplatz","group":"Öffentliche Grünflächen"}},{"type":"Feature","geometry":{"type":"Point","coordinates":[7.58357,47.55894]},"properties":{"species":"Sommer-Linde","age_years":92,"street":"Petersplatz","group":"Öffentliche Grünflächen"}},{"type":"Feature","geometry":{"type":"Point","coordinates":[7.58446,47.55574]},"properties":{"species":"Spitz-Ahorn","age_years":52,"street":"Steinengraben","group":"Strassenbäume"}},{"type":"Feature","geometry":{"type":"Point","coordinates":[7.5839,47.55926]},"properties":{"species":"Weiss-Esche","age_years":50,"street":"Petersplatz","group":"Öffentliche Grünflächen"}},{"type":"Feature","geometry":{"type":"Point","coordinates":[7.58385,47.55936]},"properties":{"species":"Krim-Linde","age_years":42,"street":"Petersplatz","group":"Öffentliche Grünflächen"}},{"type":"Feature","geometry":{"type":"Point","coordinates":[7.59188,47.55687]},"properties":{"species":"Gemeine Rosskastanie","age_years":110,"street":"Münsterplatz","group":"Öffentliche Grünflächen"}},{"type":"Feature","geometry":{"type":"Point","coordinates":[7.59097,47.55626]},"properties":{"species":"Winter-Linde","age_years":50,"street":"Münsterplatz","group":"Öffentliche Grünflächen"}},{"type":"Feature","geometry":{"type":"Point","coordinates":[7.59218,47.55953]},"properties":{"species":"Winter-Linde","age_years":65,"street":"Oberer Rheinweg","group":"Strassenbäume"}},{"type":"Feature","geometry":{"type":"Point","coordinates":[7.59339,47.55643]},"properties":{"species":"Echte Walnuss","age_years":null,"street":"Pfalz","group":"Öffentliche Grünflächen"}},{"type":"Feature","geometry":{"type":"Point","coordinates":[7.59235,47.55942]},"properties":{"species":"Winter-Linde","age_years":62,"street":"Oberer Rheinweg","group":"Strassenbäume"}},{"type":"Feature","geometry":{"type":"Point","coordinates":[7.58394,47.55935]},"properties":{"species":"Krim-Linde","age_years":47,"street":"Petersplatz","group":"Öffentliche Grünflächen"}},{"type":"Feature","geometry":{"type":"Point","coordinates":[7.58371,47.55967]},"properties":{"species":"Gewöhnliche oder Europäische Eibe","age_years":44,"street":"Hebelstrasse","group":"Privatbäume gepflegt durch STG"}},{"type":"Feature","geometry":{"type":"Point","coordinates":[7.58424,47.55884]},"properties":{"species":"Gewöhnliche Platane","age_years":67,"street":"Petersplatz","group":"Öffentliche Grünflächen"}},{"type":"Feature","geometry":{"type":"Point","coordinates":[7.59271,47.55697]},"properties":{"species":"Feld-Ahorn","age_years":91,"street":"Pfalz","group":"Öffentliche Grünflächen"}},{"type":"Feature","geometry":{"type":"Point","coordinates":[7.59308,47.55656]},"properties":{"species":"Spitz-Ahorn","age_years":null,"street":"Pfalz","group":"Öffentliche Grünflächen"}},{"type":"Feature","geometry":{"type":"Point","coordinates":[7.5918,47.55659]},"properties":{"species":"Gemeine Rosskastanie","age_years":110,"street":"Münsterplatz","group":"Öffentliche Grünflächen"}},{"type":"Feature","geometry":{"type":"Point","coordinates":[7.58411,47.5592]},"properties":{"species":"Krim-Linde","age_years":47,"street":"Petersplatz","group":"Öffentliche Grünflächen"}},{"type":"Feature","geometry":{"type":"Point","coordinates":[7.58367,47.55941]},"properties":{"species":"Krim-Linde","age_years":42,"street":"Petersplatz","group":"Öffentliche Grünflächen"}},{"type":"Feature","geometry":{"type":"Point","coordinates":[7.58881,47.55886]},"properties":{"species":"Krim-Linde","age_years":48,"street":"Martinskirchplatz","group":"Öffentliche Grünflächen"}},{"type":"Feature","geometry":{"type":"Point","coordinates":[7.58426,47.55896]},"properties":{"species":"Gewöhnliche Platane","age_years":62,"street":"Petersplatz","group":"Öffentliche Grünflächen"}},{"type":"Feature","geometry":{"type":"Point","coordinates":[7.58357,47.55937]},"properties":{"species":"Krim-Linde","age_years":47,"street":"Petersplatz","group":"Öffentliche Grünflächen"}},{"type":"Feature","geometry":{"type":"Point","coordinates":[7.58381,47.55565]},"properties":{"species":"Gewöhnliche Platane","age_years":11,"street":"Holbeinplatz","group":"Strassenbäume"}},{"type":"Feature","geometry":{"type":"Point","coordinates":[7.58807,47.55999]},"properties":{"species":"Südlicher Zürgelbaum","age_years":20,"street":"Schifflände","group":"Strassenbäume"}},{"type":"Feature","geometry":{"type":"Point","coordinates":[7.58544,47.55887]},"properties":{"species":"Dreidornen-Gleditschie","age_years":39,"street":"Stiftsgasse","group":"Schul- und Kindergartenareal"}},{"type":"Feature","geometry":{"type":"Point","coordinates":[7.59026,47.55828]},"properties":{"species":"Edel-Kastanie/ Ess-Kastanie","age_years":null,"street":null,"group":"Privatbäume gepflegt durch STG"}},{"type":"Feature","geometry":{"type":"Point","coordinates":[7.59278,47.55979]},"properties":{"species":"Kultur-Apfel","age_years":20,"street":"Utengasse","group":"Öffentliche Grünflächen"}},{"type":"Feature","geometry":{"type":"Point","coordinates":[7.59208,47.55581]},"properties":{"species":"Trauben-Eiche","age_years":15,"street":"Rittergasse","group":"Öffentliche Grünflächen"}},{"type":"Feature","geometry":{"type":"Point","coordinates":[7.58478,47.55644]},"properties":{"species":"Europäische Hopfenbuche","age_years":15,"street":"Leonhardsgraben","group":"Strassenbäume"}},{"type":"Feature","geometry":{"type":"Point","coordinates":[7.59156,47.5567]},"properties":{"species":"Gemeine Rosskastanie","age_years":110,"street":"Münsterplatz","group":"Öffentliche Grünflächen"}},{"type":"Feature","geometry":{"type":"Point","coordinates":[7.59201,47.55965]},"properties":{"species":"Krim-Linde","age_years":55,"street":"Oberer Rheinweg","group":"Strassenbäume"}},{"type":"Feature","geometry":{"type":"Point","coordinates":[7.59326,47.55648]},"properties":{"species":"Gewöhnliche Hain- oder Weissbuche","age_years":null,"street":"Pfalz","group":"Öffentliche Grünflächen"}},{"type":"Feature","geometry":{"type":"Point","coordinates":[7.58518,47.55885]},"properties":{"species":"Dreidornen-Gleditschie","age_years":38,"street":"Stiftsgasse","group":"Schul- und Kindergartenareal"}},{"type":"Feature","geometry":{"type":"Point","coordinates":[7.58877,47.55665]},"properties":{"species":"Winter-Linde","age_years":33,"street":"Falknerstrasse","group":"Strassenbäume"}},{"type":"Feature","geometry":{"type":"Point","coordinates":[7.58942,47.55903]},"properties":{"species":"Korkenzieher Peking-Weide","age_years":46,"street":"Rheinsprung","group":"Öffentliche Grünflächen"}}]}