{"type":"FeatureCollection","features":[{"type":"Feature","geometry":{"type":"Polygon","coordinates":[[[7.65237,47.56212],[7.6537,47.563],[7.65649,47.56576],[7.6574,47.56769],[7.65854,47.56885],[7.65865,47.56926],[7.66022,47.5714],[7.66063,47.57119],[7.66188,47.57198],[7.66145,47.57242],[7.66242,47.57281],[7.66154,47.5739],[7.66194,47.57409],[7.66238,47.57473],[7.66291,47.57514],[7.66492,47.57558],[7.66524,47.57508],[7.66631,47.57505],[7.66682,47.57475],[7.66681,47.57448],[7.67018,47.57359],[7.67169,47.57371],[7.67274,47.57407],[7.67486,47.57399],[7.67578,47.5738],[7.67635,47.57398],[7.67673,47.57431],[7.67735,47.57435],[7.67763,47.57456],[7.67732,47.57597],[7.67736,47.5765],[7.67773,47.57813],[7.67851,47.57936],[7.67868,47.58015],[7.68082,47.58113],[7.68137,47.581],[7.68191,47.57746],[7.68386,47.57666],[7.68368,47.57391],[7.68431,47.5738],[7.68551,47.57309],[7.68892,47.57243],[7.68966,47.5714],[7.6889,47.57029],[7.68711,47.56839],[7.68593,47.56562],[7.68376,47.56836],[7.68343,47.56843],[7.68372,47.57054],[7.68351,47.57126],[7.68103,47.57044],[7.67911,47.56951],[7.67845,47.56897],[7.67769,47.56781],[7.67515,47.56543],[7.67729,47.56494],[7.67733,47.56375],[7.67446,47.56346],[7.67246,47.56373],[7.67237,47.56545],[7.67023,47.56584],[7.66556,47.56507],[7.66424,47.5654],[7.65876,47.56448],[7.65676,47.56313],[7.65616,47.56228],[7.65454,47.56237],[7.65265,47.56178],[7.65237,47.56212]]]},"properties":{"name":"Bettingen"}},{"type":"Feature","geometry":{"type":"Polygon","coordinates":[[[7.55466,47.56437],[7.5573,47.56503],[7.55934,47.56939],[7.55646,47.57139],[7.5569,47.57247],[7.56544,47.57622],[7.56649,47.57767],[7.57162,47.57711],[7.57525,47.57614],[7.5764,47.57645],[7.57886,47.57667],[7.58466,47.57552],[7.5844,47.57858],[7.58474,47.58086],[7.58573,47.58409],[7.58697,47.58655],[7.58905,47.5899],[7.59847,47.58764],[7.60482,47.58494],[7.60459,47.58282],[7.60406,47.58134],[7.6047,47.58118],[7.60477,47.58041],[7.60534,47.57989],[7.60489,47.57788],[7.60942,47.57819],[7.61321,47.57816],[7.61672,47.57769],[7.61914,47.57688],[7.62455,47.57942],[7.62702,47.57735],[7.62339,47.57537],[7.6208,47.57341],[7.62197,47.57071],[7.62269,47.56963],[7.62338,47.56897],[7.62373,47.56888],[7.62497,47.56993],[7.62573,47.5692],[7.6255,47.56909],[7.62825,47.56643],[7.63135,47.56795],[7.63415,47.56555],[7.6326,47.56151],[7.63021,47.56171],[7.62737,47.56152],[7.62439,47.56076],[7.61762,47.55865],[7.61784,47.55713],[7.61759,47.55499],[7.61774,47.55438],[7.61845,47.55361],[7.62087,47.55235],[7.62182,47.55166],[7.62244,47.55092],[7.62291,47.54987],[7.62231,47.53978],[7.61955,47.54033],[7.61819,47.54081],[7.61701,47.54012],[7.61407,47.5394],[7.61358,47.53914],[7.61304,47.53844],[7.6127,47.537],[7.61104,47.53596],[7.61139,47.53545],[7.61049,47.53522],[7.61023,47.53564],[7.60919,47.53502],[7.60602,47.53098],[7.60604,47.53078],[7.60565,47.53075],[7.60549,47.53031],[7.60555,47.52979],[7.60462,47.5298],[7.60471,47.52929],[7.60178,47.52535],[7.59479,47.5193],[7.59026,47.5198],[7.58933,47.52296],[7.58965,47.52516],[7.58997,47.52574],[7.58993,47.52668],[7.58949,47.52793],[7.5885,47.52826],[7.58847,47.52906],[7.58587,47.52928],[7.58569,47.53133],[7.58473,47.53124],[7.58386,47.53092],[7.58279,47.53198],[7.5827,47.53247],[7.58347,47.53347],[7.58593,47.53741],[7.58597,47.53777],[7.58554,47.5382],[7.5855,47.53862],[7.58727,47.54191],[7.58148,47.54383],[7.58097,47.54369],[7.58007,47.54384],[7.57848,47.54373],[7.5757,47.54396],[7.56479,47.54569],[7.55755,47.54441],[7.55589,47.54434],[7.55876,47.55236],[7.56125,47.55173],[7.56306,47.55493],[7.56459,47.55704],[7.56457,47.55722],[7.56159,47.55919],[7.55988,47.56054],[7.55873,47.56196],[7.55793,47.56263],[7.55466,47.56437]]]},"properties":{"name":"Basel"}},{"type":"Feature","geometry":{"type":"Polygon","coordinates":[[[7.6208,47.57341],[7.62339,47.57537],[7.62702,47.57735],[7.62455,47.57942],[7.62803,47.58137],[7.63411,47.58586],[7.63644,47.58838],[7.63964,47.59037],[7.64325,47.59135],[7.64187,47.59291],[7.64179,47.5942],[7.64441,47.59575],[7.64568,47.59696],[7.65106,47.59572],[7.65507,47.5954],[7.6617,47.59371],[7.66463,47.59267],[7.66734,47.59195],[7.67518,47.59199],[7.67551,47.59305],[7.67679,47.59432],[7.67807,47.59536],[7.67973,47.59637],[7.68067,47.5972],[7.68156,47.59734],[7.68302,47.5985],[7.68483,47.59877],[7.68799,47.59861],[7.68932,47.59885],[7.69165,47.59959],[7.69334,47.60092],[7.6938,47.60078],[7.69305,47.59949],[7.69016,47.59758],[7.68473,47.59664],[7.68365,47.59603],[7.68199,47.59427],[7.67959,47.59225],[7.67739,47.59137],[7.67175,47.58728],[7.67208,47.58525],[7.67494,47.58424],[7.68086,47.58269],[7.68137,47.581],[7.68082,47.58113],[7.67868,47.58015],[7.67851,47.57936],[7.67773,47.57813],[7.67732,47.57597],[7.67763,47.57456],[7.67735,47.57435],[7.67677,47.57432],[7.67635,47.57398],[7.67578,47.5738],[7.67486,47.57399],[7.67274,47.57407],[7.67169,47.57371],[7.67018,47.57359],[7.66681,47.57448],[7.66682,47.57475],[7.66631,47.57505],[7.66524,47.57508],[7.66492,47.57558],[7.66291,47.57514],[7.66238,47.57473],[7.66194,47.57409],[7.66154,47.5739],[7.66242,47.57281],[7.66145,47.57242],[7.66188,47.57198],[7.66063,47.57119],[7.66022,47.5714],[7.65865,47.56926],[7.65854,47.56885],[7.6574,47.56769],[7.65649,47.56576],[7.6537,47.563],[7.65237,47.56212],[7.65265,47.56178],[7.64828,47.55994],[7.64406,47.56129],[7.64127,47.56127],[7.63834,47.56323],[7.63613,47.56392],[7.63397,47.56123],[7.6326,47.56151],[7.63415,47.56555],[7.63135,47.56795],[7.62825,47.56643],[7.6255,47.56909],[7.62573,47.5692],[7.62497,47.56993],[7.62394,47.56895],[7.62341,47.56895],[7.62269,47.56963],[7.62197,47.57071],[7.6208,47.57341]]]},"properties":{"name":"Riehen"}}]}