{
  "type": "FeatureCollection",
  "features": [
    {
      "type": "Feature",
      "geometry": {
        "type": "Polygon",
        "coordinates": [
          [
            [
              7.594275018396472,
              47.56700435554959
            ],
            [
              7.594262741569168,
              47.56718058105467
            ],
            [
              7.594225001772671,
              47.5673551435505
            ],
            [
              7.594162162218451,
              47.567526361880674
            ],
            [
              7.5940748278612515,
              47.56769258707961
            ],
            [
              7.593963839581656,
              47.56785221825453
            ],
            [
              7.593830266095508,
              47.56800371800495
            ],
            [
              7.593675393667869,
              47.56814562723134
            ],
            [
              7.593500713730154,
              47.56827657918962
            ],
            [
              7.593307908519772,
              47.56839531265694
            ],
            [
              7.593098834880178,
              47.56850068408126
            ],
            [
              7.592875506377616,
              47.568591678597244
            ],
            [
              7.592640073906528,
              47.56866741980356
            ],
            [
              7.592394804970712,
              47.56872717820556
            ],
            [
              7.592142061839857,
              47.56877037824339
            ],
            [
              7.591884278792076,
              47.56879660383708
            ],
            [
              7.591623938661861,
              47.568805602394946
            ],
            [
              7.59136354891973,
              47.56879728724748
            ],
            [
              7.5911056175141844,
              47.568771738481935
            ],
            [
              7.59085262870905,
              47.56872920217115
            ],
            [
              7.590607019149357,
              47.56867008800243
            ],
            [
              7.590371154386439,
              47.56859496533081
            ],
            [
              7.590147306088822,
              47.56850455769363
            ],
            [
              7.58993763015861,
              47.568399735840096
            ],
            [
              7.589744145964313,
              47.5682815093426
            ],
            [
              7.589568716890352,
              47.56815101687067
            ],
            [
              7.589413032390679,
              47.568009515222236
            ],
            [
              7.589278591719308,
              47.567858367216225
            ],
            [
              7.589166689494501,
              47.567699028565116
            ],
            [
              7.589078403235424,
              47.567533033852605
            ],
            [
              7.589014582991253,
              47.56736198175221
            ],
            [
              7.588975843162234,
              47.56718751962932
            ],
            [
              7.588962556591273,
              47.56701132767416
            ],
            [
              7.588974850982592,
              47.56683510272029
            ],
            [
              7.58901260768157,
              47.56666054190239
            ],
            [
              7.589075462827182,
              47.566489326312336
            ],
            [
              7.589162810865523,
              47.566323104810415
            ],
            [
              7.5892738103902495,
              47.5661634781474
            ],
            [
              7.589407392253365,
              47.566011983550275
            ],
            [
              7.5895622698679,
              47.56587007992064
            ],
            [
              7.5897369516031,
              47.56573913378742
            ],
            [
              7.589929755152482,
              47.565620406149584
            ],
            [
              7.590138823736422,
              47.56551504033526
            ],
            [
              7.590362143982963,
              47.56542405099404
            ],
            [
              7.590597565314935,
              47.565348314328546
            ],
            [
              7.590842820656615,
              47.56528855965885
            ],
            [
              7.591095548260727,
              47.56524536240138
            ],
            [
              7.591353314445838,
              47.56521913852933
            ],
            [
              7.591613637025482,
              47.56521014056805
            ],
            [
              7.5918740092036,
              47.56521845516433
            ],
            [
              7.592131923706667,
              47.565244002251866
            ],
            [
              7.592384896920405,
              47.56528653582261
            ],
            [
              7.592630492798958,
              47.565345646294254
            ],
            [
              7.592866346316749,
              47.56542076445401
            ],
            [
              7.593090186237394,
              47.56551116693787
            ],
            [
              7.593299856980713,
              47.56561598319466
            ],
            [
              7.593493339377525,
              47.565734203867194
            ],
            [
              7.5936687701124885,
              47.56586469050954
            ],
            [
              7.593824459667813,
              47.56600618654803
            ],
            [
              7.593958908595206,
              47.56615732937923
            ],
            [
              7.594070821959127,
              47.566316663489495
            ],
            [
              7.594159121812337,
              47.56648265446974
            ],
            [
              7.594222957583255,
              47.566653703789704
            ],
            [
              7.594261714274945,
              47.56682816419108
            ],
            [
              7.594275018396472,
              47.56700435554959
            ]
          ]
        ]
      },
      "properties": {
        "area_m2_epsg2056": 125322.12182409748
      }
    }
  ]
}
